MULTIPOLYGON (((54.64492187500002 26.508935546874994, 54.522070312500006 26.589160156249996, 54.2470703125 26.696630859375, 54.0693359375 26.732373046874997, 53.82255859375002 26.707714843749997, 53.70576171875001 26.7255859375, 53.50712890625002 26.851757812499997, 53.45498046875002 26.943261718749994, 53.34169921875002 27.0044921875, 52.982519531250006 27.141943359375, 52.69160156250001 27.323388671874994, 52.63818359375 27.391992187499994, 52.602636718750006 27.493359374999997, 52.47587890625002 27.616503906249996, 52.19189453125 27.71728515625, 52.03076171875 27.824414062499997, 51.84199218750001 27.8482421875, 51.66630859375002 27.844970703125, 51.58906250000001 27.864208984374997, 51.533964177438705 27.9, 55 27.9, 55 26.624615547612013, 54.89580078125002 26.556689453124996, 54.75927734375 26.505078124999997, 54.64492187500002 26.508935546874994)), ((35.33574218750002 33.503466796874996, 35.510839843750006 33.879736328125, 35.61181640625 34.032177734375, 35.64785156250002 34.2482421875, 35.804296875000006 34.437402343749994, 35.92138671875 34.493310546874994, 35.97792968750002 34.547412109374996, 35.97626953125001 34.629199218749996, 35.89931640625002 34.852099609374996, 35.88789062500001 34.948632812499994, 35.88994140625002 35.060302734375, 35.94306640625001 35.223828125, 35.918066406250006 35.29951171875, 35.902441406250006 35.420703124999996, 35.76445312500002 35.571582031249996, 35.83964843750002 35.84921875, 35.95693359375002 35.99814453125, 35.88710937500002 36.159082031249994, 35.81093750000002 36.309863281249996, 35.8828125 36.40634765625, 36.03173828125 36.522705078125, 36.1884765625 36.658984374999996, 36.18007812500002 36.8072265625, 36.13515625000002 36.851611328124996, 36.048925781250006 36.910595703125, 35.90458984375002 36.847607421875, 35.80156250000002 36.778076171875, 35.73427734375002 36.763964843749996, 35.6611328125 36.72431640625, 35.625585937500006 36.652783203125, 35.53740234375002 36.597021484375, 35.393164062500006 36.5751953125, 35.17617187500002 36.63486328125, 34.94316406250002 36.72568359375, 34.81123046875001 36.799267578125, 34.70361328125 36.816796874999994, 34.60136718750002 36.784472656249996, 34.29960937500002 36.60419921875, 34.0234375 36.340771484375, 33.95488281250002 36.295214843749996, 33.69472656250002 36.181982421875, 33.52275390625002 36.143994140625, 33.44179687500002 36.15283203125, 33.09951171875002 36.102978515625, 32.92949218750002 36.095703125, 32.79482421875002 36.035888671875, 32.533789062500006 36.100732421874994, 32.37773437500002 36.183642578124996, 32.283789062500006 36.267871093749996, 32.13056640625001 36.449121093749994, 32.02197265625 36.535302734374994, 31.777929687500006 36.61279296875, 31.3525390625 36.801074218749996, 31.240625000000023 36.821728515625, 30.950292968750006 36.848681640624996, 30.64404296875 36.865673828125, 30.58203125 36.797167968749996, 30.558496093750023 36.525830078125, 30.50605468750001 36.451123046875, 30.48359375000001 36.310400390625, 30.446093750000017 36.269873046875, 30.387304687500006 36.24326171875, 30.29541015625 36.2876953125, 30.23164062500001 36.30732421875, 30.08320312500001 36.249365234375, 29.78925781250001 36.16806640625, 29.689062500000006 36.156689453125, 29.34833984375001 36.258837890624996, 29.2236328125 36.324462890625, 29.14326171875001 36.397216796875, 29.116113281250023 36.5201171875, 29.065527343750006 36.590087890625, 29.05810546875 36.638134765625, 29.03828125000001 36.69345703125, 28.969628906250023 36.71533203125, 28.895898437500023 36.673583984375, 28.81689453125 36.67529296875, 28.717675781250023 36.70087890625, 28.48359375000001 36.80380859375, 28.3037109375 36.811962890625, 28.195605468750017 36.686328124999996, 28.11152343750001 36.646386718749994, 28.019433593750023 36.63447265625, 28.01416015625 36.670214843749996, 28.083984375 36.75146484375, 27.803808593750006 36.736474609374994, 27.655859375000006 36.674609374999996, 27.540429687500023 36.684228515624994, 27.453906250000017 36.712158203125, 27.466894531250006 36.746337890625, 27.5546875 36.75888671875, 27.630859375 36.786669921874996, 27.934472656250023 36.80927734375, 28.00537109375 36.831982421875, 28.0830078125 36.920263671875, 28.224414062500017 36.996386718749996, 28.24238281250001 37.029052734375, 27.668359375000023 37.007421875, 27.348925781250017 37.019580078124996, 27.31103515625 36.981884765625, 27.262988281250017 36.9765625, 27.24970703125001 37.079150390624996, 27.300195312500023 37.126855468749994, 27.3681640625 37.122412109375, 27.535058593750023 37.163867187499996, 27.520117187500006 37.24912109375, 27.40058593750001 37.30673828125, 27.376269531250017 37.340722656249994, 27.28955078125 37.348681640624996, 27.21923828125 37.38916015625, 27.203906250000017 37.49140625, 27.14794921875 37.60361328125, 27.067968750000006 37.65791015625, 27.07783203125001 37.6876953125, 27.224414062500017 37.725439453125, 27.254785156250023 37.88232421875, 27.232421875 37.978662109374994, 27.15869140625 37.986865234374996, 27.12157325034119 38, 54 38, 54 34, 55 34, 55 33.3, 35.21820152653455 33.3, 35.25136718750002 33.392626953124996, 35.33574218750002 33.503466796874996)), ((48.83281250000002 27.800683593749994, 48.807226562500006 27.765283203124994, 48.79716796875002 27.724316406249997, 48.90644531250001 27.629052734374994, 49.0869140625 27.548583984375, 49.15751953125002 27.528222656249994, 49.23750000000001 27.492724609374996, 49.17509765625002 27.437646484374994, 49.28154296875002 27.310498046874997, 49.4052734375 27.180957031249996, 49.537695312500006 27.151757812499994, 49.71650390625001 26.955859374999996, 49.98613281250002 26.828906249999996, 50.14980468750002 26.662646484374996, 50.13466796875002 26.659521484375, 50.0263671875 26.69921875, 50.00810546875002 26.678515624999996, 50.011328125000006 26.608789062499994, 50.02734375 26.52685546875, 50.11074218750002 26.455957031249994, 50.18496093750002 26.404931640624994, 50.2138671875 26.308496093749994, 50.15546875000001 26.100537109374997, 50.05390625000001 26.122851562499996, 50.03164062500002 26.110986328124994, 50.0810546875 25.961376953124997, 50.13027343750002 25.846630859374997, 50.18964843750001 25.755810546874997, 50.23896484375001 25.622851562500003, 50.28125 25.566113281249997, 50.455175781250006 25.4248046875, 50.50849609375001 25.306689453125003, 50.55791015625002 25.086669921875, 50.66689453125002 24.963818359374997, 50.7255859375 24.869384765625, 50.80439453125001 24.789257812499997, 50.8359375 24.850390625000003, 50.846777343750006 24.888574218749994, 50.77734375 25.177441406249997, 50.75458984375001 25.39926757812499, 50.76289062500001 25.444726562499994, 50.80263671875002 25.4970703125, 50.86865234375 25.612695312499994, 50.90380859375 25.724072265624997, 51.00312500000001 25.9814453125, 51.10810546875001 26.08056640625, 51.262304687500006 26.153271484374997, 51.38906250000002 26.011132812499994, 51.543066406250006 25.902392578125003, 51.572265625 25.781005859375, 51.526953125000006 25.68212890625, 51.4853515625 25.524707031250003, 51.51025390625 25.452343749999997, 51.51953125 25.38974609374999, 51.56142578125002 25.284472656250003, 51.60195312500002 25.14794921875, 51.60888671875 25.052880859374994, 51.5869140625 24.96484375, 51.53339843750001 24.890869140625, 51.42792968750001 24.668261718750003, 51.396484375 24.64511718749999, 51.26796875000002 24.607226562500003, 51.338476562500006 24.564355468749994, 51.411230468750006 24.57080078125, 51.41835937500002 24.530957031249997, 51.36992187500002 24.47690429687499, 51.30986328125002 24.340380859375003, 51.47675781250001 24.30820312499999, 51.534765625000006 24.286328124999997, 51.568359375 24.286181640625003, 51.60546875 24.338427734375003, 51.623144531250006 24.301074218750003, 51.66455078125 24.250439453124997, 51.73476562500002 24.26279296874999, 51.767578125 24.25439453125, 51.79169921875001 24.074755859375003, 51.84316406250002 24.010888671874994, 51.90605468750002 23.9853515625, 52.11855468750002 23.971093749999994, 52.25087890625002 23.99521484374999, 52.51142578125001 24.112499999999997, 52.64824218750002 24.15463867187499, 53.0263671875 24.14731445312499, 53.32958984375 24.098437500000003, 53.8017578125 24.069482421874994, 53.89335937500002 24.077050781249994, 54.14794921875 24.171191406250003, 54.304296875000006 24.254296874999994, 54.397070312500006 24.27817382812499, 54.45839843750002 24.35825195312499, 54.49882812500002 24.462695312500003, 54.53466796875 24.530957031249997, 54.58046875000002 24.563525390625003, 54.624121093750006 24.621289062499997, 54.65898437500002 24.715527343749997, 54.74677734375001 24.810449218749994, 55 24.97703566325909, 55 17.02261337652438, 54.77187500000002 16.964648437500003, 54.664648437500006 17.00888671874999, 54.566503906250006 17.03125, 54.376953125 17.033642578124997, 54.06816406250002 17.005517578124994, 53.95439453125002 16.91782226562499, 53.775390625 16.855712890625, 53.60986328125 16.759960937499997, 53.29775390625002 16.723339843749997, 52.58144531250002 16.470361328124994, 52.44843750000001 16.391259765624994, 52.327734375000006 16.29355468749999, 52.2373046875 16.17138671875, 52.17402343750001 15.956835937500003, 52.22207031250002 15.760595703124991, 52.21748046875001 15.655517578125, 52.08730468750002 15.5859375, 51.9658203125 15.535693359375003, 51.83076171875001 15.459277343750003, 51.748632812500006 15.440136718749997, 51.68154296875002 15.379101562499997, 51.60371093750001 15.336816406249994, 51.32246093750001 15.226269531249997, 51.01513671875 15.140771484374994, 50.52705078125001 15.038183593749991, 50.33857421875001 14.927197265624997, 50.16689453125002 14.851025390624997, 49.906347656250006 14.828125, 49.54863281250002 14.722412109375, 49.34990234375002 14.637792968749991, 49.10292968750002 14.500048828125003, 49.04804687500001 14.456445312499994, 49.00468750000002 14.355029296875003, 48.9287109375 14.267480468749994, 48.77998046875001 14.123876953124991, 48.66835937500002 14.050146484374991, 48.59375 14.046240234374991, 48.44902343750002 14.005908203125003, 48.27783203125 13.997656249999991, 47.98994140625001 14.048095703125, 47.916015625 14.012841796874994, 47.855078125000006 13.956933593749994, 47.633398437500006 13.858447265625003, 47.40771484375 13.66162109375, 47.24257812500002 13.609375, 46.975683593750006 13.547460937499991, 46.78886718750002 13.465576171875, 46.66347656250002 13.432714843749991, 46.501953125 13.415576171875003, 46.203125 13.423828125, 45.91972656250002 13.394287109375, 45.657324218750006 13.338720703124991, 45.53398437500002 13.233496093749991, 45.3935546875 13.067041015624994, 45.16386718750002 12.998291015625, 45.10976562500002 12.938574218749991, 45.038671875000006 12.815869140624997, 44.75527343750002 12.763769531249991, 44.617773437500006 12.817236328124991, 44.358496093750006 12.669140624999997, 44.260351562500006 12.644628906249991, 44.11152343750001 12.638671875, 44.005859375 12.607666015625, 43.929785156250006 12.616503906249989, 43.83535156250002 12.674414062499991, 43.634375000000006 12.744482421874991, 43.48759765625002 12.698828124999991, 43.47529296875001 12.839013671874994, 43.23193359375 13.26708984375, 43.28261718750002 13.639843749999997, 43.28242187500001 13.692529296874994, 43.23408203125001 13.858935546875003, 43.08906250000001 14.010986328125, 43.093359375000006 14.203662109375003, 43.04482421875002 14.341552734375, 43.00625000000002 14.483105468749997, 43.021093750000006 14.554882812499997, 42.94697265625001 14.773144531249997, 42.92216796875002 14.8173828125, 42.91298828125002 14.863085937500003, 42.93730468750002 14.898046874999991, 42.93642578125002 14.938574218749991, 42.897070312500006 15.005566406249997, 42.85566406250001 15.132958984374994, 42.657812500000006 15.232812499999994, 42.697851562500006 15.326318359374994, 42.736425781250006 15.293554687499991, 42.78847656250002 15.265722656249991, 42.799902343750006 15.371630859375003, 42.71718750000002 15.654638671874991, 42.83964843750002 16.032031250000003, 42.78984375000002 16.451562499999994, 42.73066406250001 16.56982421875, 42.72636718750002 16.6533203125, 42.698828125000006 16.736962890624994, 42.6474609375 16.80136718749999, 42.55292968750001 16.868457031250003, 42.54414062500001 16.959667968749997, 42.47500000000002 17.049853515625003, 42.38330078125 17.122460937499994, 42.33242187500002 17.256640625000003, 42.2939453125 17.434960937499994, 42.05224609375 17.669335937499994, 41.75 17.8857421875, 41.65800781250002 18.00766601562499, 41.50761718750002 18.256103515625, 41.431738281250006 18.452441406250003, 41.2294921875 18.678417968749997, 41.220800781250006 18.76523437499999, 41.11601562500002 19.082177734374994, 40.91328125000001 19.490136718749994, 40.84785156250001 19.55527343749999, 40.791601562500006 19.646386718749994, 40.77705078125001 19.71689453124999, 40.75917968750002 19.75546874999999, 40.61591796875001 19.82236328124999, 40.48222656250002 19.993457031250003, 40.080664062500006 20.265917968750003, 39.88408203125002 20.29296875, 39.72832031250002 20.390332031249997, 39.61367187500002 20.51767578124999, 39.4912109375 20.737011718749997, 39.27607421875001 20.97397460937499, 39.09355468750002 21.310351562500003, 39.15068359375002 21.432763671874994, 39.147070312500006 21.518994140624997, 39.09101562500001 21.663964843749994, 39.02978515625 21.77597656249999, 38.987890625000006 21.881738281249994, 39.02119140625001 22.033447265625, 39.03398437500002 22.203369140625, 39.069921875000006 22.293652343749997, 39.09589843750001 22.392773437499997, 39.06201171875 22.592187499999994, 39.00136718750002 22.698974609375, 39.007421875000006 22.770068359375003, 38.93876953125002 22.80478515624999, 38.882910156250006 22.882031249999997, 38.94111328125001 22.8818359375, 38.835546875000006 22.989062500000003, 38.796875 23.048583984375, 38.75703125000001 23.194287109374997, 38.7060546875 23.30551757812499, 38.54228515625002 23.557910156250003, 38.46416015625002 23.711865234374997, 38.28886718750002 23.91098632812499, 38.0986328125 24.058007812499994, 37.97783203125002 24.124560546875003, 37.91972656250002 24.18540039062499, 37.82099609375001 24.1875, 37.71337890625 24.2744140625, 37.543066406250006 24.291650390624994, 37.43095703125002 24.459033203125003, 37.338476562500006 24.61582031249999, 37.18085937500001 24.820019531249997, 37.22041015625001 24.873339843750003, 37.26630859375001 24.96005859374999, 37.24345703125002 25.073437499999997, 37.218359375000006 25.150683593750003, 37.14882812500002 25.29111328124999, 36.92070312500002 25.641162109375003, 36.86015625000002 25.69248046874999, 36.7626953125 25.75131835937499, 36.70253906250002 25.902880859375003, 36.67519531250002 26.038867187499996, 36.51875000000001 26.104882812499994, 36.249609375000006 26.594775390624996, 36.09375 26.765820312499997, 36.03203125000002 26.881005859374994, 35.851660156250006 27.070458984374994, 35.76298828125002 27.2587890625, 35.58134765625002 27.432470703125, 35.423828125 27.733789062499994, 35.289479225794686 27.9, 48.80669586794824 27.9, 48.83281250000002 27.800683593749994)), ((53.38847656250002 12.601855468749989, 53.403906250000006 12.633349609374989, 53.43095703125002 12.66357421875, 53.53496093750002 12.715771484374997, 53.63847656250002 12.707373046874991, 53.76318359375 12.636816406249991, 53.824804687500006 12.624804687499989, 53.918554687500006 12.659423828125, 54.18740234375002 12.664013671874997, 54.51113281250002 12.552783203124989, 54.45000000000002 12.5234375, 54.41376953125001 12.483300781249994, 54.27128906250002 12.446630859374991, 54.129492187500006 12.360644531249989, 53.718847656250006 12.318994140624994, 53.59833984375001 12.34228515625, 53.49941406250002 12.425341796874989, 53.31582031250002 12.533154296874997, 53.38847656250002 12.601855468749989)), ((54.39833984375002 24.50634765625, 54.42656250000002 24.47104492187499, 54.465429687500006 24.442773437499994, 54.456640625000006 24.42333984375, 54.35771484375002 24.442773437499994, 54.33476562500002 24.47104492187499, 54.37890625 24.504589843749997, 54.39833984375002 24.50634765625)), ((53.63447265625001 24.16977539062499, 53.68964843750001 24.21079101562499, 53.83378906250002 24.258935546874994, 53.89375000000001 24.215136718750003, 53.927832031250006 24.177197265624997, 53.92812500000002 24.143359375000003, 53.82636718750001 24.153125000000003, 53.79912109375002 24.135546875000003, 53.7158203125 24.145312500000003, 53.63447265625001 24.16977539062499)), ((53.41240234375002 24.411035156249994, 53.4453125 24.37119140624999, 53.40898437500002 24.307910156250003, 53.38261718750002 24.28085937499999, 53.33222656250001 24.258593750000003, 53.25830078125 24.2529296875, 53.19091796875 24.290917968749994, 53.33251953125 24.341601562500003, 53.37089843750002 24.364453124999997, 53.41240234375002 24.411035156249994)), ((52.60000000000002 24.281298828125003, 52.58222656250001 24.335253906250003, 52.583593750000006 24.352343750000003, 52.62939453125 24.376757812500003, 52.65761718750002 24.33261718749999, 52.61689453125001 24.28857421875, 52.60000000000002 24.281298828125003)), ((32.47304687500002 29.925439453124994, 32.48945312500001 29.851513671874997, 32.40859375000002 29.749316406249996, 32.35976562500002 29.630664062499996, 32.39726562500002 29.5337890625, 32.565039062500006 29.386328125, 32.6 29.31843017578132, 32.6 27.9, 33.545802468210184 27.9, 33.55878906250001 27.701220703124996, 33.5498046875 27.607373046874997, 33.65742187500001 27.430566406249994, 33.697265625 27.341113281249996, 33.80166015625002 27.2681640625, 33.84931640625001 27.184912109375, 33.89306640625 27.049462890624994, 33.959082031250006 26.6490234375, 34.04951171875001 26.550732421874997, 34.32929687500001 26.024365234374997, 34.56513671875001 25.691162109375, 34.679296875000006 25.442529296874994, 34.85322265625001 25.139794921874994, 35.19414062500002 24.475146484375003, 35.397070312500006 24.269970703124997, 35.47783203125002 24.15478515625, 35.62470703125001 24.06601562499999, 35.78388671875001 23.937792968750003, 35.63203125000001 23.950341796874994, 35.54082031250002 23.920654296875, 35.515234375000006 23.84287109374999, 35.50439453125 23.779296875, 35.52275390625002 23.442529296874994, 35.56435546875002 23.27109374999999, 35.697851562500006 22.946191406249994, 35.79736328125 22.84873046874999, 35.845800781250006 22.785693359375003, 35.91337890625002 22.739648437499994, 36.22968750000001 22.628808593749994, 36.41455078125 22.394189453124994, 36.829687500000006 22.09765625, 36.87041015625002 22.015771484374994, 36.88261718750002 21.768798828125, 36.92695312500001 21.58652343749999, 37.081152343750006 21.32602539062499, 37.21171875000002 21.185839843750003, 37.25859375000002 21.108544921874994, 37.26318359375 21.072656249999994, 37.25722656250002 21.03940429687499, 37.21748046875001 21.07763671875, 37.15058593750001 21.103759765625, 37.14111328125 20.98178710937499, 37.17265625000002 20.731982421875003, 37.2275390625 20.55673828124999, 37.18789062500002 20.394921874999994, 37.19316406250002 20.12070312499999, 37.26259765625002 19.791894531249994, 37.24843750000002 19.58188476562499, 37.36152343750001 19.091992187499997, 37.471289062500006 18.820117187500003, 37.53164062500002 18.753124999999997, 37.59941406250002 18.717431640624994, 37.72978515625002 18.6943359375, 37.921875 18.555908203125, 38.07402343750002 18.40976562499999, 38.12812500000001 18.333300781250003, 38.201757812500006 18.249414062499994, 38.25214843750001 18.264404296875, 38.28310546875002 18.28671874999999, 38.33291015625002 18.219042968750003, 38.57402343750002 18.072949218749997, 38.911718750000006 17.427148437499994, 39.03447265625002 17.08554687499999, 39.142578125 16.729150390624994, 39.22255859375002 16.19370117187499, 39.298925781250006 15.921093749999997, 39.42226562500002 15.786669921875003, 39.50654296875001 15.532128906249994, 39.57880859375001 15.522509765625003, 39.63125000000002 15.452539062499994, 39.720800781250006 15.213671875000003, 39.78554687500002 15.124853515624991, 39.819433593750006 15.201269531249991, 39.81562500000001 15.245312499999997, 39.79033203125002 15.31884765625, 39.8134765625 15.41357421875, 39.86376953125 15.470312499999991, 39.97832031250002 15.393115234375003, 40.041015625 15.334521484375003, 40.05781250000001 15.217089843750003, 40.084082031250006 15.151953124999991, 40.2041015625 15.014111328124997, 40.305273437500006 14.974023437499994, 40.4365234375 14.963964843749991, 40.54628906250002 14.93359375, 40.634375000000006 14.883007812499997, 40.79931640625 14.743017578124991, 41.17646484375001 14.620312499999997, 41.47968750000001 14.243896484375, 41.658203125 13.983056640624994, 42.2451171875 13.587646484375, 42.34648437500002 13.398095703124994, 42.39931640625002 13.212597656249997, 42.52285156250002 13.221484375000003, 42.734472656250006 13.018603515624989, 42.79619140625002 12.8642578125, 42.96953125000002 12.808349609375, 42.9990234375 12.899511718749991, 43.08291015625002 12.824609374999994, 43.130859375 12.660449218749989, 43.29863281250002 12.4638671875, 43.353515625 12.367041015624991, 43.409765625000006 12.18994140625, 43.38027343750002 12.091259765624997, 43.33671875000002 12.027001953124994, 43.272070312500006 11.969531249999989, 43.04804687500001 11.829052734374997, 42.79902343750001 11.739404296874994, 42.64003906250002 11.560107421874989, 42.52177734375002 11.572167968749994, 42.53974609375001 11.504296874999994, 42.58378906250002 11.496777343749997, 42.65273437500002 11.509570312499989, 42.78974609375001 11.561718749999997, 42.91152343750002 11.586621093749997, 43.04277343750002 11.588476562499991, 43.161718750000006 11.566015624999991, 43.44121093750002 11.346435546875, 43.63115234375002 11.035449218749989, 43.85273437500001 10.784277343749991, 44.158203125 10.55078125, 44.279296875 10.471874999999997, 44.38652343750002 10.430224609374989, 44.942968750000006 10.436718749999997, 45.33769531250002 10.649755859374991, 45.695898437500006 10.803906249999997, 45.81669921875002 10.835888671874997, 46.024511718750006 10.793701171875, 46.25390625 10.781103515624991, 46.46025390625002 10.734179687499989, 46.565039062500006 10.745996093749994, 46.97343750000002 10.925390624999991, 47.230078125000006 11.099902343749989, 47.40498046875001 11.174023437499997, 47.47382812500001 11.1748046875, 47.712500000000006 11.112011718749997, 48.01923828125001 11.139355468749997, 48.43886718750002 11.290136718749991, 48.57255859375002 11.320507812499997, 48.674414062500006 11.322656249999994, 48.90312500000002 11.2548828125, 49.062109375000006 11.270849609374991, 49.388281250000006 11.342724609374997, 49.64208984375 11.450927734375, 50.11005859375001 11.529296875, 50.46621093750002 11.7275390625, 50.5283203125 11.823193359374997, 50.63593750000001 11.943798828124997, 50.79228515625002 11.983691406249989, 51.19130859375002 11.841992187499997, 51.2548828125 11.830712890624994, 51.21816406250002 11.657666015624997, 51.136328125000006 11.505126953125, 51.08427734375002 11.335644531249997, 51.12226562500001 11.076757812499991, 51.140625 10.656884765624994, 51.13125000000002 10.595898437499997, 51.10488281250002 10.535839843749997, 51.093847656250006 10.488525390625, 51.05078125 10.471972656249989, 51.031835937500006 10.444775390624997, 51.06318359375001 10.433935546874991, 51.18828125000002 10.479736328125, 51.185546875 10.529833984374989, 51.192968750000006 10.554638671874997, 51.29570312500002 10.498681640624994, 51.369140625 10.475244140624994, 51.390234375000006 10.422607421875, 51.38457031250002 10.386523437499989, 51.268164062500006 10.403124999999989, 51.20878906250002 10.431054687499994, 51.03593750000002 10.385156249999994, 50.93007812500002 10.335546874999991, 50.8984375 10.253124999999997, 50.87373046875001 9.924169921874991, 50.83281250000002 9.710498046874989, 50.82500000000002 9.428173828124997, 50.685156250000006 9.241162109374997, 50.63798828125002 9.109277343749994, 50.429785156250006 8.845263671874989, 50.32119140625002 8.619580078124997, 50.285742187500006 8.509423828124994, 50.10283203125002 8.199804687499991, 49.85205078125 7.962548828124994, 49.76123046875 7.6595214843749915, 49.67119140625002 7.469531249999989, 49.57001953125001 7.2969726562499915, 49.34853515625002 6.990527343749989, 49.234960937500006 6.77734375, 49.09267578125002 6.407861328124994, 49.04931640625 6.173632812499989, 48.649023437500006 5.494384765625, 48.233984375000006 4.952685546874989, 47.97529296875001 4.497021484374997, 47.51142578125001 3.96826171875, 46.87880859375002 3.28564453125, 46.05117187500002 2.4751464843749886, 45.826269531250006 2.3098632812499886, 44.92021484375002 1.8101562499999915, 44.33271484375001 1.3909667968749915, 44.03271484375 1.1059082031249972, 43.71757812500002 0.8578613281249972, 43.46767578125002 0.6216308593749886, 42.71210937500001 -0.1756835937500085, 42.56074218750001 -0.3214843750000114, 42.46562500000002 -0.45654296875, 42.3994140625 -0.5100585937500028, 42.21894531250001 -0.7379882812500114, 42.10625000000002 -0.8561523437500114, 41.97988281250002 -0.9730468750000085, 41.92626953125 -1.0555664062500085, 41.888281250000006 -1.1505859375000114, 41.84619140625 -1.2034179687500028, 41.73222656250002 -1.4300781250000085, 41.63203125000001 -1.5785156250000085, 41.38691406250001 -1.8669921875000028, 41.26748046875002 -1.9450195312500114, 41.10683593750002 -1.9823242187500085, 41.058691406250006 -1.9751953125000057, 40.99550781250002 -1.9505859375000085, 40.970703125 -1.9917968750000057, 40.9521484375 -2.055957031250003, 40.889746093750006 -2.0235351562500057, 40.905859375000006 -2.137500000000003, 40.92236328125 -2.1937500000000085, 40.89824218750002 -2.2699218750000085, 40.82011718750002 -2.3363281250000085, 40.81318359375001 -2.392382812500003, 40.644140625000006 -2.5394531250000085, 40.40449218750001 -2.5556640625, 40.27851562500001 -2.6286132812500114, 40.22246093750002 -2.6883789062500085, 40.179785156250006 -2.8190429687500114, 40.19472656250002 -3.0192382812500114, 40.12812500000001 -3.17333984375, 40.11542968750001 -3.2505859375000057, 39.99169921875 -3.3506835937500057, 39.93681640625002 -3.4424804687500057, 39.89628906250002 -3.5358398437500114, 39.860937500000006 -3.5767578125000057, 39.81914062500002 -3.7860351562500085, 39.73164062500001 -3.9932617187500057, 39.63710937500002 -4.15283203125, 39.49091796875001 -4.4784179687500085, 39.376953125 -4.62548828125, 39.28750000000002 -4.608593750000011, 39.228125000000006 -4.66552734375, 39.20185546875001 -4.776464843750006, 39.12324218750001 -4.98046875, 39.118750000000006 -5.0654296875, 39.087988281250006 -5.1654296875000085, 39.05830078125001 -5.231542968750006, 38.97822265625001 -5.5185546875, 38.91103515625002 -5.6259765625, 38.81923828125002 -5.877636718750011, 38.8046875 -6.070117187500003, 38.85527343750002 -6.204882812500003, 38.8740234375 -6.331250000000011, 38.9814453125 -6.455078125, 39.0673828125 -6.499316406250003, 39.12548828125 -6.555957031250003, 39.22841796875002 -6.685253906250011, 39.28730468750001 -6.81494140625, 39.47236328125001 -6.878613281250011, 39.54609375000001 -7.024023437500006, 39.51923828125001 -7.124121093750006, 39.43339843750002 -7.20703125, 39.353125000000006 -7.341406250000006, 39.28847656250002 -7.517871093750003, 39.28701171875002 -7.787695312500006, 39.33046875000002 -7.746679687500006, 39.42841796875001 -7.812792968750003, 39.441015625000006 -8.011523437500003, 39.34003906250001 -8.242871093750011, 39.30898437500002 -8.350976562500009, 39.30400390625002 -8.44384765625, 39.37734375000002 -8.720800781250006, 39.488378906250006 -8.86181640625, 39.480078125000006 -8.905957031250011, 39.451269531250006 -8.942968750000006, 39.64130859375001 -9.192480468750006, 39.62548828125 -9.409472656250003, 39.69667968750002 -9.578417968750003, 39.72792968750002 -9.724804687500011, 39.77480468750002 -9.837109375000011, 39.783789062500006 -9.91455078125, 39.725195312500006 -10.00048828125, 39.86376953125 -10.02197265625, 39.94521484375002 -10.09228515625, 39.98359375000001 -10.159570312500009, 40.08369140625001 -10.156640625000009, 40.13789062500001 -10.20263671875, 40.21601562500001 -10.240625000000009, 40.388769531250006 -10.353515625, 40.435546875 -10.410253906250006, 40.516699218750006 -10.5673828125, 40.61171875000002 -10.661523437500009, 40.55507812500002 -10.716210937500009, 40.48662109375002 -10.76513671875, 40.59716796875 -10.830664062500006, 40.51611328125 -10.929589843750009, 40.50625000000002 -10.998437500000009, 40.544531250000006 -11.065625000000011, 40.49140625000001 -11.178906250000011, 40.420996093750006 -11.265625, 40.40283203125 -11.33203125, 40.46513671875002 -11.449414062500011, 40.43310546875 -11.657324218750006, 40.49355468750002 -11.844433593750011, 40.51044921875001 -11.9404296875, 40.53154296875002 -12.004589843750011, 40.50146484375 -12.119433593750003, 40.50917968750002 -12.312890625000009, 40.52314453125001 -12.392773437500011, 40.48710937500002 -12.4921875, 40.54833984375 -12.526562500000011, 40.58085937500002 -12.635546875000003, 40.57207031250002 -12.758398437500006, 40.553320312500006 -12.824609375000009, 40.44765625000002 -12.90478515625, 40.435156250000006 -12.935937500000009, 40.43681640625002 -12.983105468750011, 40.56875000000002 -12.984667968750003, 40.56953125000001 -13.223437500000003, 40.55195312500001 -13.293750000000003, 40.58291015625002 -13.3740234375, 40.54511718750001 -13.462890625, 40.59052734375001 -13.845019531250003, 40.595703125 -14.122851562500003, 40.6025390625 -14.167382812500009, 40.649511718750006 -14.198828125000006, 40.71562500000002 -14.214453125000006, 40.71308593750001 -14.290625000000006, 40.63994140625002 -14.390039062500009, 40.63554687500002 -14.451855468750011, 40.646093750000006 -14.538671875000006, 40.726660156250006 -14.420703125000003, 40.775000000000006 -14.421289062500009, 40.81816406250002 -14.467578125000003, 40.812109375000006 -14.535546875000009, 40.82695312500002 -14.569042968750011, 40.82060546875002 -14.634960937500011, 40.84453125000002 -14.718652343750009, 40.83515625000001 -14.79150390625, 40.775976562500006 -14.842480468750011, 40.70068359375 -14.929785156250006, 40.68740234375002 -15.011621093750009, 40.6943359375 -15.065234375000003, 40.642187500000006 -15.082421875000009, 40.617773437500006 -15.115527343750003, 40.65312500000002 -15.192675781250003, 40.650976562500006 -15.260937500000011, 40.55898437500002 -15.473437500000003, 40.31386718750002 -15.763964843750003, 40.2080078125 -15.867089843750009, 40.10878906250002 -15.979296875000003, 40.10888671875 -16.02529296875001, 40.099218750000006 -16.06533203125001, 39.98359375000001 -16.22548828125001, 39.85976562500002 -16.251757812500003, 39.79091796875002 -16.294531250000006, 39.84462890625002 -16.435644531250006, 39.76455078125002 -16.46816406250001, 39.62539062500002 -16.579394531250003, 39.242285156250006 -16.792578125000006, 39.181738281250006 -16.84199218750001, 39.08437500000002 -16.97285156250001, 38.9560546875 -17.00458984375001, 38.884765625 -17.041601562500006, 38.75761718750002 -17.05517578125, 38.71328125000002 -17.045703125000003, 38.669921875 -17.05029296875, 38.63330078125 -17.07832031250001, 38.38076171875002 -17.17011718750001, 38.14492187500002 -17.242773437500006, 38.0869140625 -17.275976562500006, 38.04824218750002 -17.321386718750006, 37.839453125000006 -17.393164062500006, 37.512304687500006 -17.57070312500001, 37.24453125000002 -17.73994140625001, 37.05058593750002 -17.909277343750006, 36.99951171875 -17.93496093750001, 36.93935546875002 -17.993457031250003, 36.91923828125002 -18.080078125, 36.89960937500001 -18.129003906250006, 36.75615234375002 -18.30732421875001, 36.540136718750006 -18.518164062500006, 36.412207031250006 -18.692968750000006, 36.40371093750002 -18.76972656250001, 36.327246093750006 -18.79316406250001, 36.26289062500001 -18.71962890625001, 36.23564453125002 -18.861328125, 36.183203125000006 -18.871386718750003, 36.125 -18.842382812500006, 35.980078125000006 -18.91250000000001, 35.85371093750001 -18.99335937500001, 35.65126953125002 -19.163867187500003, 35.365332031250006 -19.493945312500003, 34.947851562500006 -19.81269531250001, 34.85234375000002 -19.82050781250001, 34.72099609375002 -19.709570312500006, 34.6494140625 -19.70136718750001, 34.75576171875002 -19.82197265625001, 34.74501953125002 -19.929492187500003, 34.75 -20.0908203125, 34.69814453125002 -20.404394531250006, 34.705078125 -20.47304687500001, 34.764746093750006 -20.56191406250001, 34.877050781250006 -20.67080078125001, 34.98232421875002 -20.806250000000006, 35.11757812500002 -21.19521484375001, 35.128027343750006 -21.395312500000003, 35.267675781250006 -21.650976562500006, 35.27294921875 -21.76171875, 35.32929687500001 -22.037402343750003, 35.31572265625002 -22.39687500000001, 35.38300781250001 -22.45458984375, 35.407812500000006 -22.40253906250001, 35.40087890625 -22.316210937500003, 35.41884765625002 -22.17763671875001, 35.45634765625002 -22.11591796875001, 35.493750000000006 -22.12470703125001, 35.5048828125 -22.19013671875001, 35.53007812500002 -22.248144531250006, 35.54023437500001 -22.30263671875001, 35.5419921875 -22.376562500000006, 35.490234375 -22.65771484375, 35.50576171875002 -22.772070312500006, 35.57539062500001 -22.96308593750001, 35.49443359375002 -23.185156250000006, 35.376953125 -23.707812500000003, 35.37041015625002 -23.79824218750001, 35.39882812500002 -23.837695312500003, 35.46210937500001 -23.85107421875, 35.4853515625 -23.784472656250003, 35.5224609375 -23.784960937500003, 35.5419921875 -23.82441406250001, 35.48964843750002 -24.065527343750006, 35.438085937500006 -24.171191406250003, 35.2548828125 -24.430273437500006, 35.15595703125001 -24.54140625000001, 34.99208984375002 -24.65058593750001, 34.60732421875002 -24.8212890625, 33.836035156250006 -25.067968750000006, 33.34746093750002 -25.26093750000001, 32.96113281250001 -25.49042968750001, 32.79218750000001 -25.644335937500003, 32.72255859375002 -25.820898437500006, 32.655859375000006 -25.90175781250001, 32.590429687500006 -26.00410156250001, 32.6474609375 -26.09199218750001, 32.70351562500002 -26.158496093750003, 32.769628906250006 -26.20302734375001, 32.80390625000001 -26.24140625000001, 32.84882812500001 -26.26806640625, 32.89404296875 -26.1298828125, 32.91640625000002 -26.0869140625, 32.95488281250002 -26.083593750000006, 32.93359375 -26.25234375000001, 32.88916015625 -26.83046875000001, 32.84912109375 -27.080175781250006, 32.70585937500002 -27.44160156250001, 32.65703125000002 -27.60732421875001, 32.534765625000006 -28.19970703125, 32.37519531250001 -28.49824218750001, 32.285742187500006 -28.62148437500001, 32.02724609375002 -28.83955078125001, 31.955371093750017 -28.8837890625, 31.891503906250023 -28.912109375, 31.778222656250023 -28.937109375000006, 31.33515625000001 -29.37812500000001, 31.169921875 -29.5908203125, 31.023339843750023 -29.90087890625, 30.87763671875001 -30.071093750000003, 30.66357421875 -30.434179687500006, 30.472265625000006 -30.71455078125001, 30.288671875000006 -30.97011718750001, 29.97119140625 -31.322070312500003, 29.83027343750001 -31.423828125, 29.735156250000017 -31.47041015625001, 29.48291015625 -31.67470703125001, 29.127832031250023 -32.00312500000001, 28.85595703125 -32.29423828125, 28.44941406250001 -32.624609375000006, 28.21406250000001 -32.76923828125001, 27.860644531250017 -33.05390625000001, 27.762109375000023 -33.09599609375, 27.36376953125 -33.36054687500001, 27.077441406250017 -33.52119140625001, 26.613671875000023 -33.70742187500001, 26.429492187500017 -33.7595703125, 25.989550781250017 -33.71132812500001, 25.80585937500001 -33.737109375, 25.652441406250006 -33.849609375, 25.63818359375 -34.01113281250001, 25.57421875 -34.03535156250001, 25.47724609375001 -34.028125, 25.169726562500017 -33.9607421875, 25.0029296875 -33.9736328125, 24.905566406250017 -34.05976562500001, 24.8271484375 -34.1689453125, 24.595507812500017 -34.17451171875001, 24.183007812500023 -34.0615234375, 23.697851562500006 -33.992773437500006, 23.585546875000006 -33.98515625, 23.350390625000017 -34.068945312500006, 23.268164062500006 -34.081152343750006, 22.925585937500017 -34.06318359375001, 22.73554687500001 -34.01025390625, 22.553808593750006 -34.01005859375, 22.414453125000023 -34.053808593750006, 22.245507812500023 -34.069140625, 21.788964843750023 -34.372656250000006, 21.55322265625 -34.373046875, 21.34980468750001 -34.408203125, 21.248925781250023 -34.40703125, 21.060156250000006 -34.36464843750001, 20.989843750000006 -34.36748046875, 20.882421875000006 -34.3865234375, 20.774804687500023 -34.43994140625, 20.529882812500006 -34.46308593750001, 20.434667968750006 -34.50859375, 20.020605468750006 -34.785742187500006, 19.850000000000023 -34.756640625, 19.63496093750001 -34.75332031250001, 19.391503906250023 -34.60566406250001, 19.298242187500023 -34.6150390625, 19.3232421875 -34.57080078125, 19.33076171875001 -34.49238281250001, 19.279394531250006 -34.43701171875, 19.24462890625 -34.41230468750001, 19.14912109375001 -34.41689453125001, 19.09833984375001 -34.35009765625, 18.9521484375 -34.34375, 18.90156250000001 -34.36064453125, 18.831347656250017 -34.3640625, 18.82636718750001 -34.1884765625, 18.80878906250001 -34.108203125, 18.75214843750001 -34.082617187500006, 18.70869140625001 -34.071875000000006, 18.60517578125001 -34.07734375000001, 18.53388671875001 -34.0859375, 18.500390625000023 -34.10927734375001, 18.46210937500001 -34.168066406250006, 18.46162109375001 -34.34687500000001, 18.41035156250001 -34.29560546875001, 18.35205078125 -34.1884765625, 18.333398437500023 -34.07421875, 18.354394531250023 -33.939062500000006, 18.46503906250001 -33.887792968750006, 18.456445312500023 -33.796484375000006, 18.433007812500023 -33.71728515625, 18.26123046875 -33.4216796875, 18.156347656250006 -33.35878906250001, 18.074804687500006 -33.20732421875, 17.992578125000023 -33.15234375, 17.958398437500023 -33.04638671875, 17.878222656250017 -32.961523437500006, 17.85107421875 -32.82744140625, 17.895312500000017 -32.75048828125, 17.965234375000023 -32.708593750000006, 18.036523437500023 -32.77509765625001, 18.125 -32.749121093750006, 18.250878906250023 -32.6521484375, 18.325292968750006 -32.504980468750006, 18.329882812500017 -32.26953125, 18.31074218750001 -32.12246093750001, 18.210839843750023 -31.742480468750003, 18.163671875000006 -31.65517578125001, 17.938574218750006 -31.38320312500001, 17.67744140625001 -31.01904296875, 17.347070312500023 -30.44482421875, 17.189062500000006 -30.09980468750001, 16.950000000000017 -29.403417968750006, 16.73945312500001 -29.009375000000006, 16.480761718750017 -28.64150390625001, 16.335058593750006 -28.53652343750001, 16.007128906250017 -28.231738281250003, 15.890917968750017 -28.15253906250001, 15.719042968750017 -27.9658203125, 15.341503906250011 -27.386523437500003, 15.28759765625 -27.275000000000006, 15.215722656250023 -26.9951171875, 15.1328125 -26.78759765625, 15.123730468750011 -26.66787109375001, 15.163281250000011 -26.600195312500006, 15.139062500000023 -26.50800781250001, 15.096582031250023 -26.42578125, 14.9677734375 -26.31806640625001, 14.931250000000006 -25.95820312500001, 14.84521484375 -25.725683593750006, 14.863671875000023 -25.53359375000001, 14.822558593750017 -25.35859375000001, 14.818554687500011 -25.246386718750003, 14.837109375000011 -25.033203125, 14.767968750000023 -24.78798828125001, 14.6279296875 -24.54804687500001, 14.501562500000006 -24.201953125000003, 14.4833984375 -24.050390625000006, 14.496875000000017 -23.642871093750003, 14.472460937500017 -23.476660156250006, 14.473828125000011 -23.28115234375001, 14.4033203125 -22.968066406250003, 14.4384765625 -22.88056640625001, 14.459277343750017 -22.908203125, 14.495703125000006 -22.92138671875, 14.519921875000023 -22.80517578125, 14.525976562500006 -22.70253906250001, 14.462792968750023 -22.44912109375001, 14.321875000000006 -22.18994140625, 13.973242187500006 -21.767578125, 13.888085937500023 -21.60664062500001, 13.83935546875 -21.473242187500006, 13.450585937500023 -20.91669921875001, 13.284375000000011 -20.52392578125, 13.168359375000023 -20.184667968750006, 13.042089843750006 -20.02822265625001, 12.458203125000011 -18.9267578125, 12.328710937500006 -18.751074218750006, 12.095703125 -18.54091796875001, 12.041210937500011 -18.470703125, 11.951367187500011 -18.2705078125, 11.77587890625 -18.001757812500003, 11.733496093750006 -17.7509765625, 11.7216796875 -17.466796875, 11.780078125000017 -16.87128906250001, 11.818945312500006 -16.7041015625, 11.819921875000006 -16.50429687500001, 11.796972656250006 -15.986425781250006, 11.769433593750023 -15.915332031250003, 11.750878906250023 -15.831933593750009, 11.849707031250006 -15.768359375000003, 11.89990234375 -15.719824218750006, 11.967871093750006 -15.633984375000011, 12.01611328125 -15.513671875, 12.0732421875 -15.248242187500011, 12.280468750000011 -14.637500000000003, 12.37890625 -14.0390625, 12.503710937500017 -13.755468750000006, 12.550488281250011 -13.437792968750003, 12.897656250000011 -13.027734375000009, 12.983203125000017 -12.775683593750003, 13.162695312500006 -12.652148437500003, 13.4169921875 -12.520410156250009, 13.597949218750017 -12.2861328125, 13.685546875 -12.123828125000003, 13.785351562500011 -11.812792968750003, 13.784277343750006 -11.487988281250011, 13.847460937500017 -11.054394531250011, 13.833593750000006 -10.9296875, 13.738964843750011 -10.757128906250003, 13.721386718750011 -10.633593750000003, 13.633496093750011 -10.512304687500006, 13.539453125000023 -10.420703125000003, 13.495410156250017 -10.257128906250003, 13.332226562500011 -9.998925781250009, 13.287500000000023 -9.826757812500006, 13.209375000000023 -9.703222656250006, 13.196875000000006 -9.550683593750009, 13.155664062500023 -9.3896484375, 13.075976562500017 -9.230371093750009, 12.99853515625 -9.048046875000011, 12.99853515625 -8.991015625000003, 13.046777343750023 -8.922265625000009, 13.0927734375 -8.899707031250003, 13.046582031250011 -8.975195312500006, 13.053808593750006 -9.0068359375, 13.358984375000006 -8.687207031250011, 13.378320312500023 -8.624707031250011, 13.366406250000011 -8.46923828125, 13.378515625000006 -8.369726562500006, 13.0908203125 -7.7801757812500085, 12.8623046875 -7.2318359375000085, 12.823437500000011 -6.954785156250011, 12.521289062500017 -6.59033203125, 12.402148437500017 -6.3534179687500085, 12.334277343750017 -6.187304687500003, 12.283300781250006 -6.124316406250003, 12.302539062500017 -6.092578125000003, 12.38037109375 -6.084277343750003, 12.790625000000006 -6.00390625, 13.009765625 -5.9076171875000085, 13.068164062500017 -5.864843750000006, 13.003320312500023 -5.836132812500011, 12.86083984375 -5.854101562500006, 12.791601562500006 -5.877734375000003, 12.6806640625 -5.9608398437500085, 12.514550781250023 -6.004199218750003, 12.452929687500017 -6.00048828125, 12.411718750000006 -5.986328125, 12.315039062500006 -5.895312500000003, 12.240429687500011 -5.807324218750011, 12.155468750000011 -5.6327148437500085, 12.20654296875 -5.46826171875, 12.177148437500023 -5.324804687500006, 12.110546875000011 -5.1971679687500085, 12.039941406250023 -5.03515625, 12.002734375000017 -4.982031250000006, 11.966796875 -4.954394531250003, 11.893261718750011 -4.86572265625, 11.820703125000023 -4.755468750000006, 11.80126953125 -4.705175781250006, 11.780859375000006 -4.676562500000003, 11.777539062500011 -4.5658203125000085, 11.668066406250006 -4.434277343750011, 11.393847656250017 -4.200292968750006, 11.364453125000011 -4.130566406250011, 11.032031250000017 -3.826464843750003, 10.947265625 -3.662109375, 10.848535156250023 -3.561328125000003, 10.640722656250006 -3.3980468750000057, 10.58544921875 -3.2780273437500114, 10.34765625 -3.0130859375000085, 10.006152343750017 -2.748339843750003, 9.759472656250011 -2.5185546875, 9.722070312500023 -2.467578125000003, 9.763671875 -2.4738281250000114, 10.001953125 -2.58837890625, 10.034472656250017 -2.5755859375000085, 10.06201171875 -2.5499023437500057, 9.86083984375 -2.4425781250000114, 9.768652343750006 -2.4130859375, 9.676367187500006 -2.4156250000000057, 9.624609375000006 -2.3670898437500085, 9.591015625000011 -2.2931640625000114, 9.574023437500017 -2.22998046875, 9.533203125 -2.163867187500003, 9.402246093750023 -2.027636718750003, 9.370507812500023 -1.9750000000000085, 9.298925781250006 -1.9030273437500114, 9.342480468750011 -1.8936523437500057, 9.482812500000023 -1.9623046875000085, 9.495312500000011 -1.9349609375000085, 9.483203125000017 -1.8946289062500057, 9.342187500000023 -1.8293945312500028, 9.265625 -1.8250976562500085, 9.247949218750023 -1.779296875, 9.258398437500006 -1.7262695312500114, 9.157519531250017 -1.5277343750000085, 9.052832031250006 -1.3791015625000114, 9.036328125000011 -1.3088867187500028, 9.31884765625 -1.6320312500000114, 9.406347656250006 -1.6345703125000028, 9.523339843750023 -1.5983398437500114, 9.501074218750006 -1.55517578125, 9.448339843750006 -1.5088867187500057, 9.397167968750011 -1.5301757812500085, 9.330664062500006 -1.5345703125000085, 9.295800781250023 -1.5152343750000057, 9.280175781250023 -1.48193359375, 9.3466796875 -1.3250000000000028, 9.31787109375 -1.3329101562500085, 9.296679687500017 -1.3609375000000057, 9.203808593750011 -1.3824218750000057, 9.064648437500011 -1.29833984375, 8.94189453125 -1.0714843750000114, 8.909375000000011 -1.0250000000000057, 8.876562500000006 -0.9460937500000028, 8.84423828125 -0.91357421875, 8.703125 -0.5910156250000114, 8.757226562500023 -0.6149414062500114, 8.821386718750006 -0.7083984375000085, 8.946386718750006 -0.6887695312500028, 8.995214843750006 -0.6346679687500085, 9.037890625000017 -0.63671875, 9.08154296875 -0.6243164062500028, 9.136523437500017 -0.5733398437500057, 9.296679687500017 -0.3512695312500114, 9.339062500000011 -0.0582519531250085, 9.301855468750006 0.2885253906249972, 9.354882812500023 0.3436035156249915, 9.375781250000017 0.3072265624999915, 9.386132812500023 0.2458984374999886, 9.4111328125 0.200439453125, 9.468164062500023 0.1597656249999915, 9.574316406250006 0.14892578125, 9.738378906250006 0.0849609375, 9.796777343750023 0.0442382812499886, 9.812695312500011 0.1255859374999915, 10.00146484375 0.1949707031249943, 9.944433593750006 0.2198730468749943, 9.776660156250017 0.1924804687499915, 9.546484375000006 0.2959472656249886, 9.470117187500023 0.3619140624999915, 9.398828125000023 0.4867187499999943, 9.324804687500006 0.5520996093749915, 9.329980468750023 0.61083984375, 9.495312500000011 0.6648437499999886, 9.538964843750023 0.65869140625, 9.556640625 0.5941894531249972, 9.60107421875 0.5677246093749915, 9.617968750000017 0.5765136718749915, 9.625292968750017 0.6316406249999886, 9.625878906250023 0.7794433593749943, 9.575390625000011 0.9913085937499915, 9.599414062500017 1.054443359375, 9.509863281250006 1.1147949218749886, 9.4453125 1.1206542968749886, 9.385937500000011 1.1392578124999915, 9.43408203125 1.29638671875, 9.494238281250006 1.435302734375, 9.584277343750017 1.5402343749999972, 9.632128906250017 1.5655273437499915, 9.718847656250006 1.7886718749999915, 9.807031250000023 1.927490234375, 9.779687500000023 2.0682128906249915, 9.82177734375 2.539257812499997, 9.867578125000023 2.7349609374999915, 9.885449218750011 2.9165527343749886, 9.948437500000011 3.079052734374997, 9.9150390625 3.2396484374999943, 9.876171875000011 3.309765624999997, 9.672070312500011 3.53759765625, 9.765722656250006 3.6238281249999886, 9.642382812500017 3.611767578124997, 9.615917968750011 3.696484374999997, 9.55615234375 3.798046874999997, 9.5927734375 3.8143066406249915, 9.628125000000011 3.8700195312499943, 9.739648437500023 3.8529296874999943, 9.736132812500017 3.880126953125, 9.639941406250017 3.96533203125, 9.649218750000017 4.008349609374989, 9.688867187500023 4.056396484375, 9.669531250000006 4.07666015625, 9.600390625000017 4.026904296874989, 9.550585937500017 4.0284179687499915, 9.511816406250006 4.0606445312499915, 9.483691406250017 4.066113281249997, 9.500781250000017 4.000732421875, 9.462011718750006 3.9425292968749943, 9.42529296875 3.922314453124997, 9.3623046875 3.925732421874997, 9.310937500000023 3.940380859374997, 9.29736328125 3.9729492187499886, 9.249121093750006 3.9978515624999886, 9.113867187500006 4.041064453124989, 9.000097656250006 4.091601562499989, 8.97705078125 4.230419921874997, 8.932031250000023 4.290234374999997, 8.91357421875 4.357812499999994, 8.90283203125 4.4351562499999915, 8.918261718750017 4.553759765624989, 8.889453125000017 4.57275390625, 8.8564453125 4.579248046874994, 8.80712890625 4.573437499999997, 8.761914062500011 4.580029296874997, 8.707910156250023 4.645703124999997, 8.660351562500011 4.6709960937499915, 8.689648437500011 4.550244140624997, 8.65625 4.516357421875, 8.574414062500011 4.5262207031249915, 8.53955078125 4.5718749999999915, 8.532812500000006 4.605859374999994, 8.570507812500011 4.752099609374994, 8.543750000000017 4.7578125, 8.514843750000011 4.7247070312499915, 8.431347656250011 4.746240234374994, 8.393652343750006 4.813769531249989, 8.342089843750017 4.824755859374989, 8.252734375000017 4.923974609374994, 8.233789062500023 4.907470703125, 8.328027343750023 4.6561035156249915, 8.293066406250006 4.5576171875, 8.028515625000011 4.555371093749997, 7.80078125 4.522265624999989, 7.644238281250011 4.525341796874997, 7.565625000000011 4.560937499999994, 7.53076171875 4.655175781249994, 7.517382812500017 4.645458984374997, 7.509472656250011 4.594921874999997, 7.459863281250023 4.555224609374989, 7.284375000000011 4.547656249999989, 7.206738281250011 4.612060546875, 7.143847656250017 4.68408203125, 7.076562500000023 4.7161621093749915, 7.0869140625 4.685839843749989, 7.164160156250006 4.6155761718749915, 7.154687500000023 4.514404296875, 7.013378906250011 4.3973144531249915, 6.923242187500023 4.390673828124989, 6.867871093750011 4.441113281249997, 6.839160156250017 4.523486328124989, 6.82470703125 4.645263671875, 6.78759765625 4.7247070312499915, 6.767675781250006 4.7247070312499915, 6.792187500000011 4.5926269531249915, 6.793066406250006 4.469140624999994, 6.8603515625 4.373339843749989, 6.757031250000011 4.343554687499989, 6.633007812500011 4.340234374999994, 6.617285156250006 4.375781249999989, 6.6015625 4.4551757812499915, 6.579980468750023 4.475976562499994, 6.554589843750023 4.3414062499999915, 6.462109375000011 4.333154296874994, 6.2998046875 4.303857421874994, 6.263671875 4.3094238281249915, 6.255957031250006 4.33447265625, 6.275292968750023 4.3716796874999915, 6.27099609375 4.43212890625, 6.214648437500017 4.385498046875, 6.20556640625 4.292285156249989, 6.17333984375 4.277392578124989, 6.076562500000023 4.2906249999999915, 5.970703125 4.338574218749997, 5.798632812500017 4.455957031249994, 5.587792968750023 4.647216796875, 5.553613281250023 4.733203124999989, 5.493261718750006 4.838769531249994, 5.38330078125 5.1290039062499915, 5.403222656250023 5.142285156249997, 5.4521484375 5.1265624999999915, 5.475976562500023 5.153857421874989, 5.388281250000006 5.173779296874997, 5.370019531250023 5.195019531249997, 5.367968750000017 5.3377441406249915, 5.439257812500017 5.3653320312499915, 5.500878906250023 5.378613281249997, 5.531835937500006 5.4263671874999915, 5.549707031250023 5.4742187499999915, 5.385839843750006 5.401757812499994, 5.232421875 5.483789062499994, 5.19921875 5.5335449218749915, 5.2158203125 5.571679687499994, 5.393847656250017 5.574511718749989, 5.456640625000006 5.611718749999994, 5.418066406250006 5.624707031249997, 5.350292968750011 5.623291015625, 5.325292968750006 5.64794921875, 5.327343750000011 5.70751953125, 5.305371093750011 5.6943359375, 5.276269531250023 5.641552734374997, 5.1728515625 5.602734374999997, 5.112402343750006 5.641552734374997, 5.106250000000017 5.7281249999999915, 5.093066406250017 5.76708984375, 5.042089843750006 5.797509765624994, 4.861035156250011 6.026318359374997, 4.633593750000017 6.217187499999994, 4.431347656250011 6.348583984374997, 4.125878906250023 6.411376953125, 3.486621093750017 6.408935546875, 3.4507812500000057 6.427050781249989, 3.4899414062500114 6.457275390625, 3.5460937500000114 6.477441406249994, 3.7516601562500114 6.5838378906249915, 3.7169921875000114 6.597949218749989, 3.5033203125000227 6.5313476562499915, 3.43017578125 6.5249999999999915, 3.3355468750000057 6.396923828124997, 2.7724609375 6.375732421875, 2.286914062500017 6.328076171874997, 1.818164062500017 6.260644531249994, 1.3106445312500057 6.146874999999994, 1.1055664062500057 6.0513671874999915, 1.05029296875 5.9939941406249915, 0.94970703125 5.810253906249997, 0.748828125000017 5.7601074218749915, 0.2596679687500227 5.75732421875, -0.1265136718749886 5.568164062499989, -0.3487304687499773 5.500781249999989, -0.4854492187499773 5.394238281249997, -0.66943359375 5.318554687499997, -0.7977050781249773 5.226708984374994, -1.0643066406249773 5.182666015624989, -1.501660156249983 5.037988281249994, -1.6384765624999886 4.980859374999994, -1.77685546875 4.88037109375, -2.0018554687499943 4.762451171875, -2.0901855468749773 4.764062499999994, -2.2664062499999886 4.874072265624989, -2.39892578125 4.929345703124994, -2.7230468749999943 5.013720703124989, -2.9649902343749943 5.046289062499994, -3.0818847656249773 5.082470703124997, -3.2463867187499886 5.114062499999989, -3.2148925781249886 5.147216796875, -3.0867187499999886 5.128320312499994, -3.0191406249999773 5.130810546874997, -3.02587890625 5.150537109374994, -3.06396484375 5.15771484375, -3.168701171875 5.203027343749994, -3.1514160156249886 5.348291015624994, -3.199951171875 5.3544921875, -3.2375976562499886 5.335400390624997, -3.31201171875 5.160791015624994, -3.3475585937499943 5.130664062499989, -3.87060546875 5.220703125, -3.9841796874999886 5.293164062499997, -4.120166015624989 5.309716796874994, -4.357275390624977 5.301416015624994, -4.552832031249977 5.2798828124999915, -4.60888671875 5.235888671874989, -4.115185546874983 5.261621093749994, -4.062060546874989 5.256640624999989, -4.037207031249977 5.230126953124994, -4.661523437499994 5.172558593749997, -4.899707031249989 5.138330078124994, -4.970117187499994 5.147753906249989, -5.023681640625 5.20361328125, -5.282373046874994 5.210253906249989, -5.33544921875 5.1919921874999915, -5.367529296874977 5.150781249999994, -5.104882812499994 5.162158203124989, -5.061816406249989 5.130664062499989, -5.564746093749989 5.0894531249999915, -5.913769531249983 5.010937499999997, -6.548437499999977 4.761767578124989, -6.845166015624983 4.6714843749999915, -6.922900390624989 4.638330078124994, -7.057958984374977 4.544726562499989, -7.231396484374983 4.485986328124994, -7.426074218749989 4.376025390624989, -7.544970703124989 4.351318359375, -7.660009765624977 4.3667968749999915, -7.998242187499983 4.508691406249994, -8.259033203125 4.589990234374994, -9.132177734374977 5.054638671874997, -9.374755859375 5.2410644531249915, -9.654394531249977 5.518701171874994, -10.2763671875 6.07763671875, -10.418164062499983 6.1673339843749915, -10.597070312499994 6.2109375, -10.707617187499977 6.258496093749997, -10.785595703124983 6.3101562499999915, -10.849023437499994 6.465087890625, -11.004541015624994 6.557373046875, -11.291601562499977 6.688232421875, -11.547509765624994 6.946972656249997, -11.733447265624989 7.088574218749997, -11.92919921875 7.183544921874997, -12.346630859374983 7.341796875, -12.485644531249989 7.386279296874989, -12.480664062499983 7.4424804687499915, -12.432714843749977 7.5450195312499915, -12.510449218749983 7.665722656249997, -12.480273437499989 7.7532714843749915, -12.510449218749983 7.753369140624997, -12.570214843749994 7.700585937499994, -12.697607421874977 7.715869140624989, -12.781933593749983 7.7911132812499915, -12.850878906249989 7.8187011718749915, -12.880957031249977 7.856640624999997, -12.925146484374977 8.05517578125, -12.956933593749994 8.145312499999989, -13.020800781249989 8.200927734375, -13.148974609374989 8.214599609375, -13.201757812499977 8.335839843749994, -13.272753906249989 8.429736328124989, -13.26123046875 8.487597656249989, -13.203320312499983 8.484277343749994, -13.157958984375 8.442285156249994, -13.085009765624989 8.424755859374997, -12.994238281249977 8.526464843749991, -12.912939453124977 8.58154296875, -12.894091796874989 8.629785156249994, -12.904003906249983 8.65625, -12.953369140625 8.615136718749994, -13.088232421874977 8.625732421875, -13.121630859374989 8.588769531249994, -13.181835937499983 8.576904296875, -13.228417968749994 8.695898437499991, -13.226171874999977 8.765966796874991, -13.206933593749994 8.843115234374991, -13.071044921875 8.856347656249994, -13.059472656249994 8.881152343749989, -13.153710937499994 8.897705078125, -13.271630859374994 8.987402343749991, -13.302636718749994 9.078369140625, -13.269482421874983 9.170556640624994, -13.2958984375 9.218505859375, -13.396093749999977 9.314306640624991, -13.405566406249989 9.360644531249989, -13.436279296875 9.420312499999994, -13.568261718749994 9.543408203124997, -13.691357421874983 9.535791015624994, -13.657128906249994 9.639111328124997, -13.65869140625 9.7763671875, -13.700488281249989 9.851269531249997, -13.689794921874977 9.927783203124989, -13.712646484375 9.922949218749991, -13.753710937499989 9.870263671874994, -13.820117187499989 9.88720703125, -13.954638671874989 9.968701171874997, -14.021874999999994 10.0478515625, -14.029931640624994 10.115136718749994, -14.045019531249977 10.141259765624994, -14.086279296874977 10.127246093749989, -14.17041015625 10.128613281249997, -14.426904296874994 10.248339843749989, -14.609570312499983 10.549853515624989, -14.613623046874977 10.617822265624994, -14.58740234375 10.734912109374989, -14.593505859375 10.766699218749991, -14.677343749999977 10.68896484375, -14.693359375 10.741015624999989, -14.757373046874989 10.862060546875, -14.775927734374989 10.931640625, -14.837451171874989 10.962548828124994, -14.88671875 10.968066406249989, -14.9248046875 10.944921874999991, -14.974999999999994 10.803417968749997, -15.012402343749983 10.804345703124994, -15.051220703124983 10.834570312499991, -15.043017578124989 10.940136718749997, -15.09375 11.011035156249989, -15.054589843749994 11.141943359374991, -15.096777343749977 11.140039062499994, -15.181054687499994 11.034228515624989, -15.222119140624983 11.030908203124994, -15.216699218749994 11.15625, -15.263378906249983 11.160888671875, -15.317480468749977 11.152001953124994, -15.393115234374989 11.217236328124997, -15.400585937499983 11.266210937499991, -15.39453125 11.33447265625, -15.348437499999989 11.378076171874994, -15.354687499999983 11.396337890624991, -15.399169921875 11.401464843749991, -15.448974609375 11.389746093749991, -15.4794921875 11.410302734374994, -15.429101562499994 11.498876953124991, -15.252587890624994 11.573291015624989, -15.072656249999994 11.597802734374994, -15.122412109374977 11.661572265624997, -15.230371093749994 11.686767578125, -15.316699218749989 11.669189453125, -15.359667968749989 11.622900390624991, -15.412988281249994 11.615234375, -15.501904296874983 11.723779296874994, -15.500244140625 11.778369140624989, -15.467187499999994 11.842822265624989, -15.415722656249983 11.871777343749997, -15.210839843749994 11.870947265624991, -15.133105468749989 11.907324218749991, -15.101708984374994 11.913964843749994, -15.071972656249983 11.947021484375, -15.078271484374994 11.968994140625, -15.111523437499983 11.970263671874989, -15.188085937499977 11.927294921874989, -15.434765624999983 11.943554687499997, -15.513476562499989 11.917578124999991, -15.650683593749989 11.818359375, -15.819384765624989 11.763476562499989, -15.941748046874977 11.78662109375, -15.902734374999994 11.919677734375, -15.958789062499989 11.959619140624994, -16.138427734375 11.917285156249989, -16.274316406249994 11.978124999999991, -16.290319313226743 12, -5 12, -5 34, 10.079038816509835 34, 10.049023437500011 34.056298828124994, 10.158984375000017 33.850048828125, 10.305273437500006 33.728271484375, 10.454296875000011 33.662499999999994, 10.713183593750017 33.689013671874996, 10.704296875000011 33.609667968749996, 10.722753906250006 33.514404296875, 10.828125 33.518896484375, 10.8984375 33.53369140625, 10.9580078125 33.626318359375, 11.084570312500006 33.562890624999994, 11.150292968750023 33.36923828125, 11.257421875000006 33.308837890625, 11.269921875000023 33.286328125, 11.232128906250011 33.27158203125, 11.20263671875 33.24921875, 11.234277343750023 33.23359375, 11.338085937500011 33.20947265625, 11.400585937500011 33.224902343749996, 11.657128906250023 33.118896484375, 11.8134765625 33.093701171875, 12.279882812500006 32.858544921874994, 12.427050781250017 32.8291015625, 12.753515625000006 32.801074218749996, 13.138085937500023 32.897363281249994, 13.283496093750017 32.9146484375, 13.536328125000011 32.824267578124996, 13.647753906250017 32.798828125, 13.835351562500023 32.791796874999996, 14.155664062500023 32.709765624999996, 14.237109375000017 32.68125, 14.423828125 32.55029296875, 14.513378906250011 32.511083984375, 15.176562500000017 32.391162109374996, 15.266894531250017 32.311669921874994, 15.359082031250011 32.15966796875, 15.363085937500017 31.97119140625, 15.4140625 31.834228515625, 15.496386718750017 31.656787109374996, 15.595800781250006 31.531103515625, 15.705957031250023 31.426416015624994, 15.832226562500011 31.360986328124994, 16.123046875 31.264453124999996, 16.450976562500017 31.227294921875, 16.781542968750017 31.214746093749994, 17.349218750000006 31.081494140624997, 17.830468750000023 30.927587890625, 17.949316406250006 30.851904296875, 18.1904296875 30.777294921874997, 18.669824218750023 30.415673828124994, 18.936425781250023 30.290429687499994, 19.12373046875001 30.26611328125, 19.29169921875001 30.2880859375, 19.58984375 30.413769531249997, 19.713281250000023 30.48837890625, 20.01318359375 30.800683593749994, 20.11152343750001 30.963720703125, 20.150976562500006 31.07861328125, 20.14111328125 31.195507812499997, 20.103808593750017 31.300537109375, 20.02001953125 31.41064453125, 19.961230468750017 31.556005859375, 19.926367187500006 31.817529296874994, 19.973437500000017 31.999072265624996, 20.03095703125001 32.107861328125, 20.121484375000023 32.21875, 20.37060546875 32.43076171875, 20.62109375 32.58017578125, 21.062304687500017 32.775537109374994, 21.318750000000023 32.777685546875, 21.424707031250023 32.799169921875, 21.63593750000001 32.937304687499996, 21.72138671875001 32.94248046875, 21.839453125000006 32.908642578125, 22.187402343750023 32.918261718749996, 22.340625000000017 32.8798828125, 22.5234375 32.7939453125, 22.75410156250001 32.740527343749996, 22.916894531250023 32.687158203124994, 23.090625000000017 32.61875, 23.129687500000017 32.448144531249994, 23.110449218750006 32.397412109375, 23.106250000000017 32.331445312499994, 23.28632812500001 32.213818359375, 23.797656250000017 32.15869140625, 23.8984375 32.127197265625, 24.038964843750023 32.037011718749994, 24.129687500000017 32.009228515625, 24.479785156250017 31.996533203124997, 24.683886718750017 32.015966796875, 24.878515625000006 31.984277343749994, 24.95068359375 31.9537109375, 25.025000000000006 31.883349609374996, 25.115039062500017 31.712304687499994, 25.225488281250023 31.5337890625, 25.382226562500023 31.51279296875, 25.89326171875001 31.620898437499996, 26.457324218750017 31.512109374999994, 26.768652343750006 31.470361328124994, 27.248046875 31.377880859374997, 27.5400390625 31.212695312499996, 27.6201171875 31.191748046875, 27.829980468750023 31.195019531249997, 27.967578125000017 31.097412109375, 28.51484375000001 31.050439453124994, 28.806933593750017 30.942675781249996, 28.972753906250006 30.856738281249996, 29.072070312500017 30.830273437499997, 29.159960937500017 30.8345703125, 29.278906250000006 30.866943359375, 29.428515625000017 30.927441406249997, 29.591601562500017 31.011523437499996, 29.929785156250006 31.227490234374997, 30.049414062500006 31.265429687499996, 30.127539062500006 31.255664062499996, 30.22265625 31.2583984375, 30.262304687500006 31.316845703124997, 30.312304687500017 31.35703125, 30.395117187500006 31.4576171875, 30.57099609375001 31.472998046875, 30.92353515625001 31.566845703124997, 30.884179687500023 31.522363281249994, 30.56298828125 31.4169921875, 30.700488281250017 31.403857421874996, 30.841406250000006 31.439892578124997, 31.001757812500017 31.462792968749994, 31.030859375000006 31.507568359375, 31.05195312500001 31.591552734375, 31.082910156250023 31.603320312499996, 31.193945312500006 31.587597656249997, 31.5244140625 31.458251953125, 31.606542968750006 31.455761718749997, 31.888964843750017 31.541406249999994, 31.964257812500023 31.502099609374994, 32.13603515625002 31.341064453125, 32.07607421875002 31.344482421875, 31.892187500000006 31.482470703124996, 31.875878906250023 31.413720703124994, 31.771093750000006 31.292578125, 31.90205078125001 31.240185546874997, 32.00849609375001 31.220507812499996, 32.06562500000001 31.152978515624994, 32.10175781250001 31.092822265624996, 32.20654296875 31.119042968749994, 32.281835937500006 31.200878906249997, 32.242773437500006 31.246533203124997, 32.21621093750002 31.293749999999996, 32.250585937500006 31.294921875, 32.36308964570395 31.226697984057864, 32.599971701476505 29.900158471731572, 32.56572265625002 29.973974609375, 32.47304687500002 29.925439453124994)), ((50.544042968750006 25.83349609375, 50.465917968750006 25.965527343749997, 50.48945312500001 26.058447265625, 50.45244140625002 26.190820312499994, 50.46992187500001 26.228955078124997, 50.564062500000006 26.246435546875, 50.5859375 26.24072265625, 50.55781250000001 26.198291015624996, 50.60976562500002 26.124462890624997, 50.61748046875002 26.002343749999994, 50.60722656250002 25.883105468750003, 50.57490234375001 25.806787109374994, 50.544042968750006 25.83349609375)), ((50.40458984375002 -15.629101562500011, 50.29150390625 -15.858496093750006, 50.208984375 -15.96044921875, 50.18496093750002 -15.957812500000003, 50.09443359375001 -15.898632812500011, 50.02041015625002 -15.8017578125, 49.92656250000002 -15.573535156250003, 49.892578125 -15.457714843750011, 49.85332031250002 -15.439453125, 49.743750000000006 -15.449511718750003, 49.66435546875002 -15.521582031250006, 49.64990234375 -15.566992187500006, 49.6669921875 -15.695703125000009, 49.69707031250002 -15.811425781250009, 49.71044921875 -15.928906250000011, 49.71279296875002 -16.076757812500006, 49.742285156250006 -16.12148437500001, 49.78593750000002 -16.15908203125001, 49.8310546875 -16.255859375, 49.83906250000001 -16.48652343750001, 49.81132812500002 -16.60302734375, 49.733984375000006 -16.70302734375001, 49.73857421875002 -16.758398437500006, 49.767187500000006 -16.81513671875001, 49.73974609375 -16.849414062500003, 49.63691406250001 -16.892871093750003, 49.59521484375 -16.93115234375, 49.53955078125 -17.03291015625001, 49.449316406250006 -17.24062500000001, 49.437109375000006 -17.3466796875, 49.49365234375 -17.669531250000006, 49.47783203125002 -17.898535156250006, 49.362890625000006 -18.33632812500001, 49.296875 -18.544042968750006, 49.20332031250001 -18.792285156250003, 49.06005859375 -19.11962890625, 48.918066406250006 -19.53046875000001, 48.797460937500006 -19.953222656250006, 48.70830078125002 -20.207324218750003, 48.607031250000006 -20.45751953125, 48.46855468750002 -20.900000000000006, 48.35078125000001 -21.34902343750001, 48.175878906250006 -21.843066406250003, 47.90839843750001 -22.4658203125, 47.85830078125002 -22.74726562500001, 47.80410156250002 -22.991503906250003, 47.73945312500001 -23.2333984375, 47.604101562500006 -23.633105468750003, 47.58867187500002 -23.75634765625, 47.55800781250002 -23.874609375000006, 47.37255859375 -24.21845703125001, 47.333593750000006 -24.31757812500001, 47.31171875000001 -24.443164062500003, 47.27285156250002 -24.56435546875001, 47.177343750000006 -24.787207031250006, 47.03496093750002 -24.97900390625, 46.93818359375001 -25.04873046875001, 46.728515625 -25.14990234375, 46.62226562500001 -25.17041015625, 46.38671875 -25.17275390625001, 46.15869140625 -25.23037109375001, 45.9208984375 -25.34130859375, 45.69218750000002 -25.46845703125001, 45.604589843750006 -25.52871093750001, 45.50800781250001 -25.56318359375001, 45.20576171875001 -25.57050781250001, 45.115234375 -25.543066406250006, 44.81289062500002 -25.33417968750001, 44.69580078125 -25.29970703125001, 44.47382812500001 -25.271093750000006, 44.40673828125 -25.25332031250001, 44.34589843750001 -25.22607421875, 44.25615234375002 -25.11689453125001, 44.03535156250001 -24.995703125000006, 43.989843750000006 -24.86347656250001, 43.94375000000002 -24.786718750000006, 43.90957031250002 -24.640625, 43.8515625 -24.538378906250003, 43.6875 -24.35791015625, 43.670019531250006 -24.30029296875, 43.656835937500006 -24.10878906250001, 43.662109375 -23.97919921875001, 43.646093750000006 -23.74189453125001, 43.66474609375001 -23.63027343750001, 43.722265625000006 -23.52968750000001, 43.69873046875 -23.4208984375, 43.63759765625002 -23.30654296875001, 43.61464843750002 -23.18818359375001, 43.56953125000001 -23.08046875000001, 43.39785156250002 -22.886328125000006, 43.357519531250006 -22.790820312500003, 43.32958984375 -22.69189453125, 43.26484375000001 -22.383593750000003, 43.25712890625002 -22.2763671875, 43.2666015625 -22.04931640625, 43.29052734375 -21.93251953125001, 43.33222656250001 -21.851171875000006, 43.34267578125002 -21.79042968750001, 43.369726562500006 -21.73828125, 43.41054687500002 -21.69648437500001, 43.43779296875002 -21.64667968750001, 43.50185546875002 -21.3564453125, 43.583105468750006 -21.2919921875, 43.70361328125 -21.254980468750006, 43.80019531250002 -21.17919921875, 43.85566406250001 -21.07685546875001, 43.9111328125 -20.865820312500006, 44.063085937500006 -20.65625, 44.1171875 -20.54609375000001, 44.23964843750002 -20.379687500000003, 44.34814453125 -20.1455078125, 44.40468750000002 -19.92207031250001, 44.45292968750002 -19.550878906250006, 44.448828125000006 -19.4287109375, 44.38652343750002 -19.30312500000001, 44.23876953125 -19.0751953125, 44.233984375000006 -19.03261718750001, 44.245703125000006 -18.86318359375001, 44.23310546875001 -18.74062500000001, 44.1787109375 -18.61855468750001, 44.10878906250002 -18.503515625000006, 44.0400390625 -18.28847656250001, 44.00664062500002 -17.93300781250001, 44.013671875 -17.804492187500003, 43.99355468750002 -17.69033203125001, 43.94355468750001 -17.58144531250001, 43.97939453125002 -17.3916015625, 44.42138671875 -16.70263671875, 44.43574218750001 -16.62148437500001, 44.41796875 -16.41132812500001, 44.42705078125002 -16.2890625, 44.442480468750006 -16.243750000000006, 44.476171875000006 -16.21728515625, 44.551855468750006 -16.20449218750001, 44.9091796875 -16.17451171875001, 45.04423828125002 -16.09511718750001, 45.16679687500002 -15.982812500000009, 45.22285156250001 -15.950488281250003, 45.27128906250002 -15.962304687500009, 45.302343750000006 -16.01044921875001, 45.34218750000002 -16.036718750000006, 45.486328125 -15.98583984375, 45.598242187500006 -15.992578125000009, 45.62470703125001 -15.94580078125, 45.64052734375002 -15.883105468750003, 45.66152343750002 -15.8388671875, 45.7001953125 -15.813769531250003, 45.88593750000001 -15.800097656250003, 46.00429687500002 -15.782128906250009, 46.15751953125002 -15.73828125, 46.190527343750006 -15.746875000000003, 46.314062500000006 -15.904589843750003, 46.39960937500001 -15.924609375000003, 46.44160156250001 -15.895898437500009, 46.34130859375 -15.813378906250009, 46.326171875 -15.766699218750006, 46.33144531250002 -15.713671875000003, 46.38515625000002 -15.60009765625, 46.47509765625 -15.513476562500003, 46.67470703125002 -15.3818359375, 46.88203125000001 -15.229589843750006, 46.94228515625002 -15.219042968750003, 46.993261718750006 -15.2431640625, 47.032324218750006 -15.422656250000003, 47.027441406250006 -15.452246093750006, 47.060546875 -15.456347656250003, 47.099218750000006 -15.434179687500006, 47.133398437500006 -15.361718750000009, 47.13515625000002 -15.301562500000003, 47.10732421875002 -15.243847656250011, 47.09375 -15.195019531250011, 47.09257812500002 -15.150097656250011, 47.19765625000002 -15.044042968750006, 47.28046875000001 -14.942675781250003, 47.31875000000002 -14.82177734375, 47.35195312500002 -14.76611328125, 47.439062500000006 -14.703320312500011, 47.46474609375002 -14.713281250000009, 47.49638671875002 -14.818359375, 47.44208984375001 -14.925000000000011, 47.42919921875 -14.995703125000006, 47.47832031250002 -15.009375000000006, 47.52470703125002 -14.9921875, 47.59257812500002 -14.8642578125, 47.670019531250006 -14.743261718750006, 47.71601562500001 -14.680371093750011, 47.774023437500006 -14.63671875, 47.87041015625002 -14.6455078125, 47.96416015625002 -14.672558593750011, 47.8115234375 -14.544824218750009, 47.77333984375002 -14.369921875000003, 47.955175781250006 -14.067285156250009, 47.95693359375002 -14.004296875000009, 47.98320312500002 -13.98486328125, 47.99550781250002 -13.96044921875, 47.9013671875 -13.858203125000003, 47.88359375000002 -13.807519531250009, 47.89599609375 -13.730664062500011, 47.98183593750002 -13.614648437500009, 48.03984375000002 -13.596289062500006, 48.0859375 -13.62255859375, 48.187109375000006 -13.70654296875, 48.25527343750002 -13.719335937500006, 48.33769531250002 -13.638671875, 48.40507812500002 -13.537988281250009, 48.506445312500006 -13.46875, 48.62138671875002 -13.425976562500011, 48.796484375000006 -13.267480468750009, 48.91035156250001 -12.935839843750003, 48.91943359375 -12.839062500000011, 48.89423828125001 -12.7216796875, 48.85380859375002 -12.610156250000003, 48.78632812500001 -12.470898437500011, 48.80390625000001 -12.440039062500006, 48.89960937500001 -12.45849609375, 48.931738281250006 -12.439062500000006, 49.035742187500006 -12.315820312500009, 49.20703125 -12.07958984375, 49.26347656250002 -12.080175781250006, 49.312109375000006 -12.123925781250009, 49.330175781250006 -12.188671875000011, 49.36396484375001 -12.236328125, 49.47978515625002 -12.348437500000003, 49.53828125000001 -12.43212890625, 49.637792968750006 -12.637109375000009, 49.87646484375 -12.973046875000009, 49.9375 -13.072265625, 49.96718750000002 -13.270214843750011, 50.07343750000001 -13.577929687500003, 50.173828125 -14.040234375000011, 50.20458984375 -14.514453125000003, 50.2353515625 -14.732031250000006, 50.3134765625 -14.936816406250003, 50.44130859375002 -15.149316406250009, 50.48271484375002 -15.385644531250009, 50.40458984375002 -15.629101562500011)), ((49.985937500000006 -16.71240234375, 50.023046875000006 -16.6953125, 49.93642578125002 -16.902929687500006, 49.82402343750002 -17.086523437500006, 49.85566406250001 -16.933203125000006, 49.985937500000006 -16.71240234375)), ((48.30888671875002 -13.1982421875, 48.35107421875 -13.3095703125, 48.34355468750002 -13.400390625, 48.2119140625 -13.38525390625, 48.19121093750002 -13.259960937500011, 48.25566406250002 -13.256054687500011, 48.26972656250001 -13.20458984375, 48.30888671875002 -13.1982421875)), ((45.180273437500006 -12.976757812500011, 45.11757812500002 -12.984960937500006, 45.08769531250002 -12.95849609375, 45.069433593750006 -12.895605468750006, 45.08828125000002 -12.835058593750006, 45.09355468750002 -12.7861328125, 45.042578125000006 -12.701269531250006, 45.092382812500006 -12.653027343750011, 45.134765625 -12.709179687500011, 45.158789062500006 -12.712988281250006, 45.22314453125 -12.752148437500011, 45.20429687500001 -12.824316406250006, 45.208593750000006 -12.847949218750003, 45.17939453125001 -12.920214843750003, 45.180273437500006 -12.976757812500011)), ((44.47636718750002 -12.08154296875, 44.52675781250002 -12.219531250000003, 44.52626953125002 -12.323535156250003, 44.504980468750006 -12.356542968750006, 44.46015625000001 -12.335156250000011, 44.37744140625 -12.252246093750003, 44.22011718750002 -12.17138671875, 44.29228515625002 -12.164746093750011, 44.33447265625 -12.173046875000011, 44.37910156250001 -12.165625000000006, 44.40703125000002 -12.1201171875, 44.41259765625 -12.092968750000011, 44.45185546875001 -12.071386718750006, 44.47636718750002 -12.08154296875)), ((43.858984375000006 -12.368261718750006, 43.663671875000006 -12.342871093750006, 43.632910156250006 -12.287695312500006, 43.63134765625 -12.2470703125, 43.70429687500001 -12.255957031250006, 43.788671875000006 -12.307031250000009, 43.858984375000006 -12.368261718750006)), ((43.4658203125 -11.901269531250009, 43.44677734375 -11.91455078125, 43.35546875 -11.857519531250006, 43.303320312500006 -11.844042968750003, 43.226660156250006 -11.751855468750009, 43.25605468750001 -11.43212890625, 43.29902343750001 -11.37451171875, 43.34150390625001 -11.368457031250003, 43.39296875000002 -11.408593750000009, 43.37939453125 -11.614160156250009, 43.44765625000002 -11.752539062500006, 43.49150390625002 -11.862109375000003, 43.4658203125 -11.901269531250009)), ((42.75605468750001 13.954882812500003, 42.69404296875001 14.007910156249991, 42.76210937500002 14.067480468749991, 42.79833984375 14.012255859375003, 42.77421875000002 13.950244140625003, 42.75605468750001 13.954882812500003)), ((42.79414062500001 13.76611328125, 42.755859375 13.704296874999997, 42.68974609375002 13.673632812500003, 42.734960937500006 13.752978515625003, 42.78125 13.769287109375, 42.79414062500001 13.76611328125)), ((42.62451171875 15.367968750000003, 42.59023437500002 15.303417968749997, 42.558691406250006 15.281201171874997, 42.54902343750001 15.320068359375, 42.56972656250002 15.407324218749991, 42.60234375000002 15.432519531249994, 42.62451171875 15.367968750000003)), ((41.80156250000002 16.778759765624997, 41.77607421875001 16.846874999999997, 41.81611328125001 16.860156250000003, 41.85820312500002 16.89291992187499, 41.88496093750001 16.946826171875003, 41.860449218750006 17.00253906249999, 41.91728515625002 16.99365234375, 41.94794921875001 16.936425781249994, 41.95390625000002 16.80624999999999, 41.962500000000006 16.77866210937499, 41.94667968750002 16.748925781249994, 41.98769531250002 16.715625000000003, 42.065039062500006 16.71005859374999, 42.0263671875 16.75766601562499, 42.05996093750002 16.803515625000003, 42.17041015625 16.708642578124994, 42.16718750000001 16.596386718749997, 42.157812500000006 16.570703124999994, 42.12773437500002 16.59482421874999, 42.1083984375 16.618457031250003, 42.10234375000002 16.643945312499994, 42.07177734375 16.67148437499999, 41.96416015625002 16.653466796874994, 41.89726562500002 16.684277343749997, 41.80156250000002 16.778759765624997)), ((41.136816406250006 -2.0850585937500057, 40.99443359375002 -2.1583984375000114, 40.95732421875002 -2.167285156250003, 40.97646484375002 -2.1097656250000085, 41.086035156250006 -2.0365234375000085, 41.13066406250002 -2.053027343750003, 41.139257812500006 -2.06982421875, 41.136816406250006 -2.0850585937500057)), ((40.0634765625 15.665869140624991, 40.07050781250001 15.676611328124991, 40.01630859375001 15.733251953124991, 39.93994140625 15.744531249999994, 39.94521484375002 15.7890625, 39.97939453125002 15.806591796874997, 40.00048828125 15.828271484374994, 39.95673828125001 15.889404296875, 40.042578125000006 15.87548828125, 40.096777343750006 15.838476562499991, 40.132421875000006 15.795263671874991, 40.141210937500006 15.696142578124991, 40.18251953125002 15.642919921874991, 40.21142578125 15.648144531249997, 40.23408203125001 15.665869140624991, 40.250097656250006 15.703466796874991, 40.408203125 15.629199218750003, 40.399023437500006 15.579882812500003, 40.3046875 15.577343749999997, 40.19580078125 15.59814453125, 40.09511718750002 15.590917968749991, 39.975195312500006 15.612451171874994, 39.94746093750001 15.696142578124991, 40.02392578125 15.655615234374991, 40.0634765625 15.665869140624991)), ((40.11005859375001 15.985742187499994, 40.01240234375001 16.022656249999997, 39.99609375 16.042675781249997, 40.0390625 16.080957031249994, 40.04814453125002 16.1044921875, 40.07646484375002 16.082421874999994, 40.11005859375001 15.985742187499994)), ((39.63613281250002 -7.977832031250003, 39.60292968750002 -7.936132812500006, 39.66064453125 -7.900585937500011, 39.71660156250002 -7.83154296875, 39.84658203125002 -7.730273437500003, 39.90712890625002 -7.649218750000003, 39.89775390625002 -7.728125000000006, 39.82441406250001 -7.900683593750003, 39.761816406250006 -7.911914062500003, 39.71132812500002 -7.9774414062500085, 39.6572265625 -7.990527343750003, 39.63613281250002 -7.977832031250003)), ((39.86503906250002 -4.9061523437500085, 39.87099609375002 -4.95654296875, 39.85566406250001 -5.004003906250006, 39.85302734375 -5.255468750000006, 39.7958984375 -5.3944335937500085, 39.74931640625002 -5.44384765625, 39.707617187500006 -5.429492187500003, 39.673437500000006 -5.4066406250000085, 39.64677734375002 -5.3685546875000085, 39.70107421875002 -5.1136718750000085, 39.673437500000006 -4.927050781250003, 39.78076171875 -4.944921875000006, 39.86503906250002 -4.9061523437500085)), ((39.30898437500002 -5.721972656250003, 39.35722656250002 -5.8115234375, 39.368261718750006 -5.951171875, 39.43330078125001 -6.115429687500011, 39.49648437500002 -6.174609375000003, 39.57304687500002 -6.387402343750011, 39.56318359375001 -6.42724609375, 39.50917968750002 -6.45166015625, 39.48095703125 -6.453710937500006, 39.447363281250006 -6.419726562500003, 39.42363281250002 -6.347851562500011, 39.38261718750002 -6.364941406250011, 39.31269531250001 -6.279101562500003, 39.24345703125002 -6.275000000000006, 39.18232421875001 -6.172558593750011, 39.20625000000001 -6.083203125000011, 39.1923828125 -5.9310546875000085, 39.26699218750002 -5.853125000000006, 39.30898437500002 -5.721972656250003)), ((36.90166015625002 25.383056640625, 36.87519531250001 25.383056640625, 36.76386718750001 25.50058593749999, 36.72207031250002 25.53403320312499, 36.5302734375 25.6015625, 36.50429687500002 25.64511718749999, 36.53359375000002 25.688720703125, 36.55410156250002 25.64536132812499, 36.58876953125002 25.619824218749997, 36.74755859375 25.558740234374994, 36.924414062500006 25.425537109375, 36.95478515625001 25.41464843749999, 36.90166015625002 25.383056640625)), ((36.59550781250002 25.712792968749994, 36.58613281250001 25.69921875, 36.5439453125 25.734277343749994, 36.546484375000006 25.81162109374999, 36.58271484375001 25.855517578125003, 36.57988281250002 25.79541015625, 36.59550781250002 25.712792968749994)), ((33.29658203125001 34.717724609375, 33.11552734375002 34.695556640625, 33.06230468750002 34.6748046875, 33.02490234375 34.6369140625, 33.02392578125 34.599999999999994, 33.007910156250006 34.569580078125, 32.94179687500002 34.57587890625, 32.91425781250001 34.635498046875, 32.8671875 34.6611328125, 32.750097656250006 34.647802734375, 32.692968750000006 34.649365234375, 32.50556640625001 34.70625, 32.44902343750002 34.729443359375, 32.41376953125001 34.77802734375, 32.31718750000002 34.9533203125, 32.30097656250001 35.082958984375, 32.39091796875002 35.0498046875, 32.47500000000002 35.089990234374994, 32.55595703125002 35.15576171875, 32.65234375 35.182666015624996, 32.77236328125002 35.159570312499994, 32.8798828125 35.180566406249994, 32.926367187500006 35.278076171875, 32.94160156250001 35.390429687499996, 33.12343750000002 35.358203124999996, 33.30781250000001 35.34150390625, 33.45878906250002 35.335888671875, 33.60761718750001 35.354150390624994, 34.0634765625 35.473974609375, 34.192480468750006 35.545703124999996, 34.27236328125002 35.569970703124994, 34.4111328125 35.629296874999994, 34.55605468750002 35.662060546875, 34.46318359375002 35.593505859375, 33.941992187500006 35.292041015624996, 33.90791015625001 35.202392578125, 33.931250000000006 35.140380859375, 34.02363281250001 35.045556640624994, 34.05019531250002 34.98837890625, 33.9365234375 34.971484374999996, 33.69941406250001 34.969873046874994, 33.51445312500002 34.806445312499996, 33.41494140625002 34.750878906249994, 33.29658203125001 34.717724609375)), ((34.22011718750002 27.764306640624994, 34.04511718750001 27.828857421875, 33.952493710423184 27.9, 34.325603276926415 27.9, 34.22011718750002 27.764306640624994)), ((28.067675781250017 36.129687499999996, 28.087792968750023 36.065332031249994, 27.96552734375001 36.047509765624994, 27.8427734375 35.929296875, 27.770605468750006 35.90830078125, 27.745703125000006 35.911035156249994, 27.71552734375001 35.957324218749996, 27.75732421875 36.069189453125, 27.718652343750023 36.14111328125, 27.71630859375 36.17158203125, 27.7744140625 36.213769531249994, 27.815234375000017 36.276953125, 27.914453125000023 36.3453125, 28.171484375000006 36.426220703125, 28.231835937500023 36.433642578124996, 28.230078125000006 36.370263671874994, 28.14404296875 36.209863281249994, 28.067675781250017 36.129687499999996)), ((27.86250000000001 36.641162109374996, 27.86982421875001 36.622509765625, 27.869042968750023 36.582666015624994, 27.860156250000017 36.55390625, 27.838281250000023 36.537988281249994, 27.7880859375 36.58369140625, 27.785742187500006 36.60751953125, 27.86250000000001 36.641162109374996)), ((27.061132812500006 36.840380859374996, 27.214941406250006 36.8986328125, 27.265625 36.905126953125, 27.352148437500006 36.868896484375, 27.193164062500017 36.809130859374996, 27.150976562500006 36.777587890625, 27.033593750000023 36.770751953125, 26.949609375000023 36.727099609374996, 26.918359375000023 36.725927734375, 26.95556640625 36.774218749999996, 27.061132812500006 36.840380859374996)), ((27.09912109375 35.456445312499994, 27.115820312500006 35.511132812499994, 27.070703125000023 35.59775390625, 27.156054687500017 35.72626953125, 27.158007812500017 35.788671875, 27.22314453125 35.820458984374994, 27.20703125 35.714453125, 27.1572265625 35.6294921875, 27.208886718750023 35.558935546875, 27.23359375000001 35.478564453124996, 27.176074218750017 35.465283203125, 27.13789062500001 35.409082031249994, 27.09912109375 35.456445312499994)), ((26.82441406250001 37.811425781249994, 26.947363281250006 37.778466796874994, 26.981542968750006 37.781982421875, 27.039648437500006 37.77001953125, 27.055078125000023 37.709277343749996, 26.978125000000006 37.700488281249996, 26.84492187500001 37.6447265625, 26.78828125000001 37.656982421875, 26.720507812500017 37.705468749999994, 26.612890625000006 37.710498046874996, 26.5810546875 37.72373046875, 26.638671875 37.780859375, 26.74335937500001 37.809765625, 26.82441406250001 37.811425781249994)), ((27.040136718750006 37.0015625, 27.034570312500023 36.975976562499994, 27.01972656250001 36.959033203124996, 26.919921875 36.945214843749994, 26.93769531250001 37.024609375, 26.888671875 37.087255859375, 26.966601562500017 37.052099609375, 27.016015625000023 37.009667968749994, 27.040136718750006 37.0015625)), ((26.337011718750006 36.58056640625, 26.384179687500023 36.607861328125, 26.370019531250023 36.638574218749994, 26.421289062500023 36.62421875, 26.46064453125001 36.585400390625, 26.381640625000017 36.5615234375, 26.331445312500023 36.511376953124994, 26.27001953125 36.546923828124996, 26.269824218750017 36.59541015625, 26.337011718750006 36.58056640625)), ((26.325585937500023 37.673046875, 26.351367187500017 37.67431640625, 26.296875 37.619580078125, 26.204882812500017 37.568505859374994, 26.029296875 37.52939453125, 25.982421875 37.5255859375, 25.99677734375001 37.565576171874994, 26.086328125000023 37.634912109374994, 26.211523437500006 37.63828125, 26.325585937500023 37.673046875)), ((24.27490234375 35.385986328125, 24.312890625000023 35.363818359374996, 24.35400390625 35.35947265625, 24.444921875000006 35.366015624999996, 24.534570312500023 35.380761718749994, 24.626953125 35.409912109375, 24.721289062500006 35.4248046875, 25.00312500000001 35.40986328125, 25.104296875000017 35.346923828125, 25.296777343750023 35.33935546875, 25.475683593750006 35.306201171874996, 25.569628906250017 35.328076171875, 25.73017578125001 35.348583984375, 25.755859375 35.3263671875, 25.735156250000017 35.184033203125, 25.745019531250023 35.142724609374994, 25.791308593750017 35.122851562499996, 25.83710937500001 35.132568359375, 25.893359375000017 35.17919921875, 26.02802734375001 35.215283203125, 26.167871093750023 35.215087890625, 26.285546875000023 35.309765625, 26.320214843750023 35.31513671875, 26.298632812500017 35.268603515624996, 26.280859375000006 35.159228515624996, 26.24433593750001 35.044677734375, 26.165625000000006 35.018603515624996, 26.046679687500017 35.01416015625, 25.829687500000006 35.025195312499996, 25.610937500000006 35.00732421875, 25.20576171875001 34.959277343749996, 24.7998046875 34.934472656249994, 24.745214843750006 34.950634765625, 24.735156250000017 35.05830078125, 24.708886718750023 35.0890625, 24.583398437500023 35.11533203125, 24.463671875000017 35.1603515625, 23.99433593750001 35.221923828125, 24 35.221180758752084, 24 35.52926142444349, 24.03437500000001 35.535400390625, 24.093359375000006 35.59384765625, 24.166015625 35.59521484375, 24.19775390625 35.537451171875, 24.1240234375 35.51083984375, 24.108984375000006 35.49580078125, 24.178515625000017 35.459521484374996, 24.25537109375 35.468603515625, 24.257714843750023 35.423144531249996, 24.27490234375 35.385986328125)), ((25.7431640625 36.78974609375, 25.834375000000023 36.825390625, 25.852441406250023 36.847558593749994, 25.941992187500006 36.886572265625, 26.00068359375001 36.937402343749994, 26.064453125 36.902734374999994, 25.984667968750017 36.879687499999996, 25.859375 36.790429687499994, 25.771093750000006 36.7822265625, 25.7431640625 36.78974609375)), ((25.587890625 37.1525390625, 25.584277343750017 37.039306640625, 25.5458984375 36.967578124999996, 25.45673828125001 36.9296875, 25.395898437500023 36.984375, 25.361914062500006 37.07041015625, 25.525292968750023 37.19638671875, 25.564355468750023 37.185107421874996, 25.587890625 37.1525390625)), ((25.414648437500006 36.442285156249994, 25.396875000000023 36.46533203125, 25.408984375000017 36.47373046875, 25.467382812500006 36.43505859375, 25.482421875 36.392626953124996, 25.435937500000023 36.340087890625, 25.370507812500023 36.358935546874996, 25.39716796875001 36.378955078124996, 25.412890625000017 36.4048828125, 25.414648437500006 36.442285156249994)), ((25.31269531250001 37.489306640624996, 25.34814453125 37.509179687499994, 25.462988281250006 37.471093749999994, 25.457421875000023 37.447070312499996, 25.402734375000023 37.419140625, 25.30712890625 37.412988281249994, 25.31269531250001 37.489306640624996)), ((25.288671875000006 36.721533203125, 25.25996093750001 36.758447265624994, 25.2958984375 36.78916015625, 25.40693359375001 36.717333984374996, 25.364355468750006 36.658349609374994, 25.288671875000006 36.721533203125)), ((25.23505859375001 37.14853515625, 25.275292968750023 37.137841796874994, 25.271484375 37.0841796875, 25.278906250000006 37.068408203124996, 25.19941406250001 36.99130859375, 25.13330078125 36.999658203124994, 25.10546875 37.034960937499996, 25.146484375 37.107421875, 25.23505859375001 37.14853515625)), ((25.01630859375001 37.645947265625, 24.996484375000023 37.676904296874994, 25.039355468750017 37.6806640625, 25.091796875 37.647998046874996, 25.225390625000017 37.630664062499996, 25.255859375 37.599609375, 25.21875 37.535107421875, 25.156347656250006 37.545068359374994, 25.01630859375001 37.645947265625)), ((24.962207031250017 37.6923828125, 24.884082031250017 37.7705078125, 24.79853515625001 37.824023437499996, 24.766503906250023 37.870703125, 24.71435546875 37.898876953125, 24.7001953125 37.961669921875, 24.76337890625001 37.9875, 24.790429687500023 37.990136718749994, 24.855078125000006 37.913671875, 24.956347656250017 37.90478515625, 24.94843750000001 37.857666015625, 24.99169921875 37.759619140625, 24.962207031250017 37.6923828125)), ((24.937890625000023 37.389697265624996, 24.911523437500023 37.390576171875, 24.89619140625001 37.406591796875, 24.906542968750017 37.50888671875, 24.94287109375 37.493505859375, 24.937890625000023 37.389697265624996)), ((24.76318359375 36.94921875, 24.70263671875 36.91708984375, 24.67646484375001 36.959277343749996, 24.670996093750006 36.998583984374996, 24.681445312500017 37.021630859374994, 24.716113281250017 37.023828124999994, 24.76318359375 36.94921875)), ((24.47265625 37.980517578124996, 24.45126836171407 38, 24.557570246452322 38, 24.536523437500023 37.979736328125, 24.502343750000023 37.969921875, 24.47265625 37.980517578124996)), ((24.357421875 36.744287109374994, 24.425195312500023 36.712939453124996, 24.4501953125 36.728955078125, 24.460351562500023 36.747460937499994, 24.535742187500006 36.76376953125, 24.537500000000023 36.705029296875, 24.530664062500023 36.683984374999994, 24.325976562500017 36.655615234375, 24.357421875 36.744287109374994)), ((24.523535156250006 37.12509765625, 24.48652343750001 37.11005859375, 24.4248046875 37.131982421874994, 24.441210937500017 37.186865234375, 24.483789062500023 37.210205078125, 24.529101562500017 37.192333984375, 24.535937500000017 37.16767578125, 24.523535156250006 37.12509765625)), ((24.431250000000006 37.4751953125, 24.4814453125 37.408007812499996, 24.43574218750001 37.34443359375, 24.37890625 37.314111328124994, 24.397753906250017 37.383447265624994, 24.369726562500006 37.41962890625, 24.394824218750017 37.450390625, 24.431250000000006 37.4751953125)), ((24.288964843750023 37.528271484375, 24.277441406250006 37.601123046874996, 24.320410156250006 37.677734375, 24.37910156250001 37.68271484375, 24.400781250000023 37.6490234375, 24.35595703125 37.57685546875, 24.288964843750023 37.528271484375)), ((24.061328125000017 37.817919921874996, 24.05537109375001 37.709619140624994, 24.01972656250001 37.677734375, 24 37.677334241886406, 24 38, 24.030950129656908 38, 24.033007812500017 37.955322265625, 24.061328125000017 37.817919921874996)), ((10.957617187500006 33.722070312499994, 10.931347656250011 33.717431640624994, 10.883007812500011 33.690185546875, 10.857421875 33.687158203124994, 10.784765625000006 33.717675781249994, 10.757031250000011 33.71748046875, 10.722070312500023 33.738916015624994, 10.73388671875 33.855615234374994, 10.745214843750006 33.888671875, 10.921972656250006 33.893115234374996, 11.017871093750017 33.82333984375, 11.033593750000023 33.805029296875, 11.03759765625 33.785058593749994, 10.957617187500006 33.722070312499994)), ((8.464648437500017 3.4505859374999943, 8.5498046875 3.4676269531249915, 8.577246093750006 3.482373046874997, 8.622753906250011 3.5799804687499943, 8.6376953125 3.6688476562499943, 8.675878906250006 3.7359374999999915, 8.735742187500023 3.75830078125, 8.910058593750023 3.7582031249999943, 8.95068359375 3.705322265625, 8.946093750000017 3.6275390624999915, 8.792187500000011 3.400390625, 8.763476562500017 3.304638671874997, 8.704003906250023 3.2236328125, 8.65234375 3.2170898437499886, 8.474902343750017 3.2646484375, 8.444921875000006 3.2935058593749886, 8.434277343750011 3.3324218749999943, 8.451757812500006 3.4229003906249886, 8.464648437500017 3.4505859374999943)), ((7.414453125000023 1.6991210937499943, 7.43701171875 1.6830566406249972, 7.450390625000011 1.6619628906249915, 7.452343750000011 1.631103515625, 7.423828125 1.5677246093749915, 7.386621093750023 1.5415527343749886, 7.342382812500006 1.5635742187499915, 7.330664062500006 1.6033691406249915, 7.387597656250023 1.68017578125, 7.414453125000023 1.6991210937499943)), ((7.140429687500017 4.3951171874999915, 7.227343750000017 4.52734375, 7.271386718750023 4.498925781249994, 7.327929687500017 4.487207031249994, 7.30078125 4.418164062499997, 7.203906250000017 4.387646484374997, 7.140429687500017 4.3951171874999915)), ((6.496972656250023 0.1173828124999972, 6.468164062500023 0.2273437499999886, 6.4775390625 0.2801269531249915, 6.524316406250023 0.3402832031249972, 6.625878906250023 0.4002441406249915, 6.686914062500023 0.4043945312499915, 6.749804687500017 0.3256347656249972, 6.75 0.2434570312499886, 6.659960937500017 0.1206542968749886, 6.556835937500011 0.04736328125, 6.519726562500011 0.0663085937499943, 6.496972656250023 0.1173828124999972)), ((-5.782519531249989 -16.004003906250006, -5.775048828124994 -15.956738281250011, -5.707861328124977 -15.906152343750009, -5.662499999999994 -15.912792968750011, -5.659716796874989 -15.970898437500011, -5.692138671875 -15.997753906250011, -5.782519531249989 -16.004003906250006)), ((-12.854394531249994 7.622021484374997, -12.615234375 7.63720703125, -12.544189453125 7.607373046874997, -12.512499999999989 7.582421874999994, -12.500634765624994 7.535107421874997, -12.526074218749983 7.436328124999989, -12.540624999999977 7.4102539062499915, -12.607177734375 7.474511718749994, -12.951611328124983 7.570849609374989, -12.854394531249994 7.622021484374997)), ((-14.414941406249994 -7.9437500000000085, -14.383642578124977 -7.882617187500003, -14.360400390624989 -7.885937500000011, -14.302539062499989 -7.9354492187500085, -14.316796874999994 -7.956152343750006, -14.364355468749977 -7.974316406250011, -14.398681640625 -7.975781250000011, -14.40869140625 -7.967480468750011, -14.414941406249994 -7.9437500000000085)), ((-15.484423828124989 11.567529296874994, -15.553417968749983 11.537011718749994, -15.562792968749989 11.513769531249991, -15.61962890625 11.533496093749989, -15.536572265624983 11.617626953124997, -15.482470703124989 11.63232421875, -15.484423828124989 11.567529296874994)), ((-15.754687499999989 11.268701171874994, -15.717480468749983 11.3017578125, -15.671923828124989 11.296484374999991, -15.658349609374994 11.286474609374991, -15.667187499999983 11.257861328124989, -15.687109374999977 11.234326171874997, -15.725146484374989 11.215478515624994, -15.725146484374989 11.174511718749997, -15.767480468749994 11.182275390624994, -15.77978515625 11.194531249999997, -15.754687499999989 11.268701171874994)), ((-15.946484374999983 11.179736328124989, -15.937695312499983 11.192773437499994, -15.909130859374983 11.161328124999997, -15.895898437499994 11.082470703124997, -15.905175781249994 11.054736328124989, -15.963964843749977 11.058984374999994, -15.950634765624983 11.087109374999997, -15.963476562499977 11.095312499999991, -15.946484374999983 11.179736328124989)), ((-15.915332031249989 11.589111328125, -15.901806640624983 11.4658203125, -15.94873046875 11.434423828124991, -15.997216796874994 11.449169921874997, -16.023193359375 11.477148437499991, -16.01933593749999 11.527294921874997, -15.964550781249983 11.598291015624994, -15.915332031249989 11.589111328125)), ((-16.102441406249994 11.773193359375, -16.147363281249994 11.845996093749989, -16.152441406249977 11.876806640624991, -16.021874999999994 11.886669921874997, -15.986425781249977 11.882031249999997, -16.038330078125 11.759716796874997, -16.102441406249994 11.773193359375)), ((-16.194531249999983 11.044580078124994, -16.23100585937499 11.09423828125, -16.236425781249977 11.113427734374994, -16.175878906249977 11.130810546874997, -16.14404296875 11.166845703124991, -16.10478515624999 11.191015624999991, -16.067333984374983 11.197216796874997, -16.05278320312499 11.117529296874991, -16.072216796874983 11.084082031249991, -16.114501953125 11.059423828124991, -16.194531249999983 11.044580078124994)))