MULTIPOLYGON (((161.96689453125003 54.688671875, 161.72568359375003 54.532958984375, 161.62480468750005 54.516259765625, 161.29404296875003 54.520556640624996, 161.1298828125 54.5982421875, 160.935546875 54.578369140625, 160.77265625 54.541357421875, 160.51718750000003 54.430859375, 160.28886718750005 54.288232421875, 160.0744140625 54.18916015625, 160.01015625000002 54.130859375, 159.92177734375002 54.0083984375, 159.84375 53.783642578125, 159.87089843750005 53.672656249999996, 159.9142578125 53.620849609375, 159.95585937500005 53.552197265625, 159.89912109375 53.447705078125, 159.89765625 53.38076171875, 160.0021484375 53.27490234375, 160.02509765625 53.12958984375, 159.9474609375 53.12509765625, 159.77158203125003 53.2296875, 159.5859375 53.2376953125, 159.13613281250002 53.117138671875, 158.95205078125002 53.04755859375, 158.74541015625005 52.908935546875, 158.68369140625003 52.935400390625, 158.63955078125002 53.014794921875, 158.5646484375 53.05, 158.47207031250002 53.032373046875, 158.43232421875 52.957421875, 158.56015625000003 52.922167968749996, 158.60878906250002 52.8736328125, 158.53369140625 52.688427734375, 158.48076171875005 52.62666015625, 158.50039062500002 52.460302734375, 158.4931640625 52.383154296875, 158.46347656250003 52.304980468749996, 158.33164062500003 52.090869140624996, 158.103515625 51.809619140624996, 157.8232421875 51.605322265625, 157.62890625 51.534570312499994, 157.53095703125 51.479882812499994, 157.48984375000003 51.408935546875, 157.20224609375003 51.212744140625, 156.84746093750005 51.006591796875, 156.74775390625 50.969287109374996, 156.72431640625 51.0470703125, 156.71347656250003 51.12412109375, 156.67080078125002 51.226855468749996, 156.54345703125 51.31162109375, 156.52119140625 51.380273437499994, 156.50039062500002 51.47509765625, 156.48984375000003 51.913037109375, 156.37734375000002 52.366552734375, 156.36474609375 52.509375, 156.22861328125003 52.626269531249996, 156.15439453125003 52.747265625, 156.1103515625 52.866162109375, 156.098828125 53.006494140625, 155.9501953125 53.744287109375, 155.90488281250003 53.928125, 155.70644531250002 54.521484375, 155.6203125 54.864550781249996, 155.56386718750002 55.19912109375, 155.5548828125 55.348486328125, 155.64345703125002 55.7935546875, 155.71660156250005 56.072216796875, 155.98251953125003 56.69521484375, 156.025390625 56.752001953124996, 156.06748046875003 56.781591796875, 156.529296875 57.02119140625, 156.72841796875002 57.15224609375, 156.848828125 57.290185546875, 156.9767578125 57.46630859375, 156.9482421875 57.615771484374996, 156.89990234375 57.676904296875, 156.79160156250003 57.74794921875, 156.87197265625002 57.803662109375, 156.98574218750002 57.83017578125, 157.216796875 57.776806640625, 157.450390625 57.799267578125, 157.66640625000002 58.019775390625, 157.974609375 57.9859375, 158.1230558761602 58.01070931779194, 159.20658708693614 57.3608527136418, 160.6953222441137 56.19049312261238, 161.89313964050933 54.941404982712925, 162.04548542347973 54.72464657918964, 161.96689453125003 54.688671875)), ((154.27174506812045 59.75038521432844, 154.26884765625005 59.6583984375, 154.14980468750002 59.528515625, 154.212890625 59.4833984375, 154.27216796875 59.475146484375, 154.3576171875 59.4814453125, 154.58251953125 59.540087890625, 154.97128906250003 59.449609374999994, 155.16669921875 59.36015625, 155.15302734375 59.27021484375, 155.16044921875005 59.19013671875, 155.01669921875003 59.19560546875, 154.82373046875 59.187548828125, 154.70351562500002 59.14130859375, 154.4580078125 59.216552734375, 154.3759765625 59.187841796875, 154.24667968750003 59.10859375, 154.0109375 59.075537109375, 153.89169921875003 59.114160156249994, 153.69521484375002 59.224755859374994, 153.36113281250005 59.214794921875, 153.27294921875 59.09130859375, 153.19609375000005 59.09443359375, 153.07773437500003 59.081884765625, 152.88222656250002 58.9390625, 152.81787109375 58.92626953125, 152.57558593750002 58.9541015625, 152.40068359375005 59.026416015625, 152.31962890625005 59.03076171875, 152.165234375 58.997021484375, 152.087890625 58.91044921875, 151.70458984375 58.86669921875, 151.32675781250003 58.87509765625, 151.12109375 59.08251953125, 151.50498046875003 59.164013671875, 151.73349609375003 59.1466796875, 151.99003906250005 59.160058593749994, 152.26064453125002 59.223583984375, 152.16953125000003 59.2779296875, 152.1044921875 59.290576171875, 151.9423828125 59.284082031249994, 151.798046875 59.3232421875, 151.48574218750002 59.52412109375, 151.34824218750003 59.5611328125, 151.17031250000002 59.583251953125, 151.03359375000002 59.58564453125, 150.98251953125003 59.571337890625, 150.91191406250005 59.523046875, 150.86328125 59.475439453125, 150.8234375 59.4607421875, 150.7294921875 59.469140624999994, 150.615234375 59.50654296875, 150.48359375 59.494384765625, 150.53984375000005 59.524951171875, 150.66728515625005 59.55634765625, 150.4572265625 59.590722656249994, 150.32558593750002 59.6388671875, 150.20253906250002 59.651269531249994, 149.642578125 59.770410156249994, 149.42451171875 59.760986328125, 149.29042968750002 59.728466796875, 149.06523437500005 59.630517578124994, 149.12773437500005 59.5587890625, 149.17539062500003 59.526757812499994, 149.20498046875002 59.488183593749994, 148.925 59.474999999999994, 148.7970703125 59.53232421875, 148.70888671875002 59.44853515625, 148.744140625 59.37353515625, 148.8896484375 59.4, 148.96464843750005 59.369140625, 148.9140625 59.28271484375, 148.72666015625003 59.25791015625, 148.4912109375 59.2623046875, 148.25742187500003 59.414208984374994, 147.87460937500003 59.388037109375, 147.68789062500002 59.290673828124994, 147.51445312500005 59.2685546875, 147.0400390625 59.36572265625, 146.8037109375 59.372949218749994, 146.53720703125003 59.456982421875, 146.4443359375 59.43046875, 146.2734375 59.221484375, 146.04951171875 59.170556640624994, 145.931640625 59.198388671874994, 145.8291015625 59.330322265625, 145.75644531250003 59.37373046875, 145.55458984375002 59.413525390625, 144.4833984375 59.37626953125, 144.12343750000002 59.40830078125, 143.86875000000003 59.411376953125, 143.52382812500002 59.343652343749994, 143.19218750000005 59.3701171875, 142.5802734375 59.240136718749994, 142.33037109375005 59.15263671875, 142.025390625 58.999658203124994, 141.75468750000005 58.745263671874994, 141.60292968750002 58.6490234375, 141.34707031250002 58.528076171875, 140.98769531250002 58.416845703125, 140.790234375 58.303466796875, 140.68496093750002 58.212158203125, 140.4951171875 57.8654296875, 140.44687500000003 57.813671875, 140.00234375000002 57.6875, 139.8615234375 57.54931640625, 139.80332031250003 57.51416015625, 139.61923828125003 57.455712890625, 139.50664062500005 57.35830078125, 139.44384765625 57.3296875, 139.181640625 57.261523437499996, 138.96572265625002 57.088134765625, 138.662109375 56.96552734375, 138.2177734375 56.62900390625, 138.18007812500002 56.588525390625, 138.140625 56.498681640625, 138.07382812500003 56.43310546875, 137.69150390625003 56.13935546875, 137.57294921875 56.112109374999996, 137.38408203125005 55.974755859375, 137.18984375000002 55.89228515625, 137.01210937500002 55.795263671875, 136.79355468750003 55.694189453125, 136.46025390625005 55.576708984374996, 136.35117187500003 55.510009765625, 136.17519531250002 55.35224609375, 135.75078125000005 55.16064453125, 135.54062500000003 55.11376953125, 135.26250000000005 54.943310546875, 135.23476562500002 54.90322265625, 135.21152343750003 54.8408203125, 135.25771484375002 54.731494140624996, 135.325390625 54.707421875, 135.43779296875005 54.69248046875, 135.8515625 54.583935546875, 136.23798828125 54.614062499999996, 136.79726562500002 54.62099609375, 136.82373046875 54.561474609375, 136.82041015625003 54.45234375, 136.77041015625002 54.353320312499996, 136.72939453125002 54.06064453125, 136.68300781250002 53.931298828125, 136.71884765625003 53.8041015625, 136.80263671875002 53.781982421875, 136.88642578125 53.83935546875, 137.01875 53.84814453125, 137.15537109375003 53.8216796875, 137.2580078125 54.025244140625, 137.17246093750003 54.056884765625, 137.09619140625 54.128564453125, 137.1416015625 54.1822265625, 137.37773437500005 54.28232421875, 137.52509765625 54.2912109375, 137.666015625 54.28330078125, 137.51318359375 54.156396484375, 137.45126953125003 54.13046875, 137.40341796875003 54.12353515625, 137.33925781250002 54.100537109375, 137.47646484375002 54.027587890625, 137.62275390625 53.970458984375, 137.83476562500005 53.946728515625, 137.7861328125 53.9033203125, 137.64482421875005 53.8658203125, 137.51699218750002 53.707080078124996, 137.313671875 53.631591796875, 137.22148437500005 53.57919921875, 137.25371093750005 53.546142578125, 137.3283203125 53.53896484375, 137.73818359375002 53.560302734375, 137.95048828125005 53.603564453124996, 138.2529296875 53.726416015625, 138.37890625 53.90927734375, 138.49355468750002 53.95966796875, 138.52792968750003 53.95986328125, 138.56816406250005 53.94716796875, 138.56914062500005 53.818798828125, 138.40703125000005 53.674169921875, 138.2921875 53.592431640625, 138.24970703125 53.5240234375, 138.3203125 53.522900390625, 138.45068359375 53.53701171875, 138.5109375 53.57001953125, 138.66074218750003 53.744775390625, 138.6994140625 53.8697265625, 138.7216796875 54.043749999999996, 138.70468750000003 54.14765625, 138.71591796875003 54.22265625, 138.6572265625 54.29833984375, 138.69570312500002 54.32001953125, 139.10507812500003 54.217822265624996, 139.31972656250002 54.19296875, 139.70742187500002 54.277148437499996, 139.79550781250003 54.2564453125, 139.8583984375 54.205322265625, 140.1787109375 54.051562499999996, 140.24169921875 54.001025390624996, 140.34707031250002 53.81259765625, 140.68759765625003 53.596435546875, 141.00566406250005 53.494580078125, 141.01503906250002 53.454248046875, 141.21767578125002 53.33447265625, 141.37373046875 53.292773437499996, 141.40205078125 53.183984375, 141.32792968750005 53.097265625, 141.18125000000003 53.015283203125, 140.88730468750003 53.09150390625, 140.83964843750005 53.087890625, 140.87451171875 53.039843749999996, 141.08681640625002 52.89755859375, 141.255859375 52.840136718749996, 141.26591796875005 52.652587890625, 141.24501953125002 52.550146484375, 141.13242187500003 52.435693359375, 141.16982421875002 52.368408203125, 141.32968750000003 52.271142578125, 141.40908203125002 52.234326171875, 141.48525390625002 52.178515624999996, 141.38554687500005 52.0572265625, 141.36689453125 51.920654296875, 141.25839843750003 51.860693359375, 141.12939453125 51.727783203125, 140.9326171875 51.619921874999996, 140.83857421875 51.41416015625, 140.6876953125 51.232275390625, 140.67070312500005 51.051318359374996, 140.64560546875003 50.986767578125, 140.52089843750002 50.800195312499994, 140.47636718750005 50.54599609375, 140.53544921875005 50.130761718749994, 140.56406250000003 50.106689453125, 140.62451171875 50.082421874999994, 140.61328125 50.0537109375, 140.46269531250005 49.911474609375, 140.46455078125 49.825585937499994, 140.51132812500003 49.761669921875, 140.51718750000003 49.596142578125, 140.43105468750002 49.331494140625, 140.39912109375 49.289794921875, 140.36435546875003 49.220849609374994, 140.3486328125 49.1591796875, 140.32558593750002 49.120019531249994, 140.30898437500002 49.05390625, 140.33369140625 48.99482421875, 140.37832031250002 48.964111328125, 140.22421875000003 48.772851562499994, 140.17060546875 48.523681640625, 140.11328125 48.422656249999996, 139.99843750000002 48.323779296874996, 139.7607421875 48.180566406249994, 139.67626953125 48.089892578124996, 139.5205078125 47.97529296875, 139.37265625000003 47.887353515624994, 139.1669921875 47.63486328125, 139.00136718750002 47.38330078125, 138.58681640625002 47.0572265625, 138.52968750000002 46.976220703124994, 138.50048828125 46.88984375, 138.391796875 46.745068359375, 138.3369140625 46.543408203125, 138.21015625 46.462939453124996, 138.10634765625002 46.250732421875, 137.76914062500003 45.928515624999996, 137.68544921875002 45.818359375, 137.42519531250002 45.639990234375, 137.14697265625 45.393505859375, 136.80351562500005 45.171142578125, 136.73720703125002 45.080029296875, 136.60410156250003 44.978173828124994, 136.46044921875 44.822119140625, 136.251171875 44.666796874999996, 136.20869140625 44.56201171875, 136.14228515625 44.489111328125, 135.98701171875 44.439843749999994, 135.87460937500003 44.37353515625, 135.533203125 43.971484374999996, 135.48906250000005 43.898828124999994, 135.4833984375 43.835009765624996, 135.26015625000002 43.684619140624996, 135.1310546875 43.525732421875, 134.9169921875 43.426562499999996, 134.69179687500002 43.290576171874996, 134.1564453125 43.042138671874994, 134.01044921875 42.9474609375, 133.70937500000002 42.829931640625, 133.58671875000005 42.82822265625, 133.32949218750002 42.7638671875, 133.15996093750005 42.69697265625, 133.05937500000005 42.722802734374994, 132.99658203125 42.808007812499994, 132.92392578125003 42.8052734375, 132.86357421875005 42.793749999999996, 132.708984375 42.875830078125, 132.57646484375005 42.87158203125, 132.48134765625002 42.909765625, 132.30380859375003 42.88330078125, 132.33437500000002 43.238671874999994, 132.3095703125 43.313525390624996, 132.23320312500005 43.245068359375, 132.02871093750002 43.118945312499996, 131.947265625 43.09541015625, 131.86660156250002 43.095166015625, 131.89833984375002 43.170751953125, 132.01308593750002 43.280029296875, 131.93896484375 43.301953125, 131.79472656250005 43.255273437499994, 131.72207031250002 43.20263671875, 131.51640625000005 42.996435546875, 131.39326171875 42.822314453124996, 131.29248046875 42.772119140624994, 131.2453125 42.697412109374994, 131.15830078125003 42.626025390624996, 131.02480468750002 42.645166015624994, 130.94570312500002 42.633935546874994, 130.75615234375005 42.673291015625, 130.70937500000002 42.656396484374994, 130.8341796875 42.52294921875, 130.72988281250002 42.32578125, 130.63652343750005 42.274853515625, 130.56923828125002 42.29169921875, 130.45751953125 42.301708984375, 130.31474609375005 42.214111328125, 130.23574218750002 42.183203125, 130.1798828125 42.096972656249996, 130.06826171875002 42.045751953125, 130.00732421875 41.991162109375, 129.92822265625 41.896728515625, 129.87636718750002 41.805517578125, 129.75634765625 41.712255859375, 129.68632812500005 41.594970703125, 129.68242187500005 41.4943359375, 129.758984375 41.391503906249994, 129.7658203125 41.303857421874994, 129.712109375 41.123681640624994, 129.74199218750005 40.932275390624994, 129.70869140625 40.857324218749994, 129.34111328125005 40.726318359375, 129.2451171875 40.661035156249994, 129.10976562500002 40.491064453125, 128.94521484375002 40.427880859374994, 128.84296875 40.35849609375, 128.7013671875 40.317529296874994, 128.61074218750002 40.197900390624994, 128.51123046875 40.130224609375, 128.39296875000002 40.08896484375, 128.30449218750005 40.035937499999996, 128.10634765625002 40.032568359375, 127.96660156250005 39.99560546875, 127.86708984375002 39.895947265625, 127.56816406250005 39.781982421875, 127.52744140625003 39.695703124999994, 127.54726562500002 39.562792968749996, 127.54892578125003 39.461083984374994, 127.52285156250002 39.377392578125, 127.45742187500002 39.4009765625, 127.42226562500002 39.373583984374996, 127.38349609375001 39.296142578125, 127.39453125 39.207910156249994, 127.49697265625002 39.179492187499996, 127.58095703125002 39.14326171875, 127.69892578125001 39.125048828124996, 127.7861328125 39.084130859374994, 127.9716796875 38.897998046874996, 128.123046875 38.81640625, 128.16250000000002 38.7861328125, 128.24941406250002 38.74521484375, 128.32949218750002 38.680908203125, 128.37460937500003 38.623437499999994, 128.61884765625 38.176074218749996, 128.85244140625002 37.887060546875, 129.05156250000005 37.677636718749994, 129.33515625 37.274560546874994, 129.41826171875005 37.059033203125, 129.42617187500002 36.925537109375, 129.47343750000005 36.74189453125, 129.43300781250002 36.636621093749994, 129.44501953125 36.470703125, 129.42714843750002 36.385498046875, 129.392578125 36.322705078125, 129.39130859375 36.2021484375, 129.40244140625003 36.137646484375, 129.403515625 36.052148437499994, 129.42578125 36.018798828125, 129.45830078125005 36.0064453125, 129.509765625 36.03759765625, 129.57285156250003 36.050537109375, 129.56171875 35.947656249999994, 129.48544921875003 35.687402343749994, 129.419140625 35.497851562499996, 129.32900390625002 35.332763671875, 129.21416015625005 35.1818359375, 129.07675781250003 35.122705078124994, 128.98007812500003 35.101513671875, 128.79570312500005 35.093896484374994, 128.642578125 35.119580078125, 128.5109375 35.100976562499994, 128.45810546875003 35.06943359375, 128.41884765625002 35.015673828124996, 128.44765625000002 34.932080078125, 128.44394531250003 34.870361328125, 128.3876953125 34.87509765625, 128.27597656250003 34.910986328125, 128.15234375 34.915869140625, 128.09453125000005 34.93359375, 128.03623046875003 35.02197265625, 127.97675781250001 35.018701171874994, 127.87324218750001 34.96630859375, 127.71484375 34.9546875, 127.65908203125002 34.9263671875, 127.63935546875001 34.889697265624996, 127.66250000000002 34.843408203124994, 127.7421875 34.782568359375, 127.71542968750003 34.721044921875, 127.63242187500003 34.690234374999996, 127.5654296875 34.765917968749996, 127.52363281250001 34.840087890625, 127.47695312500002 34.844287109374996, 127.404296875 34.823095703125, 127.3896484375 34.743017578125, 127.42343750000003 34.6884765625, 127.47910156250003 34.625244140625, 127.40117187500005 34.552539062499996, 127.38056640625001 34.500634765624994, 127.32460937500002 34.463281249999994, 127.17343750000003 34.546142578125, 127.19492187500003 34.605029296874996, 127.26054687500005 34.661669921874996, 127.26865234375003 34.720361328124994, 127.2470703125 34.755126953125, 127.03076171875 34.606884765625, 126.8974609375 34.438867187499994, 126.82626953125003 34.451074218749994, 126.79648437500003 34.494287109374994, 126.75478515625002 34.511865234374994, 126.61083984375 34.403515625, 126.58437500000002 34.317529296874994, 126.53144531250001 34.314257812499996, 126.50830078125 34.350634765624996, 126.50644531250003 34.428369140624994, 126.48173828124999 34.493945312499996, 126.33261718750003 34.589648437499996, 126.26445312499999 34.673242187499994, 126.30107421874999 34.719970703125, 126.42558593749999 34.694580078125, 126.52451171875003 34.697900390624994, 126.50498046875003 34.737548828125, 126.47285156250001 34.75634765625, 126.53857421875 34.778662109375, 126.59335937500003 34.824365234374994, 126.54794921875003 34.836767578125, 126.478515625 34.810351562499996, 126.42070312499999 34.823388671874994, 126.39785156250002 34.9328125, 126.32744140624999 35.0451171875, 126.29111328125003 35.154150390625, 126.36054687500001 35.21689453125, 126.39589843750002 35.314404296875, 126.46044921875 35.455615234374996, 126.49277343750003 35.501269531249996, 126.58222656250001 35.534472656249996, 126.61406249999999 35.57099609375, 126.48652343750001 35.606347656249994, 126.48847656250001 35.6470703125, 126.54189453125002 35.669335937499994, 126.6015625 35.714208984375, 126.71738281250003 35.768847656249996, 126.75302734375003 35.871972656249994, 126.71962890625002 35.897900390625, 126.6474609375 35.922412109374996, 126.66367187500003 35.974511718749994, 126.69345703125003 36.01416015625, 126.68232421875001 36.037939453125, 126.59707031250002 36.105029296874996, 126.54042968750002 36.166162109374994, 126.55722656250003 36.23583984375, 126.54423828124999 36.341210937499994, 126.55195312500001 36.4296875, 126.54824218750002 36.47763671875, 126.50664062499999 36.58564453125, 126.48769531250002 36.693798828125, 126.43300781250002 36.678027343749996, 126.38876953125003 36.651171874999996, 126.23066406250001 36.689257812499996, 126.18085937500001 36.6916015625, 126.16054687500002 36.771923828125, 126.21718750000002 36.870947265625, 126.3515625 36.958203125, 126.4287109375 36.969042968749996, 126.48701171875001 37.007470703124994, 126.57773437500003 37.019580078124996, 126.68671875000001 36.960351562499994, 126.78447265624999 36.9484375, 126.83876953125002 36.846093749999994, 126.8720703125 36.824462890625, 126.87910156250001 36.862060546875, 126.9580078125 36.906152343749994, 126.97685546874999 36.939404296875, 126.95976562499999 36.9576171875, 126.86894531249999 36.975732421874994, 126.78740234374999 37.102734375, 126.77607421875001 37.158203125, 126.74638671874999 37.1935546875, 126.79052734375 37.294921875, 126.69619140625002 37.410693359374996, 126.65029296875002 37.447119140625, 126.65683593750003 37.551171874999994, 126.58017578125003 37.653759765625, 126.56337890625002 37.71650390625, 126.57773437500003 37.7447265625, 126.62070312500003 37.75546875, 126.63388671875003 37.7818359375, 126.62324218750001 37.790185546874994, 126.57275390625 37.796826171875, 126.36992187499999 37.878369140625, 126.203125 37.828515624999994, 126.16103515625002 37.763720703124996, 126.11669921875 37.742919921875, 126.05029296875 37.86982421875, 125.94169921874999 37.873681640624994, 125.76914062500003 37.9853515625, 125.69501953125001 37.962695312499996, 125.67617187500002 37.917724609375, 125.58154296875 37.8150390625, 125.44931640625003 37.730224609375, 125.40664062500002 37.719042968749996, 125.35781250000002 37.7248046875, 125.36484375000003 37.7482421875, 125.31074218750001 37.843505859375, 125.10195312500002 37.882080078125, 125.02675781250002 37.922607421875, 124.98876953125 37.931445312499996, 125.19316406249999 38.03779296875, 125.24667968750003 38.0568359375, 125.20673828125001 38.08154296875, 125.16259765625 38.093652343749994, 124.99501953125002 38.07783203125, 124.90703124999999 38.112646484375, 124.77949218750001 38.101513671875, 124.69091796875 38.129199218749996, 124.87451171875 38.2333984375, 124.88056640625001 38.341650390625, 124.97373046875003 38.480126953124994, 125.0673828125 38.55673828125, 125.30966796875003 38.665380859375, 125.41533203124999 38.680419921875, 125.49179687500003 38.676123046875, 125.55449218749999 38.68623046875, 125.48867187500002 38.727783203125, 125.42421875000002 38.746874999999996, 125.29892578125003 38.742968749999996, 125.16884765625002 38.805517578125, 125.15732421875003 38.871533203125, 125.40966796875 39.288378906249996, 125.41318359375003 39.32626953125, 125.37363281250003 39.427636718749994, 125.36083984375 39.526611328125, 125.18007812500002 39.58349609375, 125.10009765625 39.59033203125, 124.86787109375001 39.701806640624994, 124.77529296875002 39.758056640625, 124.73886718750003 39.741503906249996, 124.73222656249999 39.652197265625, 124.69921875 39.632373046874996, 124.63828125000003 39.615087890625, 124.60761718750001 39.716943359374994, 124.55742187499999 39.790576171874996, 124.40380859375 39.865527343749996, 124.3486328125 39.906884765624994, 124.37509765625003 39.996142578124996, 124.35000000000002 40.011572265625, 124.26748046875002 39.924169921875, 124.10576171874999 39.841015625, 123.76015625000002 39.822412109374994, 123.65087890625 39.881591796875, 123.61123046875002 39.8408203125, 123.58066406250003 39.7861328125, 123.49003906249999 39.767871093749996, 123.34814453125 39.762939453125, 123.26894531250002 39.726904296875, 123.2265625 39.68662109375, 123.0322265625 39.67353515625, 122.9609375 39.619921874999996, 122.84003906250001 39.600830078125, 122.33486328125002 39.366113281249994, 122.22500000000002 39.267333984375, 122.12089843749999 39.151904296874996, 121.98232421875002 39.053173828125, 121.92265624999999 39.036523437499994, 121.86435546875003 38.996484374999994, 121.80517578125 38.99140625, 121.74482421875001 39.009667968749994, 121.67724609375 39.00341796875, 121.6328125 38.954833984375, 121.67041015625 38.891796875, 121.64990234375 38.865087890625, 121.51718750000003 38.83076171875, 121.32011718749999 38.808203125, 121.236328125 38.766943359375, 121.20742187500002 38.743505859375, 121.16357421875 38.731640625, 121.12167968750003 38.813281249999996, 121.10673828124999 38.920800781249994, 121.18828124999999 38.946679687499994, 121.26328125000003 38.960253906249996, 121.67988281250001 39.108691406249996, 121.62763671875001 39.220166015625, 121.66455078125 39.26875, 121.7578125 39.347558593749994, 121.81845703125003 39.386523437499996, 121.78544921874999 39.400830078125, 121.51249999999999 39.374853515625, 121.27548828125003 39.384765625, 121.2998046875 39.452197265624996, 121.28632812500001 39.519433593749994, 121.26748046875002 39.544677734375, 121.40644531250001 39.621240234374994, 121.46953124999999 39.64013671875, 121.517578125 39.638964843749996, 121.51425781250003 39.68525390625, 121.47421875000003 39.7548828125, 121.51738281249999 39.84482421875, 121.80097656250001 39.950537109375, 121.86894531249999 40.04638671875, 121.98281250000002 40.13583984375, 122.19091796875 40.358251953125, 122.20332031250001 40.396044921874996, 122.26386718750001 40.5001953125, 122.27500000000003 40.541845703125, 122.1787109375 40.602734375, 122.14042968749999 40.68818359375, 121.85878906250002 40.842089843749996, 121.83486328125002 40.974267578124994, 121.80859375 40.968505859375, 121.765625 40.875878906249994, 121.72929687499999 40.846142578125, 121.59892578124999 40.843408203124994, 121.537109375 40.87841796875, 121.17451171875001 40.901269531249994, 121.0859375 40.841601562499996, 121.0029296875 40.74912109375, 120.92226562500002 40.68310546875, 120.84130859375 40.649218749999996, 120.77070312500001 40.5890625, 120.47910156250003 40.23095703125, 120.36894531249999 40.203857421875, 119.85039062499999 39.987451171874994, 119.59111328124999 39.902636718749996, 119.39111328125 39.752490234374996, 119.32236328125003 39.66162109375, 119.26132812500003 39.560888671875, 119.224609375 39.408056640625, 119.04013671875003 39.22236328125, 118.97695312500002 39.182568359375, 118.91230468750001 39.166406249999994, 118.82646484374999 39.172119140625, 118.75244140625 39.160498046875, 118.62636718750002 39.17685546875, 118.47197265624999 39.118017578125, 118.2978515625 39.06708984375, 118.14785156250002 39.195068359375, 118.04091796875002 39.2267578125, 117.86572265625 39.191259765625, 117.78466796875 39.13447265625, 117.61669921875 38.852880859375, 117.55380859375003 38.691455078124996, 117.55781250000001 38.625146484374994, 117.65605468749999 38.424218749999994, 117.76669921875003 38.311669921874994, 118.01494140624999 38.183398437499996, 118.54326171874999 38.094921875, 118.66708984375003 38.126367187499994, 118.80000000000001 38.12666015625, 118.94003906250003 38.042773437499996, 119.02753906250001 37.90400390625, 119.03847656250002 37.776513671874994, 119.0703125 37.748583984374996, 119.08916015624999 37.700732421874996, 119.03349609374999 37.661035156249994, 118.99082031250003 37.641357421875, 118.95488281249999 37.494091796875, 118.95263671875 37.33115234375, 118.99814453125003 37.277099609375, 119.11181640625 37.201171875, 119.28740234374999 37.13828125, 119.44990234375001 37.124755859375, 119.76054687499999 37.155078124999996, 119.88749999999999 37.253369140625, 119.87998046875003 37.295800781249994, 119.88291015625003 37.350830078125, 120.15585937500003 37.495019531249994, 120.3115234375 37.622705078124994, 120.287109375 37.656494140625, 120.25722656250002 37.679003906249996, 120.28466796875 37.69208984375, 120.3701171875 37.701025390625, 120.75 37.833935546875, 121.04902343750001 37.7251953125, 121.21953124999999 37.600146484374996, 121.38808593750002 37.578955078125, 121.50527343750002 37.515039062499994, 121.64023437500003 37.460351562499994, 121.96484375 37.4453125, 122.01015625000002 37.495751953124994, 122.056640625 37.52890625, 122.10957031250001 37.522314453125, 122.16914062500001 37.45615234375, 122.33769531249999 37.4052734375, 122.49326171875003 37.407958984375, 122.60234374999999 37.426416015624994, 122.6669921875 37.40283203125, 122.57333984375003 37.317919921874996, 122.58730468750002 37.181103515625, 122.51552734375002 37.137841796874994, 122.44667968750002 37.068115234375, 122.48740234375003 37.022265624999996, 122.5234375 37.00263671875, 122.51972656250001 36.946826171874996, 122.45703125 36.91513671875, 122.34091796875003 36.8322265625, 122.27421874999999 36.833837890625, 122.24228515625003 36.849853515625, 122.2197265625 36.879541015624994, 122.20322265625003 36.927197265625, 122.16240234374999 36.958642578124994, 122.04951171875001 36.970751953124996, 121.93271484375003 36.95947265625, 121.66962890625001 36.836376953125, 121.4130859375 36.73837890625, 121.14404296875 36.660449218749996, 121.05380859375003 36.611376953124996, 120.98994140625001 36.597949218749996, 120.87851562500003 36.635156249999994, 120.81083984374999 36.6328125, 120.79667968749999 36.607226562499996, 120.88261718749999 36.538916015625, 120.90498046875001 36.485302734375, 120.89580078124999 36.444140624999996, 120.84707031250002 36.426074218749996, 120.77617187499999 36.456298828125, 120.71152343750003 36.41328125, 120.68222656250003 36.340722656249994, 120.68095703124999 36.168359374999994, 120.63789062500001 36.129931640624996, 120.51933593749999 36.108691406249996, 120.39306640625 36.053857421874994, 120.34824218750003 36.07919921875, 120.33027343750001 36.110107421875, 120.34345703125001 36.189453125, 120.32773437500003 36.228173828124994, 120.27011718750003 36.226171875, 120.18330078125001 36.202441406249996, 120.11699218749999 36.150292968749994, 120.09414062500002 36.118896484375, 120.18144531249999 36.017480468749994, 120.26474609375003 36.007226562499994, 120.28476562500003 35.984423828124996, 120.21904296874999 35.934912109375, 120.0546875 35.861132812499996, 120.02744140625003 35.799365234374996, 119.97871093750001 35.740234375, 119.91171875000003 35.693212890625, 119.8662109375 35.64365234375, 119.7197265625 35.588720703125, 119.6083984375 35.469873046874994, 119.52646484375003 35.35859375, 119.4296875 35.301416015624994, 119.35283203124999 35.113818359374996, 119.2158203125 35.011767578124996, 119.20353173866779 34.97210899893925, 118.60428459953256 35.04640320630922, 111.14759009807179 35.02022678115155, 109.48694821906538 35.001817497290055, 107.82872654313651 35.082133926525316, 96.97664933252354 35.33588561815041, 94.69394002146747 33.40911318085264, 93.43256497506685 32.38885135736675, 92.09117214853903 31.460677662193998, 90.68059424977125 30.629915648385744, 89.21133229686663 29.901084415150972, 87.69359437498028 29.277912894839318, 86.13732375691343 28.763355506501153, 84.55221741832845 28.359610259864656, 82.94773667958876 28.06814004446147, 81.33311218073919 27.889697459935313, 79.71734567442485 27.824353158656177, 78.10921122696533 27.87152730282842, 76.51725837263548 28.030023405297896, 74.94981959493114 28.298063542603888, 73.41502423866346 28.673323711924667, 71.92082061725375 29.15296795605862, 70.47500769864926 29.73367980202335, 69.08527735426098 30.41168954321829, 67.75926775311804 31.182795931929228, 66.50462808058474 32.04238092506707, 65.32909434399023 32.98541622758706, 64.24057556307432 34.006460492848575, 63.24724907394952 35.09964615926145, 62.35766291491653 36.25865502693374, 61.580842189238126 37.47668181601422, 60.92639474988016 38.7463851238317, 60.40460931196977 40.05982545455526, 60.02653590892896 41.40839040383392, 59.8040341708641 42.782707748536545, 59.74976893030082 44.172548270591086, 59.8771249738493 45.566721838903774, 60.20000349848419 46.95297283951145, 60.7324528153031 48.31788476073195, 64.85848604501358 56.18046648267212, 65.74307681077248 57.44042798613362, 66.9030776277128 58.646766568176034, 68.35438871100702 59.78303561713922, 70.10798656800816 60.83149929724151, 72.16705068044102 61.773430433919614, 74.52369426085667 62.589647356428905, 77.15577229205459 63.261329222964065, 80.0245350360785 63.77110208964218, 110.82342826824352 65.0217875634728, 122.57723950043706 64.88621712164003, 123.83869838205749 64.81113369585711, 142.90031000955068 62.15075826505278, 150.3428739432276 60.85100641556331, 152.96703976065348 60.19816314974294, 154.27174506812045 59.75038521432844)), ((156.3654296875 50.6337890625, 156.32578125000003 50.639062499999994, 156.1962890625 50.7021484375, 156.16796875 50.731884765625, 156.2130859375 50.784716796874996, 156.37646484375 50.862109374999996, 156.45585937500005 50.8595703125, 156.4875 50.84296875, 156.48310546875 50.751220703125, 156.40507812500005 50.657617187499994, 156.3654296875 50.6337890625)), ((155.43388671875005 50.368945312499996, 155.68017578125 50.400732421875, 155.77275390625005 50.482421875, 155.884765625 50.684130859374996, 156.00166015625 50.75693359375, 156.096875 50.771874999999994, 156.12285156250005 50.671289062499994, 156.1005859375 50.55927734375, 156.04443359375 50.4517578125, 155.92109375 50.302197265625, 155.79238281250002 50.202050781249994, 155.60751953125003 50.17724609375, 155.51640625000005 50.14560546875, 155.44892578125 50.077783203124994, 155.39716796875 50.041259765625, 155.28867187500003 50.061181640624994, 155.24306640625002 50.094628906249994, 155.24306640625002 50.212792968749994, 155.19511718750005 50.264550781249994, 155.21835937500003 50.2978515625, 155.32675781250003 50.293261718749996, 155.43388671875005 50.368945312499996)), ((155.46738281250003 50.91357421875, 155.5685546875 50.934472656249994, 155.6396484375 50.910498046875, 155.65361328125005 50.845361328124994, 155.64482421875005 50.821923828124994, 155.55351562500005 50.810595703124996, 155.51279296875003 50.837304687499994, 155.48349609375003 50.86962890625, 155.46738281250003 50.91357421875)), ((154.61298828125 49.380615234375, 154.82490234375 49.646923828125, 154.899609375 49.63037109375, 154.88330078125 49.56640625, 154.80234375000003 49.46826171875, 154.82988281250005 49.347900390625, 154.81044921875002 49.31201171875, 154.71484375 49.26767578125, 154.61093750000003 49.29404296875, 154.61298828125 49.380615234375)), ((154.00068359375 48.755712890625, 153.99228515625003 48.772509765624996, 154.09169921875002 48.83212890625, 154.12636718750002 48.904443359374994, 154.19902343750005 48.904931640624994, 154.22841796875002 48.89208984375, 154.20468750000003 48.857177734375, 154.08125 48.790283203125, 154.04296875 48.73876953125, 154.00068359375 48.755712890625)), ((153.10107421875 47.762939453125, 153.05380859375003 47.706103515624996, 153.0041015625 47.7134765625, 152.98427734375002 47.727929687499994, 153.04912109375005 47.797021484374994, 153.07919921875003 47.808740234374994, 153.10107421875 47.762939453125)), ((151.7541015625 46.788330078125, 151.72343750000005 46.82880859375, 151.71533203125 46.852685546874994, 151.86435546875003 46.868994140625, 152.16582031250005 47.11044921875, 152.23466796875005 47.143408203125, 152.28886718750005 47.1421875, 152.00205078125003 46.89716796875, 151.815625 46.787109375, 151.7541015625 46.788330078125)), ((150.47021484375 59.054052734375, 150.59248046875 59.097216796875, 150.6662109375 59.16015625, 150.71269531250005 59.122460937499994, 150.727734375 59.09521484375, 150.58994140625003 59.01875, 150.51113281250002 59.007421875, 150.47177734375003 59.034765625, 150.47021484375 59.054052734375)), ((150.056640625 45.849365234375, 149.9541015625 45.8224609375, 149.88339843750003 45.783154296875, 149.6876953125 45.642041015625, 149.53886718750005 45.591357421874996, 149.44707031250005 45.593359375, 149.66591796875002 45.839794921875, 149.79628906250002 45.87607421875, 149.96230468750002 46.021923828125, 150.3087890625 46.200341796874994, 150.3486328125 46.213427734374996, 150.55312500000002 46.208544921874996, 150.2345703125 46.0123046875, 150.19501953125 45.933203125, 150.056640625 45.849365234375)), ((147.20742187500002 44.553564453125, 147.09843750000005 44.53125, 146.8974609375 44.404296875, 146.93349609375002 44.513085937499994, 146.97421875000003 44.565722656249996, 147.14091796875005 44.663330078125, 147.15478515625 44.7662109375, 147.24658203125 44.8560546875, 147.43046875000005 44.945214843749994, 147.5578125 45.062451171875, 147.65791015625 45.093017578125, 147.76943359375002 45.190722656249996, 147.88554687500005 45.225634765624996, 147.87265625000003 45.30029296875, 147.9240234375 45.38330078125, 147.96455078125 45.377734374999996, 148.05605468750002 45.262109374999994, 148.130078125 45.258203124999994, 148.32421875 45.282421875, 148.6123046875 45.484667968749996, 148.70664062500003 45.520654296874994, 148.77265625 45.52646484375, 148.81220703125 45.510009765625, 148.826171875 45.486083984375, 148.825390625 45.455908203125, 148.80302734375005 45.413525390625, 148.837109375 45.362695312499994, 148.79072265625 45.323974609375, 148.59951171875002 45.317626953125, 148.41464843750003 45.24716796875, 148.26230468750003 45.216845703124996, 148.00527343750002 45.070166015625, 147.91376953125 44.990380859374994, 147.78408203125002 44.95859375, 147.65781250000003 44.9771484375, 147.62187500000005 44.944726562499994, 147.6095703125 44.886572265625, 147.56308593750003 44.835546875, 147.31015625000003 44.677636718749994, 147.20742187500002 44.553564453125)), ((146.6134765625 43.797021484374994, 146.62197265625002 43.81298828125, 146.82460937500002 43.860498046874994, 146.88408203125005 43.829150390624996, 146.89902343750003 43.804150390625, 146.71396484375003 43.743798828124994, 146.68300781250002 43.716357421874996, 146.60859375 43.740478515625, 146.6134765625 43.797021484374994)), ((145.58681640625002 43.845117187499994, 145.555859375 43.664599609374996, 145.43925781250005 43.737060546875, 145.42617187500002 43.810351562499996, 145.46171875000005 43.870898437499996, 145.66630859375005 43.999072265624996, 145.74833984375005 44.071533203125, 145.77333984375002 44.12900390625, 145.85195312500002 44.193017578124994, 145.89023437500003 44.248583984374996, 145.9404296875 44.27265625, 146.11210937500005 44.500146484374994, 146.20761718750003 44.49765625, 146.35595703125 44.424609374999996, 146.56777343750002 44.4404296875, 146.51621093750003 44.374658203124994, 146.4365234375 44.37568359375, 146.29619140625005 44.28095703125, 146.17294921875003 44.26865234375, 146.1123046875 44.245947265625, 145.9140625 44.1037109375, 145.88730468750003 44.047753906249994, 145.76699218750002 43.940722656249996, 145.58681640625002 43.845117187499994)), ((146.27382812500002 43.629833984375, 146.31015625000003 43.65185546875, 146.3498046875 43.644140625, 146.35878906250002 43.625390624999994, 146.33232421875005 43.619921874999996, 146.27382812500002 43.629833984375)), ((146.08857421875 43.449023437499996, 146.10078125 43.440185546875, 146.03232421875003 43.407128906249994, 146.02802734375 43.420361328125, 146.08857421875 43.449023437499996)), ((145.88154296875 43.443798828125, 145.869140625 43.457861328125, 145.88154296875 43.459521484374996, 145.93115234375 43.45703125, 145.9435546875 43.42646484375, 145.89394531250002 43.419824218749994, 145.88154296875 43.443798828125)), ((145.36962890625 44.281298828124996, 145.35195312500002 44.229785156249996, 145.24521484375003 44.076171875, 145.12636718750002 43.869384765625, 145.10107421875 43.764550781249994, 145.1396484375 43.662499999999994, 145.2140625 43.57822265625, 145.27294921875 43.462890625, 145.3408203125 43.302539062499996, 145.43613281250003 43.2822265625, 145.48789062500003 43.279736328125, 145.58330078125005 43.327783203124994, 145.67363281250005 43.3888671875, 145.75126953125005 43.396289062499996, 145.8330078125 43.3859375, 145.7255859375 43.34345703125, 145.62421875 43.291308593749996, 145.53740234375005 43.192675781249996, 145.505078125 43.174218749999994, 145.34746093750005 43.176708984375, 145.23007812500003 43.135498046875, 145.1271484375 43.0888671875, 145.02880859375 43.031640624999994, 144.92138671875 43.000927734375, 144.80712890625 42.993701171874996, 144.63076171875002 42.946923828124994, 144.51621093750003 42.943603515625, 144.30156250000005 42.984423828124996, 144.197265625 42.9736328125, 143.96933593750003 42.881396484374996, 143.76210937500002 42.74814453125, 143.58095703125002 42.59873046875, 143.42949218750005 42.418896484375, 143.36865234375 42.325146484375, 143.33212890625003 42.220361328124994, 143.313671875 42.084326171875, 143.27871093750002 42.037841796875, 143.2365234375 42.0001953125, 143.11171875000002 42.022216796875, 142.90634765625003 42.118359375, 142.50820312500002 42.257958984374994, 142.087890625 42.471728515624996, 141.85136718750005 42.579052734375, 141.40664062500002 42.546923828124996, 140.98613281250005 42.342138671875, 140.9484375 42.3595703125, 140.78759765625 42.5, 140.70976562500005 42.555615234375, 140.61679687500003 42.571337890624996, 140.54765625000005 42.56953125, 140.48046875 42.559374999999996, 140.38544921875 42.487158203125, 140.3505859375 42.435107421874996, 140.32353515625005 42.37607421875, 140.31523437500005 42.334277343749996, 140.32666015625 42.293359374999994, 140.41660156250003 42.200732421874996, 140.5275390625 42.131787109375, 140.57773437500003 42.11865234375, 140.68427734375 42.123486328125, 140.73378906250002 42.116357421874994, 140.9123046875 41.977783203125, 141.10771484375005 41.848046874999994, 141.15097656250003 41.805078124999994, 141.07871093750003 41.759814453124996, 140.99951171875 41.73740234375, 140.90751953125005 41.74326171875, 140.81640625 41.760400390624994, 140.65986328125 41.815576171874994, 140.59296875 41.7685546875, 140.48916015625002 41.672167968749996, 140.431640625 41.5673828125, 140.3849609375 41.519287109375, 140.27011718750003 41.456005859375, 140.1486328125 41.423242187499994, 140.08515625 41.43408203125, 140.03662109375 41.473779296874994, 140.00917968750002 41.521337890625, 139.9953125 41.576416015625, 140.02128906250005 41.695751953125, 140.0841796875 41.80322265625, 140.1083984375 41.912939453125, 140.0568359375 42.067333984375, 140.02412109375 42.099560546875, 139.89511718750003 42.1900390625, 139.83544921875 42.278076171875, 139.82089843750003 42.387597656249994, 139.82851562500002 42.448144531249994, 139.86015625000005 42.58173828125, 139.89111328125 42.649218749999996, 140.01503906250002 42.684765625, 140.11464843750002 42.732958984374996, 140.22412109375 42.7955078125, 140.32861328125 42.866845703124994, 140.43222656250003 42.9541015625, 140.48642578125003 43.04990234375, 140.3974609375 43.167333984375, 140.37929687500002 43.237109374999996, 140.39238281250005 43.303124999999994, 140.48691406250003 43.338183593749996, 140.58457031250003 43.31171875, 140.78066406250002 43.214990234374994, 140.81914062500005 43.205468749999994, 140.95380859375 43.200976562499996, 141.13818359375 43.179931640625, 141.24501953125002 43.18505859375, 141.29628906250002 43.199658203125, 141.37412109375003 43.279638671875, 141.4123046875 43.381494140624994, 141.39833984375002 43.512499999999996, 141.39765625 43.642626953124996, 141.44677734375 43.7486328125, 141.60068359375003 43.918994140624996, 141.6447265625 44.019433593749994, 141.66083984375 44.263623046875, 141.71630859375 44.37119140625, 141.7609375 44.48251953125, 141.7822265625 44.716357421874996, 141.71904296875005 44.941064453124994, 141.65576171875 45.051220703125, 141.5830078125 45.15595703125, 141.59375 45.25595703125, 141.6525390625 45.3486328125, 141.65400390625 45.3765625, 141.66796875 45.401269531249994, 141.77812500000005 45.418896484375, 141.82949218750002 45.438769531249996, 141.87871093750005 45.483300781249994, 141.9376953125 45.509521484375, 141.98085937500002 45.48349609375, 142.01640625000005 45.437939453125, 142.17158203125 45.325634765625, 142.416015625 45.125, 142.7041015625 44.819189453125, 142.884765625 44.6701171875, 143.07509765625002 44.534912109375, 143.28857421875 44.396630859374994, 143.5119140625 44.2775390625, 143.65458984375005 44.221337890624994, 143.75908203125005 44.131640624999996, 143.82431640625003 44.116992187499996, 144.00546875000003 44.116650390625, 144.10136718750005 44.1015625, 144.48183593750002 43.949560546875, 144.5966796875 43.930224609374996, 144.71523437500002 43.927978515625, 144.79853515625 43.940234374999996, 144.87187500000005 43.98193359375, 145.1015625 44.166162109374994, 145.3427734375 44.333886718749994, 145.36953125000002 44.327392578125, 145.36962890625 44.281298828124996)), ((143.28789062500005 53.134375, 143.32470703125 52.9630859375, 143.33261718750003 52.700048828125, 143.32363281250002 52.613574218749996, 143.2951171875 52.529150390625, 143.26425781250003 52.478662109375, 143.20097656250005 52.442919921874996, 143.17226562500002 52.349365234375, 143.15556640625005 52.083740234375, 143.190625 51.944482421875, 143.25058593750003 51.847900390625, 143.29472656250005 51.7443359375, 143.29951171875 51.632373046874996, 143.3205078125 51.583251953125, 143.41777343750005 51.52060546875, 143.45546875000002 51.471484374999996, 143.47294921875005 51.299218749999994, 143.48876953125 51.27705078125, 143.5341796875 51.2462890625, 143.73603515625 50.506738281249994, 143.81601562500003 50.282617187499994, 144.04794921875003 49.895751953125, 144.14130859375 49.661474609375, 144.19960937500002 49.549755859375, 144.27207031250003 49.311328124999996, 144.34121093750002 49.180517578125, 144.43173828125003 49.051074218749996, 144.60683593750002 48.935839843749996, 144.685546875 48.871240234374994, 144.70664062500003 48.81953125, 144.71376953125002 48.640283203124994, 144.67265625000005 48.678564453125, 144.62099609375002 48.814843749999994, 144.536328125 48.8935546875, 144.28378906250003 49.069775390625, 144.12548828125 49.208544921874996, 144.04873046875002 49.249169921874994, 143.9677734375 49.276318359375, 143.81914062500005 49.30859375, 143.73232421875002 49.31201171875, 143.38222656250002 49.290673828124994, 143.236328125 49.262841796874994, 143.10498046875 49.198828125, 143.02685546875 49.105419921875, 142.9716796875 48.917773437499996, 142.57421875 48.072167968749994, 142.5458984375 47.884912109374994, 142.55693359375005 47.737890625, 142.57900390625002 47.683984374999994, 142.6701171875 47.536914062499996, 142.74541015625005 47.452392578125, 142.80078125 47.416162109374994, 142.86396484375 47.391796875, 142.90546875 47.361865234374996, 142.94033203125002 47.32275390625, 143.00556640625 47.222705078124996, 143.08925781250002 47.000781249999996, 143.1779296875 46.844042968749996, 143.21767578125002 46.794873046875, 143.31865234375005 46.807373046875, 143.38437500000003 46.8056640625, 143.447265625 46.7919921875, 143.48564453125005 46.75205078125, 143.54033203125005 46.575097656249994, 143.57871093750003 46.406054687499996, 143.58066406250003 46.360693359375, 143.50859375000005 46.23017578125, 143.49062500000002 46.174609374999996, 143.48232421875002 46.1158203125, 143.46347656250003 46.069482421874994, 143.431640625 46.028662109375, 143.41865234375 46.222021484375, 143.3703125 46.35849609375, 143.35214843750003 46.476220703124994, 143.28232421875003 46.558984374999994, 143.0478515625 46.592626953125, 142.829296875 46.605273437499996, 142.79550781250003 46.62021484375, 142.74736328125005 46.670654296875, 142.69189453125 46.710839843749994, 142.6357421875 46.716210937499994, 142.57802734375002 46.70078125, 142.47880859375005 46.64423828125, 142.4064453125 46.5546875, 142.35000000000002 46.45869140625, 142.30400390625005 46.357568359374994, 142.20859375000003 46.0888671875, 142.14970703125005 45.999267578125, 142.0771484375 45.917041015624996, 142.015625 45.96162109375, 141.96162109375 46.013476562499996, 141.92998046875005 46.088281249999994, 141.91630859375005 46.170751953125, 141.83037109375005 46.451074218749994, 141.86650390625005 46.694189453125, 142.01103515625005 47.030322265624996, 142.03867187500003 47.140283203124994, 142.01689453125005 47.244677734374996, 141.98417968750005 47.347705078124996, 141.96250000000003 47.543798828125, 141.9640625 47.587451171874996, 142.015625 47.700634765625, 142.07597656250005 47.808349609375, 142.14921875000005 47.902148437499996, 142.18173828125003 48.01337890625, 142.13535156250003 48.290087890624996, 142.02871093750002 48.477099609374996, 141.89726562500005 48.654687499999994, 141.873046875 48.701953124999996, 141.86630859375003 48.75009765625, 141.97958984375003 48.97216796875, 142.02011718750003 49.078466796875, 142.06650390625003 49.312060546874996, 142.14228515625 49.569140624999996, 142.15312500000005 50.216748046875, 142.14306640625 50.312109375, 142.07109375000005 50.514990234375, 142.06601562500003 50.63046875, 142.10048828125002 50.77646484375, 142.14726562500005 50.890185546874996, 142.20791015625002 50.998486328125, 142.20673828125 51.222558593749994, 142.09072265625002 51.42939453125, 142.00595703125003 51.5205078125, 141.87294921875002 51.630029296875, 141.77187500000002 51.690185546875, 141.72236328125 51.736328125, 141.77187500000002 51.751806640625, 141.80810546875 51.789208984375, 141.72099609375005 51.84677734375, 141.66845703125 51.933349609375, 141.66083984375 52.27294921875, 141.68242187500005 52.359130859375, 141.74755859375 52.454833984375, 141.80332031250003 52.555615234375, 141.85556640625003 52.793505859374996, 141.87363281250003 53.038916015625, 141.8388671875 53.138476562499996, 141.82353515625005 53.339501953125, 141.85244140625002 53.389453124999996, 141.96445312500003 53.456396484375, 142.14199218750002 53.49560546875, 142.1798828125 53.484033203125, 142.31894531250003 53.40546875, 142.37050781250002 53.4025390625, 142.4240234375 53.4107421875, 142.52617187500005 53.4474609375, 142.58349609375 53.536767578125, 142.50917968750002 53.58759765625, 142.55253906250005 53.652636718749996, 142.67958984375002 53.674365234374996, 142.68886718750002 53.73017578125, 142.64287109375005 53.736767578125, 142.68300781250002 53.816015625, 142.70595703125002 53.895703125, 142.67021484375005 53.968408203125, 142.46660156250005 54.14853515625, 142.3349609375 54.280712890625, 142.55166015625002 54.278955078125, 142.61562500000002 54.30361328125, 142.6662109375 54.358203124999996, 142.69277343750002 54.41611328125, 142.76103515625005 54.3939453125, 142.97617187500003 54.140966796875, 142.98593750000003 54.085693359375, 142.96708984375005 54.02880859375, 142.92656250000005 53.955615234374996, 142.91142578125005 53.878369140625, 142.93642578125002 53.8109375, 142.91796875 53.794238281249996, 143.09550781250005 53.488671875, 143.2236328125 53.296044921875, 143.28789062500005 53.134375)), ((141.93505859375 39.95849609375, 141.99082031250003 39.792236328125, 141.99189453125 39.739892578124994, 141.97910156250003 39.668359374999994, 141.9931640625 39.610546875, 141.97695312500002 39.42880859375, 141.90947265625005 39.218701171875, 141.90078125000002 39.111328125, 141.84208984375005 39.0900390625, 141.80654296875002 39.040429687499994, 141.77617187500005 39.017431640625, 141.74248046875005 38.999609375, 141.6935546875 38.995166015624996, 141.65859375000002 38.974853515625, 141.622265625 38.865136718749994, 141.57968750000003 38.81650390625, 141.54628906250002 38.762841796874994, 141.51875 38.63203125, 141.5087890625 38.497851562499996, 141.46748046875 38.404150390625, 141.3681640625 38.379736328125, 141.25429687500002 38.381396484374996, 141.1083984375 38.337939453124996, 141.07734375 38.312548828124996, 140.962109375 38.148876953125, 140.92900390625005 38.052880859374994, 140.9279296875 37.949609374999994, 140.9599609375 37.822607421875, 141.00341796875 37.6984375, 141.036328125 37.467236328125, 141.00166015625 37.114648437499994, 140.96835937500003 37.00205078125, 140.89511718750003 36.925732421875, 140.83964843750005 36.89033203125, 140.79179687500005 36.846875, 140.72988281250002 36.731884765625, 140.62734375000002 36.502783203125, 140.61923828125003 36.385595703125, 140.57353515625005 36.231347656249994, 140.59042968750003 36.142431640625, 140.62197265625002 36.059228515624994, 140.75957031250005 35.845703125, 140.8740234375 35.724951171875, 140.63925781250003 35.661279296874994, 140.596875 35.63203125, 140.45742187500002 35.51025390625, 140.41289062500005 35.394775390625, 140.41650390625 35.266992187499994, 140.39296875000002 35.221142578125, 140.3546875 35.181445312499996, 140.31474609375005 35.155029296875, 140.15888671875 35.096484374999996, 140.05917968750003 35.03828125, 139.95976562500005 34.947314453124996, 139.92041015625 34.899609375, 139.8439453125 34.914892578125, 139.79921875000002 34.956933593749994, 139.84326171875 35.00986328125, 139.82968750000003 35.072167968749994, 139.85146484375002 35.232324218749994, 139.82646484375005 35.296679687499996, 139.90615234375002 35.345263671874996, 139.94414062500005 35.422998046874994, 140.08632812500002 35.540429687499994, 140.096875 35.58515625, 140.04365234375 35.633349609374996, 139.9875 35.668212890625, 139.90976562500003 35.668359374999994, 139.83476562500005 35.658056640625, 139.786328125 35.612109374999996, 139.77011718750003 35.549560546875, 139.77392578125 35.520361328125, 139.7677734375 35.49482421875, 139.65000000000003 35.409130859375, 139.66552734375 35.319482421874994, 139.70000000000005 35.273974609374996, 139.74404296875002 35.252392578125, 139.73085937500002 35.221533203125, 139.675 35.149267578125, 139.6359375 35.142138671874996, 139.56406250000003 35.24326171875, 139.47441406250005 35.29853515625, 139.3634765625 35.298095703125, 139.24941406250002 35.27802734375, 139.16269531250003 35.210742187499996, 139.13408203125005 35.1548828125, 139.11582031250003 35.097119140625, 139.12197265625002 34.956494140625, 139.08603515625003 34.839160156249996, 138.9826171875 34.698388671874994, 138.8966796875 34.62841796875, 138.83750000000003 34.61923828125, 138.7951171875 34.651025390624994, 138.76103515625005 34.69921875, 138.80449218750005 34.875732421875, 138.802734375 34.9748046875, 138.90361328125005 35.025244140625, 138.82089843750003 35.095703125, 138.71962890625002 35.124072265624996, 138.5771484375 35.086474609374996, 138.53701171875002 35.044140625, 138.50957031250005 34.987158203125, 138.3486328125 34.847705078124996, 138.25322265625005 34.732666015625, 138.18906250000003 34.596337890624994, 137.97900390625 34.640917968749996, 137.8642578125 34.65087890625, 137.74853515625 34.647412109375, 137.54335937500002 34.664208984374994, 137.31806640625 34.636376953124994, 137.06171875 34.582812499999996, 137.07705078125002 34.621435546875, 137.28779296875 34.703515624999994, 137.29541015625 34.727587890624996, 137.27519531250005 34.772509765624996, 137.22265625 34.774707031249996, 137.09658203125002 34.759033203125, 137.0322265625 34.765917968749996, 137.00595703125003 34.814111328124994, 136.96328125000002 34.834912109375, 136.934765625 34.815185546875, 136.94414062500005 34.721533203125, 136.91289062500005 34.709033203124996, 136.8712890625 34.73310546875, 136.88457031250005 34.805859375, 136.85615234375 34.912499999999994, 136.85292968750002 34.9787109375, 136.89707031250003 35.035546874999994, 136.85185546875005 35.059521484375, 136.80419921875 35.05029296875, 136.74355468750002 35.022998046874996, 136.69003906250003 34.984130859375, 136.57695312500005 34.78955078125, 136.53300781250005 34.678369140624994, 136.61582031250003 34.5890625, 136.84160156250005 34.464208984375, 136.88027343750002 34.43359375, 136.88115234375005 34.38046875, 136.8537109375 34.324072265625, 136.7921875 34.299267578125, 136.54443359375 34.257714843749994, 136.32988281250005 34.17685546875, 136.26787109375005 34.094873046874994, 136.07255859375005 33.778222656249994, 135.9162109375 33.56171875, 135.6953125 33.486962890624994, 135.45283203125 33.553369140624994, 135.39423828125 33.628759765625, 135.34677734375003 33.721972656249996, 135.25664062500005 33.80625, 135.17539062500003 33.898046875, 135.1279296875 34.006982421874994, 135.13535156250003 34.1826171875, 135.10009765625 34.288378906249996, 135.13193359375003 34.316552734374994, 135.265625 34.380810546875, 135.30927734375 34.416796874999996, 135.384765625 34.500439453125, 135.41181640625 34.54697265625, 135.41591796875002 34.617480468749996, 135.35517578125 34.654296875, 135.1982421875 34.6529296875, 135.04169921875 34.631005859374994, 134.9298828125 34.66181640625, 134.78496093750005 34.7470703125, 134.74003906250005 34.765234375, 134.58378906250005 34.77060546875, 134.47226562500003 34.754785156249994, 134.36269531250002 34.723681640624996, 134.24687500000005 34.7138671875, 134.20830078125005 34.697656249999994, 134.07451171875005 34.593115234375, 133.96826171875 34.527294921875, 133.87636718750002 34.49462890625, 133.6779296875 34.485888671874996, 133.57861328125 34.464697265625, 133.47441406250005 34.430126953125, 133.4453125 34.433154296874996, 133.33564453125 34.3853515625, 133.20976562500005 34.343994140625, 133.14238281250005 34.30244140625, 133.01894531250002 34.32958984375, 132.774609375 34.255224609375, 132.65654296875005 34.24609375, 132.53447265625005 34.287060546875, 132.42128906250002 34.353369140625, 132.31259765625003 34.324951171875, 132.23808593750005 34.227001953125, 132.20195312500005 34.032031249999996, 132.159375 33.944238281249994, 132.146484375 33.838769531249994, 132.09023437500002 33.85546875, 131.76318359375 34.045263671875, 131.74052734375005 34.052050781249996, 131.47617187500003 34.019384765625, 131.40791015625 34.00361328125, 131.32275390625 33.965185546875, 131.2326171875 33.947998046875, 131.150390625 33.975634765624996, 131.07187500000003 34.020654296874994, 130.99638671875005 34.007275390625, 130.91884765625002 33.975732421874994, 130.88925781250003 34.26181640625, 130.904296875 34.299560546875, 131.00419921875005 34.392578125, 131.13222656250002 34.407373046874994, 131.26181640625003 34.393457031249994, 131.35439453125002 34.41318359375, 131.43251953125002 34.46982421875, 131.51503906250002 34.550146484375, 131.60800781250003 34.615478515625, 131.85605468750003 34.726318359375, 132.06474609375005 34.9, 132.158203125 34.96650390625, 132.25957031250005 35.022314453125, 132.4140625 35.156298828124996, 132.61904296875002 35.3068359375, 132.69765625000002 35.418310546875, 132.74658203125 35.449023437499996, 132.92294921875003 35.511279296874996, 133.15693359375 35.558837890625, 133.26718750000003 35.556542968749994, 133.37646484375 35.458837890625, 133.43535156250005 35.472216796874996, 133.49492187500005 35.497460937499994, 133.6154296875 35.51142578125, 133.73935546875003 35.495263671874994, 133.86025390625002 35.494873046875, 133.98125000000005 35.507226562499994, 134.2140625 35.5392578125, 134.33652343750003 35.577929687499996, 134.4560546875 35.6279296875, 134.88222656250002 35.663232421874994, 135.17431640625 35.7470703125, 135.22050781250005 35.741113281249994, 135.26542968750005 35.72177734375, 135.26875 35.65966796875, 135.23203125000003 35.59189453125, 135.2677734375 35.55087890625, 135.32695312500005 35.525537109374994, 135.60185546875005 35.517724609374994, 135.68027343750003 35.503125, 135.79501953125003 35.54951171875, 135.90312500000005 35.606884765625, 136.01621093750003 35.682519531249994, 136.09531250000003 35.767626953124996, 136.02226562500005 35.87412109375, 136.00625000000002 35.990576171875, 136.06748046875003 36.116845703124994, 136.15625 36.22333984375, 136.26181640625003 36.2876953125, 136.35898437500003 36.361767578125, 136.555859375 36.57197265625, 136.69814453125002 36.742041015625, 136.74931640625005 36.951025390625, 136.71923828125 37.198388671874994, 136.84345703125 37.382128906249996, 136.96230468750002 37.413671875, 137.19863281250002 37.497460937499994, 137.32265625000002 37.5220703125, 137.34121093750002 37.48544921875, 137.33750000000003 37.437451171875, 137.15205078125 37.283154296875, 137.04580078125002 37.2197265625, 136.9240234375 37.17197265625, 136.89990234375 37.11767578125, 136.99443359375005 37.026757812499994, 137.0185546875 36.959619140624994, 137.01669921875003 36.837207031249996, 137.12373046875 36.774072265624994, 137.2462890625 36.753173828125, 137.29765625000005 36.753759765625, 137.34257812500005 36.770361328125, 137.51406250000002 36.951562499999994, 137.91318359375003 37.064599609374994, 138.1095703125 37.15107421875, 138.21806640625005 37.173388671874996, 138.31992187500003 37.218408203124994, 138.54833984375 37.392138671874996, 138.6328125 37.47216796875, 138.70937500000002 37.56064453125, 138.77060546875003 37.663427734375, 138.81884765625 37.774707031249996, 138.88505859375005 37.8439453125, 139.24716796875003 38.009082031249996, 139.36386718750003 38.099023437499994, 139.40097656250003 38.142578125, 139.44580078125 38.26875, 139.4767578125 38.399804687499994, 139.52080078125005 38.5025390625, 139.58017578125003 38.598876953125, 139.65976562500003 38.697021484375, 139.74912109375003 38.788134765624996, 139.801953125 38.881591796875, 139.87861328125 39.104931640625, 139.9123046875 39.228564453124996, 139.93857421875003 39.27314453125, 139.97714843750003 39.31064453125, 140.01083984375003 39.358056640624994, 140.03652343750002 39.4111328125, 140.06474609375005 39.624414062499994, 140.0546875 39.749267578125, 139.99472656250003 39.855078125, 139.94521484375002 39.885107421875, 139.81035156250005 39.877734374999996, 139.74150390625005 39.920849609375, 139.75546875000003 39.958935546875, 139.82568359375 39.966015625, 139.87363281250003 39.985693359375, 139.90800781250005 40.021728515625, 139.97246093750005 40.136962890625, 140.01113281250002 40.2603515625, 140.01445312500005 40.314892578125, 139.9640625 40.414306640625, 139.92392578125003 40.53388671875, 139.9228515625 40.598437499999996, 139.96669921875002 40.672753906249994, 140.029296875 40.733154296875, 140.08535156250002 40.747363281249996, 140.14609375000003 40.7515625, 140.20126953125003 40.77490234375, 140.25234375000002 40.8087890625, 140.28125 40.846093749999994, 140.34355468750005 41.005664062499996, 140.31523437500005 41.160888671875, 140.34443359375 41.2033203125, 140.3859375 41.229785156249996, 140.44130859375002 41.20966796875, 140.56416015625 41.211816406249994, 140.62763671875 41.19541015625, 140.6396484375 41.155615234375, 140.67939453125 40.89326171875, 140.70244140625005 40.857812499999994, 140.74863281250003 40.830322265625, 140.80078125 40.834326171875, 140.84580078125003 40.875146484374994, 140.876171875 40.929541015625, 140.93603515625 40.940771484375, 141.11855468750002 40.882275390625, 141.18320312500003 40.9240234375, 141.22539062500005 40.9884765625, 141.26210937500002 41.102685546874994, 141.24423828125003 41.205615234374996, 141.200390625 41.243603515625, 141.15507812500005 41.236718749999994, 141.11503906250005 41.20849609375, 141.07041015625003 41.19306640625, 140.80058593750005 41.138818359374994, 140.80185546875003 41.253662109375, 140.8595703125 41.425439453124994, 140.89150390625002 41.479785156249996, 140.93691406250002 41.50556640625, 141.05019531250002 41.475732421874994, 141.10585937500002 41.455859374999996, 141.26875 41.353808593749996, 141.45546875000002 41.404736328125, 141.419921875 41.251171875, 141.40000000000003 41.096337890624994, 141.41367187500003 40.83935546875, 141.43046875000005 40.72333984375, 141.46279296875002 40.611132812499996, 141.54228515625005 40.530712890625, 141.64628906250005 40.4736328125, 141.7970703125 40.291162109374994, 141.8779296875 40.067236328125, 141.93505859375 39.95849609375)), ((141.19375000000002 45.247851562499996, 141.25185546875002 45.232470703124996, 141.31005859375 45.178564453125, 141.32919921875003 45.15048828125, 141.29541015625 45.1193359375, 141.22597656250002 45.112207031249994, 141.14531250000005 45.15390625, 141.13535156250003 45.206201171874994, 141.19375000000002 45.247851562499996)), ((141.05673828125003 45.449560546875, 141.06992187500003 45.4, 141.07275390625 45.332861328125, 141.03398437500005 45.269335937499996, 140.98212890625 45.36376953125, 140.9716796875 45.465478515624994, 141.05673828125003 45.449560546875)), ((139.80888671875005 33.129248046875, 139.87363281250003 33.093505859375, 139.82382812500003 33.045458984374996, 139.77568359375005 33.07822265625, 139.76894531250002 33.107177734375, 139.77744140625003 33.125146484374994, 139.80888671875005 33.129248046875)), ((139.43134765625 42.199560546875, 139.49580078125 42.227441406249994, 139.55839843750005 42.235205078125, 139.505078125 42.09638671875, 139.48125000000005 42.081005859375, 139.45839843750002 42.075634765625, 139.4345703125 42.08408203125, 139.41152343750002 42.15966796875, 139.43134765625 42.199560546875)), ((139.42617187500002 34.77587890625, 139.45644531250002 34.726513671875, 139.44570312500002 34.679541015625, 139.39238281250005 34.689892578125, 139.36689453125 34.720507812499996, 139.37001953125002 34.775439453124996, 139.42617187500002 34.77587890625)), ((138.50361328125 38.31591796875, 138.51005859375005 38.258984375, 138.46279296875002 38.124316406249996, 138.45361328125 38.07568359375, 138.5751953125 38.06552734375, 138.49697265625002 37.90390625, 138.34404296875005 37.822119140625, 138.2490234375 37.819580078125, 138.22519531250003 37.829394531249996, 138.28281250000003 37.85419921875, 138.28789062500005 37.895800781249996, 138.322265625 37.969531249999996, 138.32167968750002 37.9908203125, 138.24619140625003 37.994580078125, 138.25 38.078466796875, 138.30634765625 38.1611328125, 138.46132812500002 38.291455078125, 138.50361328125 38.31591796875)), ((137.5255859375 54.825830078125, 137.46269531250005 54.873388671875, 137.27607421875 54.7923828125, 137.23291015625 54.790576171874996, 137.27519531250005 54.891015625, 137.38437500000003 55.00068359375, 137.435546875 55.016015625, 137.54365234375 55.1630859375, 137.57734375 55.197021484375, 137.91044921875005 55.11005859375, 138.03125 55.0533203125, 138.1720703125 55.06005859375, 138.20615234375003 55.033544921875, 138.09648437500005 54.99091796875, 138.0166015625 54.90087890625, 137.9912109375 54.820703125, 137.95947265625 54.789013671875, 137.8701171875 54.749560546874996, 137.790234375 54.696923828125, 137.72148437500005 54.663232421875, 137.6611328125 54.653271484375, 137.5255859375 54.825830078125)), ((136.96943359375 54.923974609375, 136.90273437500002 54.96064453125, 136.76513671875 54.946044921875, 136.71464843750005 54.95615234375, 136.79531250000002 55.009375, 136.99570312500003 55.092724609375, 137.07753906250002 55.091748046875, 137.15605468750005 55.1078125, 137.17861328125002 55.100439453125, 137.05527343750003 54.9267578125, 136.96943359375 54.923974609375)), ((134.9328125 34.288134765624996, 134.8244140625 34.202929687499996, 134.7306640625 34.208886718749994, 134.68349609375002 34.246972656249994, 134.66787109375002 34.294140625, 134.75722656250002 34.3681640625, 134.83427734375005 34.47265625, 134.90410156250005 34.519091796874996, 134.96074218750005 34.544921875, 135.00468750000005 34.54404296875, 134.90546875 34.398291015625, 134.9328125 34.288134765624996)), ((134.24267578125 33.439453125, 134.20566406250003 33.346972656249996, 134.181640625 33.247216796874994, 134.12412109375003 33.286767578124994, 133.95869140625 33.44833984375, 133.85400390625 33.49267578125, 133.68564453125003 33.51630859375, 133.63203125 33.510986328125, 133.28593750000005 33.3599609375, 133.21168305756905 33.19974772352308, 132.55651147269796 33.2807754924396, 132.44541015625003 33.304589843749994, 132.40517578125002 33.33125, 132.41279296875 33.430468749999996, 132.37490234375002 33.43408203125, 132.28105468750005 33.416796874999996, 132.0974334286149 33.34468947718867, 132.0496373330808 33.35134376824093, 132.114453125 33.394580078124996, 132.28789062500005 33.469531249999996, 132.36591796875 33.512451171875, 132.53603515625002 33.63291015625, 132.64306640625 33.68994140625, 132.69892578125 33.790917968749994, 132.71621093750002 33.85224609375, 132.75234375000002 33.906152343749994, 132.78427734375003 33.992431640625, 132.83945312500003 34.021240234375, 132.93515625000003 34.0953125, 132.99013671875002 34.088134765625, 133.05126953125 33.997119140624996, 133.13369140625002 33.927294921874996, 133.19306640625 33.933203125, 133.298828125 33.968994140625, 133.3498046875 33.97705078125, 133.47207031250002 33.972802734374994, 133.58203125 34.017138671874996, 133.62675781250005 34.069384765624996, 133.64345703125002 34.134667968749994, 133.60263671875003 34.24384765625, 133.65556640625005 34.232861328125, 133.70625 34.237353515624996, 133.82558593750002 34.3068359375, 133.94833984375003 34.348046874999994, 134.07587890625 34.3583984375, 134.21923828125 34.31904296875, 134.357421875 34.25634765625, 134.49570312500003 34.214746093749994, 134.63750000000005 34.226611328124996, 134.63525390625 34.0439453125, 134.65537109375003 33.9826171875, 134.6953125 33.927734375, 134.6748046875 33.847802734374994, 134.73886718750003 33.8205078125, 134.54873046875002 33.729296874999996, 134.37705078125003 33.6083984375, 134.24267578125 33.439453125)), ((134.31533203125002 34.4689453125, 134.25185546875002 34.423046875, 134.23808593750005 34.467041015625, 134.18828125000005 34.496337890625, 134.18212890625 34.51923828125, 134.32597656250005 34.534375, 134.372265625 34.522363281249994, 134.333203125 34.463769531249994, 134.31533203125002 34.4689453125)), ((133.29570312500005 36.340136718749996, 133.38125000000002 36.246386718749996, 133.37050781250002 36.203857421875, 133.32470703125 36.16650390625, 133.2392578125 36.178759765624996, 133.18994140625 36.2326171875, 133.20615234375003 36.293408203125, 133.29570312500005 36.340136718749996)), ((132.54345703125 34.172656249999996, 132.56015625000003 34.126904296875, 132.57841796875005 34.115185546875, 132.54941406250003 34.075097656249994, 132.4609375 34.087255859375, 132.4962890625 34.121972656249994, 132.52353515625003 34.1640625, 132.54345703125 34.172656249999996)), ((132.43046875000005 33.92353515625, 132.44492187500003 33.91318359375, 132.41103515625002 33.879931640624996, 132.35996093750003 33.847021484375, 132.26728515625 33.871484374999994, 132.20878906250005 33.872851562499996, 132.20058593750002 33.927783203124996, 132.2080078125 33.947802734374996, 132.26601562500002 33.945166015625, 132.31455078125003 33.908593749999994, 132.43046875000005 33.92353515625)), ((130.36503906250005 33.63447265625, 130.439453125 33.734228515625, 130.4572265625 33.788964843749994, 130.48378906250002 33.834619140624994, 130.66953125000003 33.915478515625, 130.71562500000005 33.927783203124996, 130.83964843750005 33.917773437499996, 130.953125 33.872021484375, 131.05810546875 33.6728515625, 131.17460937500005 33.602587890624996, 131.30917968750003 33.57275390625, 131.36601562500005 33.5708984375, 131.41875000000005 33.584423828125, 131.49882812500005 33.623583984374996, 131.5830078125 33.652392578124996, 131.64306640625 33.63779296875, 131.6962890625 33.602832031249996, 131.72421875000003 33.55380859375, 131.71064453125 33.502343749999994, 131.6308517535478 33.40964813606767, 130.2763649674228 33.598223148327556, 130.36503906250005 33.63447265625)), ((130.83837890625 37.53720703125, 130.90371093750002 37.5537109375, 130.93427734375 37.529736328125, 130.916015625 37.478466796875, 130.87060546875 37.44873046875, 130.81679687500002 37.478466796875, 130.81025390625 37.509912109374994, 130.83837890625 37.53720703125)), ((129.79570312500005 33.748828124999996, 129.7265625 33.707324218749996, 129.6748046875 33.739697265625, 129.70000000000005 33.828906249999996, 129.71728515625 33.8583984375, 129.7763671875 33.82919921875, 129.79570312500005 33.748828124999996)), ((129.47539062500005 34.540429687499994, 129.38144531250003 34.416455078125, 129.38564453125002 34.353662109374994, 129.36533203125003 34.305517578125, 129.29746093750003 34.339599609375, 129.26669921875003 34.370458984375, 129.32939453125005 34.521874999999994, 129.32587890625 34.607275390625, 129.45107421875002 34.686572265624996, 129.47246093750005 34.671337890625, 129.48017578125 34.649462890624996, 129.46914062500002 34.615527343749996, 129.47539062500005 34.540429687499994)), ((129.2794921875 34.123388671875, 129.21445312500003 34.082812499999996, 129.18642578125002 34.14501953125, 129.21484375 34.320654296875, 129.337109375 34.284765625, 129.33505859375003 34.230810546875, 129.2794921875 34.123388671875)), ((128.66796875 35.0087890625, 128.721875 35.013574218749994, 128.74101562500005 34.79853515625, 128.6466796875 34.736865234374996, 128.51953125 34.819580078125, 128.4892578125 34.865283203124996, 128.5859375 34.932275390624994, 128.66796875 35.0087890625)), ((128.06582031250002 34.805859375, 128.0546875 34.708056640624996, 127.98398437500003 34.70322265625, 127.94179687500002 34.766259765624994, 127.89687500000002 34.735498046874994, 127.87343750000002 34.7349609375, 127.83828125000002 34.813330078125, 127.83222656250001 34.87451171875, 127.91542968750002 34.92099609375, 127.96562500000005 34.893017578125, 128.03798828125002 34.87861328125, 128.06582031250002 34.805859375)), ((127.79902343750001 34.615039062499996, 127.78779296875001 34.58408203125, 127.7373046875 34.630908203124996, 127.787109375 34.68212890625, 127.79902343750001 34.615039062499996)), ((126.69999999999999 34.395898437499994, 126.75302734375003 34.343994140625, 126.76992187500002 34.296435546874996, 126.68906250000003 34.305419921875, 126.64609375000003 34.351123046874996, 126.65185546875 34.39033203125, 126.69999999999999 34.395898437499994)), ((126.4072265625 37.6494140625, 126.36933593750001 37.772021484374996, 126.41162109375 37.822656249999994, 126.49355468750002 37.782568359375, 126.52070312500001 37.73681640625, 126.51601562500002 37.6046875, 126.46083984375002 37.6103515625, 126.42333984375 37.6236328125, 126.4072265625 37.6494140625)), ((126.33750000000003 36.470556640625, 126.31855468750001 36.612548828125, 126.38662109375002 36.571142578125, 126.41757812500003 36.492578124999994, 126.40380859375 36.427880859374994, 126.33750000000003 36.470556640625)), ((126.16972656249999 34.35517578125, 126.1337890625 34.389599609375, 126.10859375000001 34.398730468749996, 126.12285156249999 34.4439453125, 126.22705078125 34.53271484375, 126.24746093750002 34.563330078125, 126.34384765625003 34.544921875, 126.3798828125 34.497949218749994, 126.33544921875 34.426416015624994, 126.23369140624999 34.370507812499994, 126.16972656249999 34.35517578125)), ((126.05205078124999 34.837548828124994, 126.00751953125001 34.867480468749996, 126.07841796874999 34.914843749999996, 126.16855468750003 34.8296875, 126.17197265625003 34.73115234375, 126.15878906250003 34.706982421875, 126.115234375 34.714208984375, 126.07060546874999 34.783056640625, 126.05205078124999 34.837548828124994)), ((124.84892578124999 39.507568359375, 124.84609375000002 39.558886718749996, 124.88955078125002 39.602099609374996, 124.9345703125 39.607812499999994, 124.9052734375 39.536279296874994, 124.84892578124999 39.507568359375)), ((124.75546875000003 37.96982421875, 124.75371093749999 37.95517578125, 124.69667968750002 37.920166015625, 124.65585937500003 37.924755859375, 124.62539062500002 37.945214843749994, 124.63593750000001 37.980615234374994, 124.6611328125 37.973437499999996, 124.71660156249999 37.98876953125, 124.75546875000003 37.96982421875)))