MULTIPOLYGON (((109.80527343750003 20.711474609375003, 109.76738281249999 20.780712890624997, 109.72626953125001 20.838769531249994, 109.68476562500001 20.87363281249999, 109.66259765625 20.916894531249994, 109.70449218750002 21.052734375, 109.68125000000003 21.131640625000003, 109.76015625000002 21.22836914062499, 109.77958984374999 21.337451171875003, 109.92109375000001 21.37646484375, 109.93076171875003 21.48056640624999, 109.82958984375 21.483593749999997, 109.75937500000003 21.56005859375, 109.74335937500001 21.527978515624994, 109.68691406250002 21.524609374999997, 109.59433593750003 21.67197265624999, 109.56640625 21.690576171874994, 109.521484375 21.693408203125003, 109.54404296875003 21.53793945312499, 109.435546875 21.4794921875, 109.3466796875 21.45395507812499, 109.22041015625001 21.443408203125003, 109.14863281250001 21.425537109375, 109.08154296875 21.44028320312499, 109.09814453125 21.487353515625003, 109.13349609375001 21.543603515624994, 109.10175781250001 21.590478515624994, 109.03056640624999 21.626513671875003, 108.92177734375002 21.624414062499994, 108.84638671875001 21.634472656249997, 108.77167968750001 21.63046874999999, 108.67451171875001 21.724658203125003, 108.61582031250003 21.770458984374997, 108.58935546875 21.815966796875003, 108.61582031250003 21.868896484375, 108.59375 21.901025390624994, 108.47988281250002 21.90463867187499, 108.49257812500002 21.739404296874994, 108.52568359374999 21.67138671875, 108.50214843750001 21.633447265624994, 108.4443359375 21.607324218749994, 108.3828125 21.67919921875, 108.35458984375003 21.696923828124994, 108.32480468750003 21.693505859374994, 108.30214843750002 21.62192382812499, 108.24628906250001 21.558398437500003, 108.14560546875003 21.565185546875, 108.0673828125 21.52597656249999, 107.92578125 21.498925781249994, 107.80908203125 21.497119140625003, 107.70722656250001 21.40585937499999, 107.63671875 21.368066406249994, 107.52695312500003 21.336230468750003, 107.40996093749999 21.284814453124994, 107.37617187500001 21.194140625000003, 107.37333984374999 21.128466796875003, 107.35429687499999 21.05517578125, 107.16474609375001 20.94873046875, 107.11171875000002 20.95957031249999, 107.0751953125 20.999267578125, 107.01923828125001 20.9912109375, 106.9814453125 20.971386718749997, 106.93642578125002 20.974072265624997, 106.88623046875 20.950000000000003, 106.82060546874999 20.95751953125, 106.76025390625 20.991113281249994, 106.72519531250003 20.999902343749994, 106.68339843749999 21.000292968750003, 106.67548828125001 20.960498046875003, 106.7373046875 20.80615234375, 106.75341796875 20.735058593749997, 106.55078125 20.526562499999997, 106.57285156250003 20.39218749999999, 106.51796875000002 20.288867187500003, 106.3955078125 20.20590820312499, 106.16572265625001 19.99204101562499, 106.06220703125001 19.987353515625003, 105.98408203125001 19.93906249999999, 105.81396484375 19.587451171875003, 105.81210937500003 19.466992187499997, 105.78535156250001 19.378857421874997, 105.79111328125003 19.294189453125, 105.71640625000003 19.12778320312499, 105.63906250000002 19.057177734375003, 105.62177734375001 18.96630859375, 105.80820312500003 18.64584960937499, 105.83925781250002 18.574169921874997, 105.88828125000003 18.502490234375003, 106.06562500000001 18.316357421874997, 106.14453125 18.259423828124994, 106.23955078124999 18.220703125, 106.41191406249999 18.053173828124997, 106.4990234375 17.946435546874994, 106.45937500000002 17.873681640624994, 106.47890625000002 17.71958007812499, 106.35585937500002 17.765039062499994, 106.37050781250002 17.746875000000003, 106.51679687500001 17.662792968749997, 106.73574218750002 17.3671875, 106.92617187500002 17.221386718749997, 107.11992187499999 17.05551757812499, 107.18037109375001 16.89794921875, 107.35507812500003 16.793750000000003, 107.54931640625 16.642578125, 107.54082031249999 16.608642578125, 107.72412109375 16.487841796875003, 107.80312500000002 16.403076171875, 107.83378906249999 16.322460937499997, 107.88203125000001 16.309619140625003, 107.93632812499999 16.329394531250003, 107.99072265625 16.337109374999997, 108.02939453125003 16.331103515625003, 108.08798828125003 16.242724609375003, 108.11954876683207 16.212201057309677, 107.702090717453 10.626394732749779, 107.564453125 10.555468749999989, 107.47031250000003 10.48583984375, 107.38447265625001 10.458642578124994, 107.26152343749999 10.398388671874997, 107.19414062499999 10.471582031249994, 107.08779296875002 10.498339843749989, 107.03574218750003 10.556298828124994, 107.02070312500001 10.630957031249991, 107.00664062499999 10.660546874999994, 106.98369140624999 10.618310546874994, 106.96611328124999 10.440722656249989, 106.94746093750001 10.400341796874997, 106.90205078125001 10.3828125, 106.81269531250001 10.433300781249997, 106.72734374999999 10.53564453125, 106.60585937500002 10.464941406249991, 106.64306640625 10.456249999999997, 106.69843750000001 10.462060546874994, 106.7412109375 10.444384765624989, 106.77753906250001 10.376123046874994, 106.77626953125002 10.338964843749991, 106.75742187500003 10.295800781249994, 106.6435546875 10.288916015624991, 106.49169921875 10.304101562499994, 106.46406250000001 10.298291015624997, 106.60244140625002 10.231738281249989, 106.72900390625 10.193310546874997, 106.78525390625003 10.151171874999989, 106.78525390625003 10.116455078125, 106.71416015624999 10.060205078124994, 106.6591796875 9.991406249999997, 106.65683593750003 9.901074218749997, 106.59560546875002 9.85986328125, 106.55732421875001 9.868066406249994, 106.44912109375002 9.939648437499997, 106.13642578125001 10.2216796875, 106.18359375 10.14208984375, 106.50742187500003 9.821240234374997, 106.56435546875002 9.715624999999989, 106.57246093750001 9.64111328125, 106.48408203125001 9.559423828124991, 106.37802734375003 9.556103515624997, 106.20400390625002 9.675439453124994, 105.92568359375002 9.961718749999989, 105.83095703125002 10.000732421875, 106.11250000000001 9.673583984375, 106.15859375000002 9.594140624999994, 106.20615234375003 9.502343749999994, 106.19257812500001 9.447802734374989, 106.16835937500002 9.396728515625, 105.5009765625 9.093212890624997, 105.4013671875 8.96240234375, 105.322265625 8.801123046874991, 105.19121093749999 8.711328124999994, 105.11435546875003 8.629199218749989, 104.89189453124999 8.583251953125, 104.77041015625002 8.59765625, 104.89628906249999 8.746630859374989, 104.81855468750001 8.801855468749991, 104.81464843750001 9.185498046874997, 104.84521484375 9.606152343749997, 104.90322265625002 9.816259765624991, 104.98710937499999 9.86865234375, 105.09257812499999 9.900976562499991, 105.09492187500001 9.945263671874997, 105.08447265625 9.995703124999991, 105.02783203125 10.067431640624989, 104.9658203125 10.1005859375, 104.87324218750001 10.114794921874989, 104.80195312500001 10.202734374999991, 104.74765625000003 10.199121093749994, 104.66347656250002 10.169921875, 104.61269531250002 10.207666015624994, 104.59404296874999 10.266894531249989, 104.51611328125 10.339990234374994, 104.26240234375001 10.541259765625, 103.93710937500003 10.586621093749997, 103.90175781250002 10.643945312499994, 103.87050781250002 10.655126953124991, 103.84052734375001 10.58056640625, 103.66191406249999 10.508935546874994, 103.58710937500001 10.552197265624997, 103.5322265625 10.604638671874994, 103.54042968750002 10.668701171875, 103.59208984374999 10.721044921874991, 103.68085937500001 10.758593749999989, 103.72187500000001 10.89013671875, 103.654296875 11.058691406249991, 103.59501953124999 11.107763671874991, 103.53242187500001 11.146679687499997, 103.46669921875002 11.083984375, 103.41132812500001 10.976757812499997, 103.35361328125003 10.921582031249997, 103.27216796875001 10.909277343749991, 103.15283203125 10.913720703124994, 103.1064453125 11.073779296874989, 103.09111328124999 11.211083984374994, 103.107421875 11.367773437499991, 103.12548828125 11.460644531249997, 103.01054687499999 11.588671874999989, 103.00419921874999 11.710595703124994, 102.94863281250002 11.773486328124989, 102.93232421875001 11.74169921875, 102.93388671874999 11.706689453124994, 102.91230468750001 11.703857421875, 102.88369140625002 11.772753906249989, 102.79160156250003 11.888623046874997, 102.76298828124999 12.012451171875, 102.65488281250003 12.148828124999994, 102.59414062500002 12.203027343749994, 102.57480468750003 12.157812499999991, 102.54023437500001 12.109228515624991, 102.43408203125 12.179248046874989, 102.34316406250002 12.252587890624994, 102.25908203124999 12.394335937499989, 102.22958984375003 12.331640624999991, 102.13417968750002 12.443017578124994, 102.03437500000001 12.531884765624994, 101.94453125000001 12.563671874999997, 101.88906250000002 12.59326171875, 101.83574218749999 12.640380859375, 101.7236328125 12.689355468749994, 101.44492187500003 12.618945312499989, 101.09023437500002 12.673632812499989, 100.95371093750003 12.621240234374994, 100.89775390624999 12.65380859375, 100.86328125 12.714501953124994, 100.89638671875002 12.818164062499989, 100.90390625000003 13.034912109375, 100.94609374999999 13.187255859375, 100.92626953125 13.303027343750003, 100.94697265625001 13.357568359374994, 100.96269531249999 13.431982421874991, 100.90654296874999 13.46240234375, 100.65605468749999 13.521289062500003, 100.60292968750002 13.568164062500003, 100.53642578124999 13.514453125000003, 100.23564453124999 13.484472656249991, 100.12236328124999 13.439550781249991, 100.01748046875002 13.353173828124994, 99.99052734374999 13.243457031250003, 100.05107421874999 13.171240234374991, 100.08994140625003 13.045654296875, 99.98203125000003 12.771484375, 99.96396484375003 12.690039062499991, 100.00566406249999 12.354736328125, 99.98906249999999 12.170800781249994, 99.93027343750003 12.047460937499991, 99.83710937500001 11.936621093749991, 99.79873046875002 11.748779296875, 99.72548828125002 11.661767578124994, 99.62734375000002 11.462890625, 99.56132812499999 11.215185546874991, 99.51435546875001 11.1005859375, 99.48691406250003 10.889550781249994, 99.28476562500003 10.569140624999989, 99.2373046875 10.388134765624997, 99.1650390625 10.31982421875, 99.19033203125002 10.265869140625, 99.19462890624999 10.175439453124994, 99.16933593750002 9.934179687499991, 99.16074218750003 9.734033203124994, 99.19130859375002 9.627148437499997, 99.28828125000001 9.414599609374989, 99.26503906250002 9.352978515624997, 99.25390625 9.265234374999991, 99.33544921875 9.225439453124991, 99.39384765624999 9.213720703124991, 99.72382812500001 9.314208984375, 99.83554687500003 9.288378906249989, 99.90468750000002 9.112890624999991, 99.96064453125001 8.671240234374991, 99.98955078124999 8.589208984374991, 100.12929687500002 8.428076171874991, 100.15410156249999 8.442968749999991, 100.16347656250002 8.508398437499991, 100.22871093750001 8.424707031249994, 100.27939453125003 8.268505859374997, 100.45351562500002 7.442285156249994, 100.50371093749999 7.337304687499994, 100.54521484374999 7.2269042968749915, 100.43935546875002 7.28076171875, 100.41074218750003 7.464306640624997, 100.38037109375 7.54150390625, 100.34296875000001 7.552880859374994, 100.28378906250003 7.551513671875, 100.27998046875001 7.5843261718749915, 100.32431640625003 7.644189453124994, 100.3173828125 7.715966796874994, 100.25664062499999 7.77490234375, 100.158203125 7.7281249999999915, 100.16074218750003 7.599267578124994, 100.20488281249999 7.500537109374989, 100.37138671874999 7.2801269531249915, 100.42353515625001 7.1878417968749915, 100.48974609375 7.161376953125, 100.58623046874999 7.175976562499997, 100.70166015625 7.081982421874997, 100.79257812500003 6.994677734374989, 101.01787109374999 6.8609374999999915, 101.15439453125003 6.875146484374994, 101.30195312500001 6.9083007812499915, 101.40087890625 6.899560546874994, 101.49794921875002 6.865283203124989, 101.6142578125 6.753955078124989, 101.79921875000002 6.474609375, 102.10107421875 6.242236328124989, 102.27402343750003 6.203417968749989, 102.34013671874999 6.172021484374994, 102.53437500000001 5.862548828125, 102.79023437500001 5.644921874999994, 102.89853515625003 5.563769531249989, 102.982421875 5.524951171874989, 103.09707031250002 5.408447265625, 103.19697265625001 5.262158203124997, 103.41582031249999 4.850292968749997, 103.45390624999999 4.669482421874989, 103.46875 4.393261718749997, 103.42050781250003 3.9768554687499886, 103.36201171875001 3.7691406249999915, 103.37333984374999 3.671093749999997, 103.45351562500002 3.5206054687499915, 103.42949218749999 3.3785644531249943, 103.44501953125001 3.2605957031249915, 103.439453125 2.93310546875, 103.48515624999999 2.8365722656249943, 103.53730468750001 2.7747558593749915, 103.81220703125001 2.5804687499999943, 103.83232421874999 2.508496093749997, 103.9677734375 2.26123046875, 104.21855468749999 1.7228515624999972, 104.28847656250002 1.4806640624999972, 104.28037109375003 1.4155761718749886, 104.25009765625003 1.3885742187499943, 104.17636718750003 1.3648925781249943, 104.11494140625001 1.4122558593749943, 104.09423828125 1.4461914062499943, 104.1005859375 1.4883300781249886, 104.076171875 1.52978515625, 104.01601562500002 1.5792968749999972, 103.9814453125 1.6236328124999915, 103.9912109375 1.550048828125, 103.99150390624999 1.4547851562499972, 103.91513671875003 1.4466796874999943, 103.81679687500002 1.4765625, 103.69453125000001 1.4496582031249972, 103.5498046875 1.3328124999999886, 103.48027343749999 1.3294921874999943, 103.40000000000003 1.4978515624999886, 103.35683593750002 1.546142578125, 102.89687500000002 1.7923339843749915, 102.72714843750003 1.8555664062499915, 102.54824218750002 2.0423828124999943, 102.14560546875003 2.248486328124997, 101.88994140624999 2.449414062499997, 101.78125 2.5735839843749915, 101.51972656250001 2.6836425781249886, 101.40683593750003 2.8134765625, 101.35136718749999 2.8389648437499915, 101.29550781250003 2.885205078124997, 101.35429687499999 3.0111328124999943, 101.33017578125003 3.1424804687499943, 101.29990234375003 3.2532714843749915, 101.11542968750001 3.4720214843749915, 101.02480468750002 3.624707031249997, 100.85126953125001 3.7767089843749915, 100.78183593750003 3.864453124999997, 100.71542968750003 3.9662109374999943, 100.79550781250003 4.023388671874997, 100.76025390625 4.097216796874989, 100.66103515625002 4.225732421874994, 100.61455078124999 4.373437499999994, 100.61455078124999 4.652246093749994, 100.47343749999999 5.0442871093749915, 100.35263671875003 5.587695312499989, 100.3740234375 5.777978515624994, 100.34326171875 5.984179687499989, 100.26328125000003 6.182519531249994, 100.15839843750001 6.32421875, 100.119140625 6.4419921874999915, 99.86865234375 6.749902343749994, 99.69599609375001 6.876660156249997, 99.72031250000003 7.106201171875, 99.66777343749999 7.15087890625, 99.60244140625002 7.155322265624989, 99.55302734374999 7.218798828124989, 99.59697265624999 7.355615234374994, 99.52910156249999 7.329492187499994, 99.43515625000003 7.334374999999994, 99.35859375000001 7.372216796874994, 99.30039062500003 7.561328124999989, 99.263671875 7.619042968749994, 99.18339843749999 7.718066406249989, 99.07763671875 7.718066406249989, 99.04267578125001 7.765625, 99.05107421874999 7.887841796874994, 98.97392578124999 7.962792968749994, 98.87246093750002 8.02392578125, 98.78867187500003 8.059814453125, 98.70351562500002 8.256738281249994, 98.57919921875003 8.344287109374989, 98.49980468749999 8.317822265624997, 98.47402343750002 8.246923828124991, 98.42099609375003 8.17822265625, 98.36074218750002 8.186962890624997, 98.30546874999999 8.226220703124994, 98.23818359375002 8.423095703125, 98.22695312500002 8.543652343749997, 98.24179687500003 8.767871093749989, 98.32597656249999 8.968945312499997, 98.37138671874999 9.29052734375, 98.44316406249999 9.492822265624994, 98.49296874999999 9.561425781249994, 98.56191406250002 9.837499999999991, 98.70253906250002 10.190380859374997, 98.65800781249999 10.179052734374991, 98.56259765625003 10.034960937499989, 98.52128906249999 10.107226562499989, 98.49687499999999 10.182519531249994, 98.52304687500003 10.353124999999991, 98.46494140625003 10.675830078124989, 98.5009765625 10.718945312499997, 98.53564453125 10.740673828124997, 98.59882812500001 10.864404296874994, 98.67558593749999 10.986914062499991, 98.6826171875 11.133105468749989, 98.74472656250003 11.240380859374994, 98.73007812500003 11.329980468749994, 98.73330078125002 11.435253906249997, 98.74638671874999 11.521289062499989, 98.74140625000001 11.591699218749994, 98.79072265625001 11.665087890624989, 98.8759765625 11.7197265625, 98.84023437500002 11.7392578125, 98.80478515625003 11.779248046874997, 98.69365234374999 11.718359374999991, 98.63632812500003 11.738378906249991, 98.62490234375002 11.801464843749997, 98.64492187500002 11.910302734374994, 98.689453125 11.956738281249997, 98.68632812499999 12.047119140625, 98.66386718749999 12.126708984375, 98.6962890625 12.225244140624994, 98.63056640625001 12.225488281249994, 98.60029296875001 12.245312499999997, 98.619140625 12.299999999999997, 98.6787109375 12.348486328124991, 98.62441406250002 12.440722656249989, 98.66464843750003 12.539941406249994, 98.66318359375003 12.662402343749989, 98.63564453125002 12.7705078125, 98.63710937500002 12.848242187499991, 98.59511718750002 12.986035156249997, 98.57597656249999 13.161914062499989, 98.48710937499999 13.293066406249991, 98.42128906250002 13.483789062499994, 98.24541015624999 13.733496093749991, 98.24843750000002 13.840380859375003, 98.23896484375001 13.934472656249994, 98.20039062500001 13.980175781249997, 98.14951171875003 13.647607421874994, 98.11064453124999 13.712890625, 98.09824218750003 13.898339843749994, 98.07265625000002 13.986474609374994, 98.10019531250003 14.161523437499994, 97.99843750000002 14.335302734374991, 97.9765625 14.461474609375003, 97.90976562500003 14.652685546874991, 97.92929687500003 14.695556640625, 98.01875000000001 14.652587890625, 97.9365234375 14.763916015625, 97.869140625 14.738720703124997, 97.81230468749999 14.858935546875003, 97.7998046875 15.184912109374991, 97.74375000000003 15.306787109374994, 97.77421874999999 15.430957031250003, 97.71035156250002 15.875537109375003, 97.58427734374999 16.019580078125003, 97.640625 16.253857421874997, 97.63369140625002 16.457666015624994, 97.66464843750003 16.520458984374997, 97.72597656250002 16.568554687499997, 97.61962890625 16.53720703124999, 97.50507812500001 16.525292968749994, 97.37587890625002 16.52294921875, 97.3310546875 16.671777343749994, 97.26748046875002 16.743115234374997, 97.21171874999999 16.892578125, 97.17832031250003 17.06201171875, 97.2001953125 17.095410156249997, 97.10019531250003 17.16455078125, 97.07451171874999 17.206933593749994, 96.97011718750002 17.317333984374997, 96.85146484375002 17.401025390624994, 96.87773437499999 17.342187499999994, 96.90976562500003 17.304833984374994, 96.85087890624999 17.202929687500003, 96.90859375000002 17.030957031249997, 96.85800781250003 16.921191406250003, 96.81064453125003 16.778369140625003, 96.76542968749999 16.710351562499994, 96.62246093750002 16.563916015624997, 96.50664062499999 16.514355468749997, 96.43115234375 16.504931640625003, 96.36435546875003 16.5205078125, 96.2822265625 16.595996093750003, 96.26210937500002 16.659130859374997, 96.24892578125002 16.765332031249997, 96.22031250000003 16.780566406250003, 96.18906250000003 16.768310546875, 96.23769531250002 16.631249999999994, 96.23671875000002 16.567431640625003, 96.32431640625003 16.44443359374999, 96.29306640625003 16.410058593749994, 96.13505859374999 16.342529296875, 96.08095703125002 16.35336914062499, 96.04287109375002 16.33994140624999, 96.03212890625002 16.284619140624997, 96.01230468750003 16.253710937500003, 95.76328125000003 16.16904296874999, 95.71142578125 16.073388671874994, 95.67949218749999 15.976757812499997, 95.5556640625 15.837841796874997, 95.38955078125002 15.722753906249991, 95.34843749999999 15.729296875000003, 95.30146484375001 15.756152343750003, 95.30781250000001 15.880419921875003, 95.36474609375 15.985449218749991, 95.34677734375003 16.097607421874997, 95.3330078125 16.033251953125003, 95.22587890624999 15.876806640624991, 95.17695312500001 15.82568359375, 95.07832031250001 15.839160156250003, 94.94257812500001 15.818261718749994, 94.89121093750003 15.979101562499991, 94.89218750000003 16.03818359374999, 94.88222656250002 16.087939453125003, 94.89785156250002 16.140820312499997, 94.89316406250003 16.182812499999997, 94.86015624999999 16.102441406249994, 94.84775390625003 16.032861328124994, 94.79814453124999 15.971093749999994, 94.66152343750002 15.904394531249991, 94.6513671875 16.064843749999994, 94.68076171875003 16.13330078125, 94.67656249999999 16.24204101562499, 94.71992187500001 16.398730468750003, 94.70332031250001 16.511914062499997, 94.67900390624999 16.425585937500003, 94.66523437500001 16.336132812499997, 94.6376953125 16.30908203125, 94.58750000000003 16.288818359375, 94.49570312500003 16.18613281249999, 94.44160156250001 16.094384765624994, 94.29902343750001 16.007617187500003, 94.22382812500001 16.01645507812499, 94.21425781250002 16.126611328124994, 94.27128906249999 16.517285156249997, 94.32734375000001 16.572167968749994, 94.35341796875002 16.639941406250003, 94.40000000000003 16.8681640625, 94.45244140624999 16.954492187499994, 94.47314453125 17.135449218749997, 94.564453125 17.308544921874997, 94.58896484375003 17.5693359375, 94.56005859375 17.698974609375, 94.49433593750001 17.824609374999994, 94.43076171875003 18.20166015625, 94.26582031250001 18.507226562499994, 94.25214843750001 18.609179687500003, 94.17070312499999 18.732421875, 94.24570312500003 18.741162109374997, 94.09130859375 18.84921874999999, 94.07001953125001 18.89340820312499, 94.03896484375002 19.146191406249997, 94.044921875 19.287402343750003, 94.0224609375 19.268798828125, 94.00156250000003 19.181787109374994, 93.94101562500003 19.14609374999999, 93.96806640624999 18.995068359374997, 93.96132812500002 18.958398437499994, 93.92919921875 18.899658203125, 93.80009765624999 18.960595703124994, 93.70546875000002 19.026904296875003, 93.59814453125 19.1884765625, 93.49306640625002 19.36948242187499, 93.53056640624999 19.39755859374999, 93.57861328125 19.401171875000003, 93.72802734375 19.266503906249994, 93.82490234375001 19.238476562499997, 93.88613281250002 19.271923828124997, 93.96201171875003 19.329345703125, 93.99814453125003 19.440869140624997, 93.96074218749999 19.481689453125, 93.88789062500001 19.50390625, 93.83955078125001 19.534130859374997, 93.76992187500002 19.609570312499997, 93.73955078124999 19.697265625, 93.66874999999999 19.731982421875003, 93.61171875000002 19.776074218749997, 93.65986328125001 19.854150390624994, 93.70703125 19.912158203125003, 93.58183593749999 19.909570312499994, 93.43906250000003 20.009423828124994, 93.40957031250002 20.038330078125, 93.3623046875 20.058300781249997, 93.25 20.070117187500003, 93.15664062500002 20.040771484375, 93.19902343749999 19.898339843749994, 93.19062500000001 19.851220703124994, 93.12949218750003 19.85800781249999, 93.001953125 20.074853515624994, 93.04033203124999 20.129785156249994, 93.09550781249999 20.181347656249997, 93.068359375 20.188671874999997, 93.01513671875 20.185253906249997, 93.06679687500002 20.377636718749997, 93.03535156250001 20.406152343749994, 93.01875000000001 20.34604492187499, 92.99072265625 20.287988281249994, 92.88212890624999 20.152148437500003, 92.82832031250001 20.17758789062499, 92.79121093750001 20.21142578125, 92.84355468749999 20.282617187499994, 92.87167968750003 20.3017578125, 92.89111328125 20.34033203125, 92.85068359375003 20.414843750000003, 92.78691406249999 20.469042968750003, 92.73564453124999 20.562695312499997, 92.708984375 20.56396484375, 92.73261718750001 20.453369140625, 92.72285156250001 20.295605468749997, 92.60800781250003 20.469873046874994, 92.37832031250002 20.717578125000003, 92.32412109375002 20.79184570312499, 92.30781250000001 20.790429687499994, 92.19462890624999 20.984277343749994, 92.05605468750002 21.1748046875, 92.01093750000001 21.516259765624994, 92.00800781250001 21.684765624999997, 91.91318359375003 21.883056640625, 91.85000000000002 22.157373046874994, 91.82480468750003 22.228662109374994, 91.86337890625003 22.350488281249994, 91.84541015625001 22.34311523437499, 91.79707031250001 22.29746093749999, 91.73408203125001 22.406689453124997, 91.69296875000003 22.504785156249994, 91.52968750000002 22.707666015624994, 91.48212890625001 22.797412109375003, 91.48007812500003 22.884814453125003, 91.40957031250002 22.797021484374994, 91.31376953124999 22.735156250000003, 91.21621093750002 22.642236328124994, 91.1513671875 22.614062500000003, 90.94560546874999 22.59702148437499, 90.82675781250003 22.721386718749997, 90.65625 23.02548828124999, 90.63359374999999 23.09423828125, 90.65605468749999 23.27304687499999, 90.61562500000002 23.442333984374997, 90.61611328125002 23.531640624999994, 90.60400390625 23.591357421875003, 90.57343750000001 23.578125, 90.56162109375003 23.537109375, 90.56806640625001 23.474267578124994, 90.5556640625 23.421533203124994, 90.40800781249999 23.431884765625, 90.26914062500003 23.455859375000003, 90.39150390625002 23.366943359375, 90.52275390624999 23.346142578124997, 90.59091796875003 23.266406250000003, 90.59921875000003 23.204150390625003, 90.59511718750002 23.133935546874994, 90.52773437500002 23.0849609375, 90.46601562500001 23.053906249999997, 90.4775390625 22.986767578124997, 90.55224609375 22.90488281249999, 90.46162109375001 22.881787109374997, 90.43691406250002 22.828173828125003, 90.43505859375 22.751904296874997, 90.48066406250001 22.68466796874999, 90.49843750000002 22.634814453125003, 90.48740234375003 22.58872070312499, 90.53173828125 22.539306640625, 90.59550781249999 22.435839843750003, 90.61611328125002 22.36215820312499, 90.58945312500003 22.258447265624994, 90.55283203125003 22.218164062499994, 90.494140625 22.178906249999997, 90.35576171874999 22.048242187499994, 90.28818359375003 21.8994140625, 90.23056640625003 21.829785156249997, 90.15878906250003 21.816845703124997, 90.13076171875002 21.847412109375, 90.07119140625002 21.887255859375003, 90.07001953125001 21.959912109374997, 90.087890625 22.017480468749994, 90.20957031250003 22.15659179687499, 90.14345703125002 22.137890624999997, 89.95419921875003 22.022851562499994, 89.91806640625003 22.116162109374997, 89.89404296875 22.202587890624997, 89.89384765624999 22.308398437500003, 89.98515624999999 22.46640624999999, 89.8818359375 22.387597656249994, 89.85322265625001 22.288964843749994, 89.86582031250003 22.173046874999997, 89.8525390625 22.09091796874999, 89.81191406250002 21.98349609374999, 89.7568359375 21.91904296874999, 89.66777343749999 21.877685546875, 89.62812500000001 21.814160156249997, 89.56855468750001 21.76743164062499, 89.56660156250001 21.860595703125, 89.54746093750003 21.983691406250003, 89.48320312499999 22.275537109374994, 89.46933593750003 22.212939453125003, 89.50253906250003 22.031884765624994, 89.50058593750003 21.914355468750003, 89.45195312499999 21.821093750000003, 89.35371093750001 21.721093749999994, 89.27861328124999 21.706982421874997, 89.23427734375002 21.722363281249997, 89.16708984375003 21.78427734374999, 89.09394531250001 21.872753906249997, 89.08164062500003 22.014941406250003, 89.05146484375001 22.093164062499994, 89.02792968750003 21.937207031249997, 88.94931640625003 21.937939453124997, 89.01962890625003 21.833642578124994, 89.0419921875 21.758691406249994, 89.05166015625002 21.654101562500003, 88.96708984374999 21.641357421875, 88.90742187500001 21.653076171875, 88.85751953125003 21.744677734375003, 88.83437500000002 21.661376953125, 88.74501953125002 21.584374999999994, 88.71298828125003 21.621972656249994, 88.69472656250002 21.662402343750003, 88.69121093749999 21.73349609374999, 88.740234375 22.005419921875003, 88.73027343749999 22.036083984374997, 88.70830078124999 22.05615234375, 88.65957031250002 22.066943359375003, 88.6416015625 22.121972656249994, 88.56679687500002 21.83212890624999, 88.59980468750001 21.713769531249994, 88.58466796875001 21.659716796875003, 88.44599609375001 21.6142578125, 88.30546874999999 21.723339843749997, 88.28750000000002 21.758203124999994, 88.27919921875002 21.69687499999999, 88.25371093749999 21.622314453125, 88.1220703125 21.635791015625003, 88.05683593750001 21.694140625000003, 88.09941406249999 21.79355468749999, 88.18105468750002 22.032910156249997, 88.1962890625 22.139550781249994, 88.08710937500001 22.217724609374997, 87.99443359374999 22.265673828125003, 87.94140625 22.374316406250003, 87.96162109375001 22.255029296874994, 88.0107421875 22.212646484375, 88.0830078125 22.18271484374999, 88.15927734375003 22.121728515624994, 88.10410156250003 22.04736328125, 88.05078125 22.00107421874999, 87.94843750000001 21.825439453125, 87.82373046875 21.727343750000003, 87.67822265625 21.653515624999997, 87.20068359375 21.544873046874997, 87.10068359375003 21.500781250000003, 86.9541015625 21.36533203124999, 86.85957031250001 21.236718749999994, 86.84228515625 21.106347656249994, 86.89580078124999 20.965576171875, 86.93935546875002 20.745068359374997, 86.97548828125002 20.700146484374997, 86.92451171875001 20.619775390624994, 86.8359375 20.534326171874994, 86.76249999999999 20.419140624999997, 86.76923828125001 20.355908203124997, 86.75039062500002 20.313232421875, 86.49873046875001 20.171630859375, 86.44580078125 20.088916015625003, 86.37656250000003 20.006738281249994, 86.29365234375001 20.053759765625003, 86.24521484375003 20.053027343750003, 86.31191406250002 19.98779296875, 86.30292968750001 19.94467773437499, 86.27949218750001 19.91943359375, 86.21621093750002 19.895800781250003, 85.85292968750002 19.791748046875, 85.57499999999999 19.692919921875003, 85.49687499999999 19.696923828124994, 85.51113281250002 19.72690429687499, 85.55976562500001 19.753466796875003, 85.55507812500002 19.866894531249997, 85.50410156250001 19.8876953125, 85.4599609375 19.895898437499994, 85.24863281250003 19.75766601562499, 85.16279296875001 19.620898437500003, 85.18076171875003 19.594873046874994, 85.228515625 19.601318359375, 85.37089843749999 19.678906249999997, 85.43691406250002 19.656884765624994, 85.44160156250001 19.62656249999999, 85.2255859375 19.508349609375003, 84.77099609375 19.125390624999994, 84.74980468749999 19.050097656250003, 84.69082031250002 18.96469726562499, 84.609375 18.884326171875003, 84.46279296875002 18.689746093750003, 84.18173828125003 18.400585937499997, 84.10410156250003 18.292675781249997, 83.654296875 18.069873046875003, 83.572265625 18.003613281249997, 83.38798828124999 17.786669921875003, 83.19833984375003 17.60898437499999, 82.97685546874999 17.461816406249994, 82.59316406250002 17.27392578125, 82.35957031250001 17.09619140625, 82.28652343750002 16.978076171875003, 82.28193359375001 16.936083984375003, 82.30722656250003 16.878564453124994, 82.35000000000002 16.8251953125, 82.35976562500002 16.78281249999999, 82.3271484375 16.664355468750003, 82.2587890625 16.559863281250003, 82.14150390625002 16.4853515625, 81.76191406250001 16.329492187499994, 81.40185546875 16.365234375, 81.2861328125 16.337060546874994, 81.23857421874999 16.263964843750003, 81.13212890624999 15.961767578124991, 81.03007812499999 15.881445312499991, 80.99345703124999 15.808740234374994, 80.97871093750001 15.758349609375003, 80.91777343749999 15.759667968749994, 80.86474609375 15.7822265625, 80.82597656249999 15.765917968750003, 80.78183593750003 15.867333984374994, 80.70781249999999 15.888085937499994, 80.64658203125003 15.89501953125, 80.38486328125003 15.792773437500003, 80.29345703125 15.710742187500003, 80.10107421875 15.323632812499994, 80.05341796875001 15.074023437500003, 80.0986328125 14.798242187499994, 80.16542968750002 14.577832031249997, 80.1787109375 14.478320312500003, 80.17011718750001 14.349414062500003, 80.13623046875 14.286572265624997, 80.11171875000002 14.212207031250003, 80.14365234375003 14.058935546874991, 80.22441406249999 13.858203125000003, 80.244140625 13.773486328125003, 80.24580078125001 13.685839843750003, 80.30654296875002 13.485058593749997, 80.265625 13.521289062500003, 80.2333984375 13.605761718750003, 80.15625 13.713769531249994, 80.06210937500003 13.606250000000003, 80.1142578125 13.528710937499994, 80.29033203124999 13.436718749999997, 80.34238281250003 13.361328125, 80.22910156250003 12.690332031249994, 80.14306640625 12.452001953124991, 80.03750000000002 12.295800781249994, 79.98173828124999 12.235449218749991, 79.85849609375003 11.98876953125, 79.77138671875002 11.690234374999989, 79.75410156250001 11.575292968749991, 79.79335937500002 11.446679687499994, 79.74892578125002 11.37060546875, 79.69316406249999 11.312548828124989, 79.79902343750001 11.338671874999989, 79.83525390624999 11.268847656249989, 79.8486328125 11.196874999999991, 79.85019531250003 10.768847656249989, 79.83818359374999 10.322558593749989, 79.75693359375003 10.304345703124994, 79.66738281250002 10.299707031249994, 79.53164062500002 10.329638671874989, 79.39052734375002 10.305957031249989, 79.31455078125003 10.256689453124991, 79.25361328125001 10.1748046875, 79.2578125 10.035205078124989, 78.99628906250001 9.68310546875, 78.93994140625 9.565771484374991, 78.91914062500001 9.452880859375, 78.953125 9.393798828125, 79.01992187500002 9.333349609374991, 79.10703125000003 9.308935546874991, 79.27548828125003 9.284619140624997, 79.35634765625002 9.252148437499997, 79.41142578124999 9.1923828125, 79.212890625 9.256005859374994, 78.97958984375003 9.2685546875, 78.42148437500003 9.105029296874989, 78.27451171875003 8.990185546874997, 78.19248046875003 8.890869140625, 78.13603515624999 8.663378906249989, 78.12636718750002 8.511328124999991, 78.06015625000003 8.384570312499989, 77.77031249999999 8.189843749999994, 77.58720703124999 8.1298828125, 77.53015667384759 8.087635142502139, 77.385895446043 9.449052695440782, 76.5206622452319 20.27814006823517, 76.44382664636349 21.608414039120884, 76.48986270336927 22.93943681909464, 76.66191903913794 24.26116021938329, 76.96258333814247 25.563302535500775, 78.72868318311488 31.702816351125218, 79.2270085432764 33.09434700447744, 79.89576087670781 34.43479645865518, 80.73584474527121 35.70972228754418, 81.74593685066286 36.904622489620735, 82.92196908064273 38.005123598288094, 84.25661614188105 38.99722555011705, 85.73884766691508 39.867603901762216, 87.35361866858979 40.603962460704814, 89.08177721412943 41.195420064396046, 90.90025848750825 41.632905477556, 92.78260647075547 41.909526340692615, 94.69981960986061 42.020874315036956, 96.62146274776015 41.96523109179382, 98.51693737746734 41.74364942994707, 100.35677025026817 41.359898522393976, 102.11377654537425 40.8202805933808, 103.76397939875785 40.13334167493905, 105.28721452444195 39.30951050787859, 106.66740314683547 38.36070364729962, 107.8925246180566 37.299932348366966, 108.95435264351542 36.140939483678714, 109.84803313616493 34.89788510466371, 110.57157991853413 33.58508961634047, 111.12535221045528 32.21683546653951, 111.5115608475947 30.807222480230973, 111.73383298852573 29.370068527407305, 111.796850401761 27.918845714373795, 111.70606537747199 26.466642190947457, 111.46749086857409 25.02614044582714, 111.08755703111288 23.609604202065427, 110.57302410962016 22.22886743759169, 109.93094084847306 20.895320472648653, 109.79323552119153 20.63026293133807, 109.80527343750003 20.711474609375003)), ((108.70156250000002 18.53525390624999, 108.67607421874999 18.750244140625, 108.63808593750002 18.86630859374999, 108.63564453125002 18.90771484375, 108.65000000000003 19.265039062499994, 108.66552734375 19.304101562499994, 108.69355468750001 19.338281249999994, 108.791015625 19.418164062499997, 108.90283203125 19.481347656249994, 109.06289062500002 19.613574218750003, 109.17910156250002 19.674121093750003, 109.27666015624999 19.761132812499994, 109.21953124999999 19.757470703124994, 109.17744140625001 19.768457031249994, 109.21894531250001 19.842822265625003, 109.26347656249999 19.88266601562499, 109.31484375000002 19.90439453124999, 109.4087687346713 19.89023476276694, 108.70156250000002 18.53525390624999)), ((107.60273437500001 21.216796875, 107.45869140625001 21.09165039062499, 107.40351562500001 21.093652343749994, 107.45253906250002 21.235302734374997, 107.47626953125001 21.268945312499994, 107.56269531250001 21.220410156249997, 107.60273437500001 21.216796875)), ((107.51894531250002 21.012841796874994, 107.55126953125 21.03403320312499, 107.55107421874999 20.981201171875, 107.52128906249999 20.92661132812499, 107.46552734375001 20.900537109374994, 107.39921874999999 20.903466796874994, 107.47861328125003 20.952343749999997, 107.51894531250002 21.012841796874994)), ((107.16767578125001 10.397167968749997, 107.08378906249999 10.336572265624994, 107.07792968749999 10.387499999999989, 107.15087890625 10.420312499999994, 107.17656249999999 10.446191406249994, 107.19492187500003 10.445703124999994, 107.16767578125001 10.397167968749997)), ((107.04374999999999 20.836816406249994, 107.064453125 20.817285156249994, 107.06396484375 20.799755859374997, 107.04228515624999 20.761035156250003, 107.03134765625003 20.747021484374997, 106.99003906249999 20.743066406249994, 106.91064453125 20.82421875, 106.95341796874999 20.86704101562499, 107.04374999999999 20.836816406249994)), ((106.86562500000002 20.815722656250003, 106.85410156250003 20.79638671875, 106.80312500000002 20.84375, 106.76943359375002 20.864208984374997, 106.79531250000002 20.927929687499997, 106.85507812500003 20.85825195312499, 106.86562500000002 20.815722656250003)), ((106.65253906250001 8.701123046874997, 106.61748046874999 8.682812499999997, 106.58925781250002 8.680517578124991, 106.56796875000003 8.700927734375, 106.65859375000002 8.766357421875, 106.64951171875003 8.722998046874991, 106.65253906250001 8.701123046874997)), ((97.90839843750001 4.8799804687499915, 97.96660156249999 4.777490234374994, 97.99980468749999 4.662255859374994, 98.24843750000002 4.41455078125, 98.27333984375002 4.322314453124989, 98.2412109375 4.194531249999997, 98.30732421875001 4.0928710937499915, 98.5283203125 3.99755859375, 98.65869140625 3.9281249999999943, 98.6865234375 3.8855468749999886, 98.70576171875001 3.8347656249999886, 98.77792968750003 3.7594238281249943, 98.86865234375 3.7103515624999943, 99.15117187499999 3.581249999999997, 99.521484375 3.3111816406249943, 99.73232421875002 3.183056640624997, 99.90664062500002 2.9881835937499943, 99.96943359375001 2.8949218749999943, 100.02128906249999 2.7942382812499886, 100.12724609374999 2.6476074218749943, 100.30722656250003 2.4666015624999886, 100.45703125 2.2574218749999915, 100.52382812500002 2.189160156249997, 100.60361328125003 2.136962890625, 100.68525390625001 2.120068359374997, 100.81679687500002 1.9892578125, 100.88789062500001 1.9482421875, 100.87666015625001 2.0505859374999886, 100.81689453125 2.1401855468749886, 100.81777343750002 2.1942382812499943, 100.82822265625003 2.2425781249999943, 100.87705078125003 2.2833007812499915, 100.93593750000002 2.2947265624999886, 101.04619140624999 2.2574707031249943, 101.22519531250003 2.102246093749997, 101.30078125 2.0118164062499915, 101.35761718750001 1.8870117187499886, 101.40507812499999 1.7574218749999915, 101.47666015625003 1.6930664062499972, 101.57499999999999 1.6705566406249943, 101.68427734375001 1.6612304687499915, 101.78476562500003 1.6213867187499886, 102.01992187500002 1.442138671875, 102.09804687500002 1.35791015625, 102.1572265625 1.2588867187499915, 102.19794921875001 1.1416992187499915, 102.22333984375001 1.0187011718749943, 102.23906249999999 0.9903320312499915, 102.38994140624999 0.8419921874999972, 102.46923828125 0.779296875, 102.56640625 0.7488281249999886, 102.84941406249999 0.7154785156249943, 102.94931640625003 0.6642089843749943, 103.03183593750003 0.5789062499999886, 103.06650390625003 0.4919921874999886, 103.00751953125001 0.4153320312499886, 102.78632812500001 0.2977539062499943, 102.55000000000001 0.2164550781249943, 102.77958984374999 0.2444824218749915, 102.89589843750002 0.2786132812499886, 103.00283203125002 0.3319824218749972, 103.27656250000001 0.4945312499999943, 103.33896484375003 0.5137207031249886, 103.41230468750001 0.5069335937499915, 103.47890625000002 0.4801757812499972, 103.67265624999999 0.2889160156249915, 103.74277343750003 0.1744140624999915, 103.77249154478048 0.0882315513867123, 103.6463783432697 -0.0448252525886684, 103.58945312500003 -0.0687500000000085, 103.42851562499999 -0.1917968750000085, 103.41162109375 -0.2404296875000114, 103.43756369167735 -0.2651369236212799, 102.85528242364529 -0.8794777191204909, 101.7706409248366 -1.8266872697414203, 100.97997103539817 -2.394724100650717, 100.88955078125002 -2.24853515625, 100.84804687500002 -2.1439453125000085, 100.85527343749999 -1.9341796875000057, 100.48652343750001 -1.2991210937500028, 100.39394531250002 -1.1012695312500114, 100.30820312500003 -0.82666015625, 100.087890625 -0.5529296875000114, 100.01669921875003 -0.4742187500000057, 99.9306640625 -0.4001953125000028, 99.86005859375001 -0.3137695312500028, 99.72128906250003 -0.032958984375, 99.66982421875002 0.0450683593749943, 99.59765625 0.1024414062499943, 99.33457031250003 0.2085937499999915, 99.23642578125003 0.2677734374999972, 99.1591796875 0.3517578124999972, 99.11171875000002 0.4589355468749972, 99.0595703125 0.6863769531249915, 98.935546875 1.0319335937499972, 98.79638671875 1.49462890625, 98.70253906250002 1.7019531249999886, 98.59531250000003 1.8645996093749915, 98.56425781249999 1.9021484374999886, 98.08652343750003 2.195068359375, 98.00507812500001 2.2381835937499943, 97.91855468750003 2.2642089843749886, 97.79501953125003 2.2828613281249943, 97.70078125000003 2.3585449218749943, 97.66201171875002 2.4942871093749943, 97.640625 2.6764160156249943, 97.61679687500003 2.785107421874997, 97.5908203125 2.8465820312499943, 97.39130859375001 2.975292968749997, 97.31318359375001 3.0770507812499943, 97.18837890625002 3.2757324218749915, 96.96894531250001 3.575146484374997, 96.89394531250002 3.6537109374999943, 96.80097656250001 3.7085449218749886, 96.525390625 3.7666015625, 96.44472656250002 3.8163085937499943, 96.31083984374999 3.986328125, 96.23007812500003 4.07275390625, 95.98798828125001 4.2632812499999915, 95.57861328125 4.6619628906249915, 95.49472656250003 4.761376953124994, 95.43193359374999 4.865039062499989, 95.38125000000002 4.9761718749999915, 95.20664062500003 5.2840332031249915, 95.220703125 5.346240234374989, 95.2470703125 5.410791015624994, 95.24296874999999 5.464306640624997, 95.22382812500001 5.51708984375, 95.22783203124999 5.5647949218749915, 95.27958984374999 5.5928710937499915, 95.39609375000003 5.628808593749994, 95.51699218750002 5.6246093749999915, 95.62890625 5.609082031249997, 95.7373046875 5.579296874999997, 95.84130859375 5.5145019531249915, 96.02734375 5.3511718749999915, 96.13330078125 5.2942871093749915, 96.25087890625002 5.266992187499994, 96.49257812500002 5.2293457031249915, 96.615234375 5.22021484375, 96.84267578125002 5.274462890624989, 96.9677734375 5.2691406249999915, 97.08574218749999 5.229931640624997, 97.1904296875 5.207324218749989, 97.451171875 5.236035156249997, 97.50019531250001 5.228320312499989, 97.54716796874999 5.205859374999989, 97.70673828125001 5.0401367187499915, 97.90839843750001 4.8799804687499915)), ((105.70935503948573 2.8812008921956327, 105.70791015625002 2.9400878906249943, 105.70419921875003 2.980908203124997, 105.69218749999999 3.0113281249999915, 105.69218749999999 3.0625, 105.77421365935503 3.006106060947498, 105.70935503948573 2.8812008921956327)), ((104.46240234375 0.9955566406249972, 104.43925781249999 1.0504394531249943, 104.2939453125 1.01611328125, 104.251953125 1.014892578125, 104.24423828125003 1.077392578125, 104.25019531250001 1.1026367187499915, 104.36181640625 1.1814941406249915, 104.42841796875001 1.196044921875, 104.50009765625003 1.1802246093749886, 104.58535156250002 1.2161132812499886, 104.59101562500001 1.1410644531249972, 104.60426081892457 1.1326079062346983, 104.4562809063088 0.9438453474184256, 104.42861328125002 0.9564941406249972, 104.46240234375 0.9955566406249972)), ((104.10830078125002 0.9335449218749972, 104.12275390625001 0.9439941406249943, 104.17050781250003 0.896728515625, 104.22705078125 0.8798828125, 104.23935546875003 0.833984375, 104.1767578125 0.8048828124999972, 104.09814453125 0.896240234375, 104.10830078125002 0.9335449218749972)), ((104.16982421875002 2.8568359374999943, 104.18476562500001 2.8717285156249943, 104.22324218750003 2.7742187499999886, 104.22158203125002 2.7317382812499886, 104.17333984375 2.7213378906249943, 104.14687500000002 2.728222656249997, 104.12910156250001 2.7672363281249943, 104.16982421875002 2.8568359374999943)), ((103.99980468749999 1.1372558593749886, 104.02480468750002 1.1805664062499943, 104.08808593750001 1.1370117187499886, 104.13984375000001 1.1655761718749886, 104.12734375000002 1.0923828124999915, 104.06611328125001 0.9895507812499886, 103.96357421875001 1.0132324218749886, 103.93984375000002 1.0464843749999915, 103.93222656250003 1.0713867187499915, 103.94697265625001 1.0870117187499915, 103.95537109374999 1.137451171875, 103.99980468749999 1.1372558593749886)), ((104.02773437500002 10.428369140624994, 104.06396484375 10.390820312499997, 104.0830078125 10.341113281249989, 104.07578125000003 10.224853515625, 104.03681640625001 10.110742187499994, 104.04833984375 10.06103515625, 104.01845703125002 10.029199218749994, 103.9521484375 10.242919921875, 103.86796874999999 10.335400390624997, 103.84951171875002 10.37109375, 103.8984375 10.368505859374991, 103.98583984375 10.426953124999997, 104.02773437500002 10.428369140624994)), ((103.81796875000003 1.4470703124999886, 103.96083984375002 1.3922363281249943, 103.99638671874999 1.365234375, 103.9697265625 1.3314453124999943, 103.81992187500003 1.265380859375, 103.65019531249999 1.3255371093749915, 103.70527343750001 1.4234374999999915, 103.81796875000003 1.4470703124999886)), ((103.806640625 0.8463378906249943, 103.833984375 0.772216796875, 103.74238281250001 0.8299804687499943, 103.74003906249999 0.871826171875, 103.751953125 0.891357421875, 103.806640625 0.8463378906249943)), ((103.36572265625 0.8511230468749886, 103.38613281250002 0.8695800781249972, 103.43310546875 0.8249999999999886, 103.47031250000003 0.7781249999999886, 103.49746093750002 0.7227050781249886, 103.4501953125 0.6644531249999943, 103.4296875 0.65087890625, 103.34443359375001 0.7778808593749886, 103.36572265625 0.8511230468749886)), ((103.35498046875 1.1172363281249886, 103.37998046875003 1.1336425781249915, 103.40488281250003 1.0725585937499886, 103.42392578125003 1.04833984375, 103.4296875 0.9933593749999972, 103.36328125 1.0068359375, 103.3154296875 1.0712890625, 103.35498046875 1.1172363281249886)), ((103.22343749999999 10.781982421875, 103.31777343750002 10.718505859375, 103.28125 10.6796875, 103.22294921874999 10.759570312499989, 103.22343749999999 10.781982421875)), ((103.23818359375002 0.6986328124999943, 103.29511718750001 0.6139648437499972, 103.28447265624999 0.5419433593749972, 103.17216796874999 0.5361816406249886, 103.13955078125002 0.549072265625, 103.1533203125 0.6431152343749886, 103.18740234375002 0.6997558593749886, 103.23818359375002 0.6986328124999943)), ((103.06757812500001 1.0147460937499915, 103.16640625000002 0.8701660156249886, 103.13720703125 0.8416503906249915, 103.08671874999999 0.84814453125, 102.88632812500003 0.9967773437499972, 102.70185546875001 1.0537109375, 102.7255859375 1.1588378906249943, 102.79013671875003 1.1654785156249972, 102.99941406250002 1.0677734374999943, 103.06757812500001 1.0147460937499915)), ((103.00751953125001 11.38330078125, 103.03681640625001 11.389941406249989, 103.04511718750001 11.285058593749994, 103.02734375 11.275488281249991, 103.01054687499999 11.275781249999994, 102.99335937500001 11.290429687499994, 102.99501953125002 11.348095703124997, 103.00751953125001 11.38330078125)), ((102.54921875000002 1.1302246093749915, 102.63320312500002 1.0543945312499972, 102.72617187500003 0.9892089843749972, 102.78007812499999 0.9593749999999943, 102.94414062499999 0.8927246093749943, 103.00244140625 0.8592773437499943, 103.02753906250001 0.7466308593749886, 103.0087890625 0.7081054687499915, 102.97148437499999 0.7365234374999972, 102.77626953125002 0.7795898437499886, 102.71054687500003 0.7843749999999972, 102.54160156250003 0.8315917968749886, 102.49042968750001 0.8566406249999972, 102.45390624999999 0.8895019531249915, 102.46640625000003 0.9503417968749943, 102.49140625000001 0.9868652343749886, 102.50664062499999 1.0887695312499943, 102.54921875000002 1.1302246093749915)), ((102.58994140625003 11.572167968749994, 102.53281250000003 11.614941406249997, 102.54648437500003 11.667773437499989, 102.56894531250003 11.691699218749989, 102.6064453125 11.676513671875, 102.58994140625003 11.572167968749994)), ((102.46953124999999 1.5100585937499886, 102.49189453125001 1.4591796874999972, 102.49941406250002 1.3309082031249915, 102.42519531250002 1.3644531249999972, 102.36689453125001 1.4154785156249972, 102.27421874999999 1.453125, 102.16132812500001 1.4654296874999915, 102.07871093750003 1.4985839843749886, 102.02089843750002 1.5582031249999915, 102.01835937499999 1.5856445312499972, 102.02402343750003 1.6079589843749886, 102.04218750000001 1.6253906249999943, 102.46953124999999 1.5100585937499886)), ((102.44287109375 1.2342285156249915, 102.44882812500003 1.15625, 102.42890625000001 1.0672851562499943, 102.42714843750002 0.9901367187499943, 102.380859375 0.9597656249999886, 102.32529296875003 1.0070312499999972, 102.27958984374999 1.07568359375, 102.25546875000003 1.1471679687499972, 102.23417968749999 1.2639648437499886, 102.22861328125003 1.3478515624999972, 102.25634765625 1.3970703124999915, 102.27646484375003 1.395263671875, 102.35859375000001 1.3456542968749972, 102.41289062499999 1.2607910156249886, 102.44287109375 1.2342285156249915)), ((102.37812500000001 11.982958984374989, 102.35996093750003 11.974414062499989, 102.30195312500001 11.980810546874991, 102.27333984375002 12.119335937499997, 102.27744140625003 12.15185546875, 102.31884765625 12.141650390624989, 102.37812500000001 12.072851562499991, 102.4267578125 11.988720703124997, 102.42998046874999 11.964746093749994, 102.37812500000001 11.982958984374989)), ((101.64072265625003 2.126708984375, 101.70810546875003 2.0784179687499886, 101.76230468750003 1.9965332031249972, 101.77353515625003 1.9434570312499915, 101.73408203125001 1.882568359375, 101.71943359375001 1.7891601562499915, 101.60273437500001 1.7157226562499943, 101.50078124999999 1.7332031249999886, 101.4677734375 1.7593749999999915, 101.40341796875003 1.9013183593749972, 101.40966796875 2.021679687499997, 101.45029296875003 2.067822265624997, 101.54472656249999 2.060742187499997, 101.64072265625003 2.126708984375)), ((101.32841796874999 3.047607421875, 101.31855468750001 2.988476562499997, 101.26806640625 2.970410156249997, 101.26542968749999 2.9964843749999943, 101.27421874999999 3.0328124999999915, 101.31123046875001 3.0673828125, 101.32841796874999 3.047607421875)), ((100.17929687500003 -2.8202148437500085, 100.19853515624999 -2.7855468750000085, 100.24560546875 -2.783203125, 100.30120235953233 -2.8413980013329008, 100.19202266549743 -2.905020306986661, 100.17929687500003 -2.8202148437500085)), ((100.24550781250002 5.4677734375, 100.31015625000003 5.437939453124997, 100.3388671875 5.410058593749994, 100.28896484375002 5.294726562499989, 100.26376953125003 5.266992187499994, 100.19101562500003 5.282861328124994, 100.20390624999999 5.4468749999999915, 100.24550781250002 5.4677734375)), ((100.01494140624999 -2.8197265625000085, 99.99189453125001 -2.769824218750003, 99.99687499999999 -2.6493164062500085, 99.96816406250002 -2.6097656250000085, 99.98789062500003 -2.525390625, 100.01191406250001 -2.51025390625, 100.20195312499999 -2.6796875, 100.2041015625 -2.741015625000003, 100.13271484375002 -2.8213867187500057, 100.01494140624999 -2.8197265625000085)), ((99.96240234375 9.421630859375, 99.93125000000003 9.47607421875, 99.93955078125003 9.559960937499994, 99.95361328125 9.581005859374997, 100.04296875 9.576855468749997, 100.07070312500002 9.586035156249991, 100.07529296875003 9.529443359374994, 100.0537109375 9.46142578125, 99.96240234375 9.421630859375)), ((100.04345703125 9.791650390624994, 100.07304687499999 9.749121093749991, 100.07412109375002 9.696679687499994, 100.064453125 9.679980468749989, 100.02568359374999 9.711718749999989, 99.998046875 9.747607421874989, 99.9833984375 9.793554687499991, 100.04345703125 9.791650390624994)), ((99.74921875000001 6.409619140624997, 99.84804687500002 6.465722656249994, 99.91865234375001 6.358593749999997, 99.86582031250003 6.297070312499997, 99.8232421875 6.312744140625, 99.78261718750002 6.2715820312499915, 99.74375000000003 6.2632812499999915, 99.70468750000003 6.337548828124994, 99.65664062500002 6.367138671874997, 99.64628906249999 6.418359374999994, 99.71054687500003 6.4273437499999915, 99.74921875000001 6.409619140624997)), ((99.81572265624999 -2.2843750000000114, 99.84785156250001 -2.3697265625000057, 99.68515625000003 -2.28173828125, 99.60703125000003 -2.2575195312500114, 99.53740234374999 -2.1615234375000085, 99.55888671874999 -2.1154296875000114, 99.56181640624999 -2.0511718750000085, 99.57216796875002 -2.0257812500000085, 99.6220703125 -2.0166015625, 99.68642578125002 -2.0633789062500085, 99.73476562500002 -2.177734375, 99.81572265624999 -2.2843750000000114)), ((99.64404296875 6.51611328125, 99.60664062500001 6.596826171874994, 99.65400390625001 6.714111328125, 99.70136718750001 6.570556640625, 99.6630859375 6.521923828124997, 99.64404296875 6.51611328125)), ((99.10146484375002 -1.3401367187500028, 99.14042968749999 -1.41845703125, 99.13066406249999 -1.4423828125, 99.21035156250002 -1.5592773437500114, 99.26728515625001 -1.6277343750000028, 99.271484375 -1.7384765625000114, 99.16386718749999 -1.7779296875000057, 99.07177734375 -1.7834960937500028, 98.87431640624999 -1.6636718750000057, 98.82773437500003 -1.6099609375000057, 98.81630859375002 -1.5382812500000114, 98.626953125 -1.2613281250000057, 98.60175781250001 -1.1978515625000057, 98.67607421874999 -0.9705078125000028, 98.86904296875002 -0.9156250000000057, 98.9326171875 -0.9540039062500085, 98.95478515625001 -1.0562500000000057, 99.06503906250003 -1.24072265625, 99.10146484375002 -1.3401367187500028)), ((99.04511718750001 7.636523437499989, 99.07841796874999 7.591845703124989, 99.10439453125002 7.4712890624999915, 99.06787109375 7.495898437499989, 99.03769531250003 7.548486328124994, 99.0380859375 7.625732421875, 99.04511718750001 7.636523437499989)), ((98.52529296875002 12.005175781249989, 98.60957031250001 11.956640624999991, 98.57646484374999 11.925097656249989, 98.47431640625001 11.8994140625, 98.45449218750002 12.061279296875, 98.46621093750002 12.084277343749989, 98.52529296875002 12.005175781249989)), ((98.59199218750001 7.9339355468749915, 98.57998046875002 7.917041015624989, 98.52939453125003 8.108544921874994, 98.60429687499999 8.057324218749997, 98.59199218750001 7.9339355468749915)), ((98.39687500000002 11.683544921874997, 98.39951171875003 11.71484375, 98.37646484375 11.79150390625, 98.52353515625003 11.804931640625, 98.55380859375003 11.744873046875, 98.52841796875003 11.538671874999991, 98.46484375 11.567187499999989, 98.43476562500001 11.567089843749997, 98.39687500000002 11.683544921874997)), ((98.52011718750003 -0.3796875000000028, 98.45927734374999 -0.5304687500000114, 98.39970703124999 -0.5768554687500114, 98.30966796875003 -0.5318359375000057, 98.33994140625003 -0.4678710937500057, 98.35478515624999 -0.3792968750000085, 98.40878906250003 -0.3089843750000085, 98.42714843750002 -0.2264648437500085, 98.32294921875001 -0.0007812500000028, 98.37451171875 0.007080078125, 98.41542968750002 -0.0175292968750114, 98.484375 -0.1676757812500114, 98.54414062500001 -0.2576171875000028, 98.52011718750003 -0.3796875000000028)), ((98.51894531250002 10.959374999999994, 98.47744140625002 10.979736328125, 98.52656250000001 11.086962890624989, 98.54169921875001 10.961523437499991, 98.51894531250002 10.959374999999994)), ((98.43642578125002 12.570507812499997, 98.46826171875 12.571337890624989, 98.45947265625 12.473730468749991, 98.380859375 12.353662109374994, 98.33447265625 12.336181640625, 98.31386718750002 12.335986328124989, 98.33144531250002 12.511425781249997, 98.30253906249999 12.611572265625, 98.31210937500003 12.678173828124997, 98.396484375 12.647119140624994, 98.41396484375002 12.597949218749989, 98.43642578125002 12.570507812499997)), ((98.3984375 7.828417968749989, 98.357421875 7.8294433593749915, 98.31562500000001 7.7823242187499915, 98.29628906250002 7.776074218749997, 98.26230468750003 7.926074218749989, 98.30136718750003 8.13623046875, 98.32207031249999 8.166308593749989, 98.35097656250002 8.110644531249989, 98.43496093750002 8.085644531249997, 98.39882812500002 7.964550781249997, 98.40908203125002 7.902050781249997, 98.3984375 7.828417968749989)), ((98.25458984375001 13.188574218749991, 98.26533203125001 13.202246093749991, 98.29863281249999 13.151660156249989, 98.3154296875 13.099072265624997, 98.30917968750003 12.934716796874994, 98.25927734375 13.014013671874991, 98.25078124999999 13.104394531249994, 98.25458984375001 13.188574218749991)), ((98.30751953125002 9.051464843749997, 98.25078124999999 9.040820312499989, 98.25839843750003 9.095410156249997, 98.27363281250001 9.1298828125, 98.30117187500002 9.139111328124997, 98.3125 9.080371093749989, 98.30751953125002 9.051464843749997)), ((98.2216796875 11.478222656249997, 98.21621093750002 11.455761718749997, 98.18730468749999 11.472412109375, 98.20107421875002 11.567187499999989, 98.23906249999999 11.644726562499997, 98.27812499999999 11.758398437499991, 98.29960937499999 11.783007812499989, 98.30751953125002 11.722900390625, 98.28378906250003 11.594091796874991, 98.26328125000003 11.523632812499997, 98.2216796875 11.478222656249997)), ((98.29345703125 10.779687499999994, 98.271484375 10.739892578124994, 98.25175781249999 10.744433593749989, 98.21816406250002 10.837744140624991, 98.15537109375003 10.89794921875, 98.08046875000002 10.886621093749994, 98.142578125 10.963134765625, 98.16728515624999 10.980322265624991, 98.20976562499999 10.952734374999991, 98.29345703125 10.779687499999994)), ((98.14023437500003 9.974658203124989, 98.220703125 10.045214843749989, 98.29169921875001 10.051318359374989, 98.28339843750001 10.007617187499989, 98.23124999999999 9.953955078124991, 98.1826171875 9.933447265624991, 98.13437500000003 9.875390624999994, 98.11806640625002 9.877880859374997, 98.14023437500003 9.974658203124989)), ((98.1201171875 12.191308593749994, 98.13671875 12.150439453124989, 98.12509765625003 12.144873046874991, 98.07539062500001 12.164453124999994, 98.03730468750001 12.232470703124989, 98.05732421875001 12.280078124999989, 98.07138671875003 12.291796874999989, 98.12246093750002 12.278710937499994, 98.12841796875 12.26123046875, 98.11845703124999 12.223388671875, 98.1201171875 12.191308593749994)), ((98.07548828124999 11.6923828125, 98.08359375000003 11.636816406249991, 98.02109375000003 11.695898437499991, 98.01035156250003 11.860253906249994, 98.0595703125 11.756689453124991, 98.08076171875001 11.733203124999989, 98.07548828124999 11.6923828125)), ((97.93867187500001 12.346093749999994, 97.990234375 12.393798828125, 98.04511718750001 12.387011718749989, 98.05986328124999 12.397851562499994, 98.06611328125001 12.389794921874994, 98.06035156249999 12.353515625, 98.00234375000002 12.279003906249997, 97.95175781250003 12.322314453124989, 97.93867187500001 12.346093749999994)), ((97.46123046874999 0.94140625, 97.40537109375003 0.9469726562499972, 97.36884765625001 1.0569335937499886, 97.296875 1.1873535156249915, 97.07919921875003 1.4254882812499972, 97.24423828125003 1.4236328124999886, 97.32441406250001 1.4816406249999972, 97.3427734375 1.5279296874999915, 97.35595703125 1.5397460937499972, 97.48154296875003 1.465087890625, 97.69833984375003 1.1837402343749943, 97.78642578124999 1.1458984374999943, 97.90322265625002 1.0182617187499972, 97.93193359374999 0.9739257812499886, 97.90205078125001 0.8842285156249972, 97.87646484375 0.6283203124999943, 97.82041015625003 0.564453125, 97.68398437500002 0.5960937499999943, 97.68251953125002 0.6410644531249972, 97.60390625000002 0.8338867187499943, 97.46123046874999 0.94140625)), ((97.48037109375002 16.305712890625003, 97.46914062500002 16.46103515624999, 97.51640624999999 16.496875000000003, 97.5419921875 16.505078124999997, 97.57900390625002 16.486035156249997, 97.599609375 16.42954101562499, 97.58935546875 16.397363281249994, 97.57499999999999 16.253222656250003, 97.53720703125003 16.240136718749994, 97.48037109375002 16.305712890625003)), ((97.10830078125002 2.2168945312499915, 97.15664062500002 2.2322265624999886, 97.25283203125002 2.216015624999997, 97.29140625000002 2.2008300781249943, 97.32871093750003 2.1485351562499915, 97.33417968750001 2.075634765624997, 97.32832031250001 2.0532714843749886, 97.22509765625 2.1584960937499886, 97.10830078125002 2.2168945312499915)), ((95.80625000000003 2.916015625, 95.89580078124999 2.8890624999999943, 95.99785156249999 2.7813964843749943, 96.1015625 2.7412109375, 96.12978515625002 2.720898437499997, 96.17998046874999 2.661328124999997, 96.41728515624999 2.5151855468749886, 96.45937500000002 2.4158203124999886, 96.46367187499999 2.3600097656249943, 96.40097656250003 2.3506835937499915, 96.34062499999999 2.3720703125, 96.29042968750002 2.4295898437499943, 96.02197265625 2.5957519531249886, 95.9384765625 2.5984374999999886, 95.87978515625002 2.6409179687499886, 95.80859375 2.6556152343749915, 95.73300781250003 2.7665039062499943, 95.71718750000002 2.8259765624999886, 95.77216796875001 2.85498046875, 95.80625000000003 2.916015625)), ((95.24199218749999 5.907031249999989, 95.35917968749999 5.876757812499989, 95.36601562499999 5.842675781249994, 95.36210937499999 5.812402343749994, 95.34257812499999 5.784130859374997, 95.283203125 5.798535156249997, 95.21767578125002 5.8895019531249915, 95.24199218749999 5.907031249999989)), ((94.83818359374999 15.89208984375, 94.80488281250001 15.8193359375, 94.78437500000001 15.793847656249994, 94.73349609375003 15.823046875000003, 94.82802734375002 15.933007812499994, 94.83818359374999 15.89208984375)), ((94.54599609375003 16.15283203125, 94.60126953125001 16.205517578124997, 94.61865234375 16.141308593749997, 94.56611328125001 16.019287109375, 94.47675781250001 15.945947265624994, 94.41191406249999 15.848388671875, 94.38789062500001 15.994140625, 94.49375000000003 16.075341796874994, 94.54599609375003 16.15283203125)), ((93.64404296875 19.495068359374997, 93.68837890625002 19.54443359375, 93.71484375 19.558251953124994, 93.82949218750002 19.475292968749997, 93.87470703125001 19.48105468749999, 93.94570312500002 19.428613281249994, 93.94746093750001 19.408154296874997, 93.93398437500002 19.365429687499997, 93.90195312500003 19.33203125, 93.81523437499999 19.29868164062499, 93.755859375 19.32568359375, 93.73232421875002 19.416308593750003, 93.66220703125003 19.458935546874997, 93.64404296875 19.495068359374997)), ((93.65800781249999 7.016064453124997, 93.65634765625003 7.13623046875, 93.68417968750003 7.18359375, 93.82246093750001 7.236621093749989, 93.85898437500003 7.206835937499989, 93.92958984375002 6.9734863281249915, 93.89003906250002 6.8310546875, 93.82880859375001 6.748681640624994, 93.70927734374999 7.000683593749997, 93.65800781249999 7.016064453124997)), ((93.48750000000001 18.86752929687499, 93.61826171875003 18.888818359374994, 93.74472656250003 18.865527343750003, 93.74550781250002 18.808056640624997, 93.71835937500003 18.715722656249994, 93.67402343750001 18.675683593749994, 93.56992187500003 18.759570312500003, 93.48750000000001 18.86752929687499)), ((93.73359375000001 7.356494140624989, 93.63847656249999 7.261865234374994, 93.59726562500003 7.318749999999994, 93.6142578125 7.358105468749997, 93.69248046875003 7.410595703124997, 93.73359375000001 7.356494140624989)), ((93.49003906249999 8.019433593749994, 93.47822265625001 8.024462890624989, 93.47177734375003 8.052685546874997, 93.45644531250002 8.171875, 93.49404296875002 8.224658203124989, 93.53164062500002 8.213769531249994, 93.51162109375002 8.159765624999991, 93.53691406249999 8.056640625, 93.49003906249999 8.019433593749994)), ((93.51328125000003 19.754785156249994, 93.44462890624999 19.806445312500003, 93.41953125000003 19.877587890624994, 93.41289062499999 19.950341796874994, 93.49179687500003 19.892578125, 93.51328125000003 19.754785156249994)), ((93.30937499999999 7.964013671874994, 93.33447265625 8.006933593749991, 93.37548828125 8.017919921874991, 93.43369140625003 7.948388671874994, 93.44736328125003 7.899121093749997, 93.44257812500001 7.877832031249994, 93.36503906249999 7.8765624999999915, 93.30937499999999 7.964013671874994)), ((93.14072265625003 8.24951171875, 93.17060546875001 8.212060546874994, 93.115234375 8.218505859375, 93.06425781249999 8.274951171874989, 93.07753906250002 8.327880859375, 93.09697265624999 8.349365234375, 93.14072265625003 8.24951171875)), ((92.69472656250002 12.214697265624991, 92.76923828125001 12.215576171875, 92.78828125000001 12.225781249999997, 92.77763671874999 12.302539062499989, 92.73408203125001 12.3359375, 92.71894531250001 12.357324218749994, 92.720703125 12.541259765625, 92.73203125000003 12.615624999999994, 92.75917968750002 12.669091796874994, 92.74003906249999 12.779638671874991, 92.75312500000001 12.820898437499991, 92.80703125000002 12.87890625, 92.83085937499999 13.002636718749997, 92.80898437500002 13.039599609374989, 92.86015624999999 13.230566406249991, 92.85732421875002 13.358105468749997, 92.92460937499999 13.48583984375, 93.02939453125003 13.543847656249994, 93.06230468749999 13.545458984375003, 93.06669921874999 13.436474609374997, 93.07666015625 13.400683593750003, 93.01601562500002 13.336181640625, 93.07382812500003 13.252099609374994, 93.06611328125001 13.221582031249994, 93.04296875 13.154882812499991, 93.00468749999999 13.08935546875, 92.95136718750001 13.0625, 92.90996093749999 12.975195312499991, 92.88623046875 12.942285156249994, 92.96503906250001 12.850488281249994, 92.990234375 12.538525390624997, 92.9326171875 12.453076171874997, 92.86367187500002 12.43603515625, 92.87949218750003 12.227929687499994, 92.8671875 12.181445312499989, 92.798828125 12.079248046874994, 92.78623046875003 12.03466796875, 92.74765625000003 11.992773437499991, 92.76396484374999 11.9404296875, 92.79677734375002 11.917529296874989, 92.79755859375001 11.874658203124994, 92.76699218750002 11.7646484375, 92.7646484375 11.63916015625, 92.72275390625003 11.536083984374997, 92.70078125000003 11.512548828124991, 92.66835937500002 11.538720703124994, 92.57558593750002 11.718212890624997, 92.55966796875003 11.833447265624997, 92.53388671875001 11.873388671874991, 92.56650390625003 11.930517578124991, 92.60751953125003 11.949511718749989, 92.6318359375 12.013867187499997, 92.640625 12.112207031249994, 92.67646484375001 12.1923828125, 92.69472656250002 12.214697265624991)), ((93.06210937500003 11.8994140625, 92.98173828124999 11.95947265625, 92.95537109374999 12.00244140625, 92.99580078125001 12.031787109374989, 93.01738281249999 12.036816406249997, 93.06210937500003 11.8994140625)), ((93.01015625000002 19.92392578124999, 93.02324218749999 19.828857421875, 92.97519531250003 19.86801757812499, 92.91269531250003 19.999804687500003, 92.91464843750003 20.086474609375003, 92.95957031250003 20.046191406250003, 93.01015625000002 19.92392578124999)), ((92.71328125000002 9.204882812499989, 92.76210937500002 9.243896484375, 92.78574218750003 9.240527343749989, 92.80927734375001 9.173388671874989, 92.78750000000002 9.136669921874997, 92.74355468750002 9.130957031249991, 92.71660156249999 9.165087890624989, 92.71328125000002 9.204882812499989)), ((92.71757812499999 12.864892578124994, 92.68574218750001 12.799951171874994, 92.6796875 12.939257812499989, 92.69443359375003 12.956787109375, 92.71064453125001 12.961572265624994, 92.73085937500002 12.948535156249989, 92.71757812499999 12.864892578124994)), ((92.69003906250003 11.463427734374989, 92.69316406249999 11.381152343749989, 92.64453125 11.361328125, 92.595703125 11.386425781249997, 92.63388671875003 11.4267578125, 92.64023437500003 11.509130859374991, 92.69003906250003 11.463427734374989)), ((92.36953125000002 10.547412109374989, 92.37714843750001 10.650585937499997, 92.35283203124999 10.751123046874994, 92.37070312500003 10.793505859374989, 92.44785156250003 10.865527343749989, 92.51035156250003 10.8974609375, 92.55400390624999 10.7998046875, 92.57431640625003 10.704248046874994, 92.50283203125002 10.554882812499997, 92.47265625 10.520751953125, 92.36953125000002 10.547412109374989)), ((91.87324218750001 21.574414062499997, 91.85703125000003 21.708789062500003, 91.90771484375 21.722949218750003, 91.93398437500002 21.72216796875, 91.9619140625 21.609765624999994, 91.94921875 21.508056640625, 91.88886718750001 21.503320312499994, 91.85947265625003 21.532958984375, 91.87324218750001 21.574414062499997)), ((91.861328125 21.926660156249994, 91.88251953125001 21.88364257812499, 91.87382812499999 21.83212890624999, 91.83759765625001 21.750244140625, 91.81972656250002 21.809814453125, 91.83515625000001 21.88535156249999, 91.85068359375003 21.927050781250003, 91.861328125 21.926660156249994)), ((91.41132812500001 22.47568359374999, 91.43886718750002 22.598828124999997, 91.4560546875 22.616503906250003, 91.48398437500003 22.576562499999994, 91.52304687500003 22.49072265625, 91.55673828125003 22.382226562499994, 91.51044921875001 22.352783203125, 91.46689453125003 22.37841796875, 91.41132812500001 22.47568359374999)), ((91.04472656249999 22.105175781249997, 91.07949218750002 22.519726562499997, 91.15830078125003 22.365429687499997, 91.17822265625 22.283007812500003, 91.15078125000002 22.175195312499994, 91.04472656249999 22.105175781249997)), ((90.67226562500002 22.813183593749997, 90.69921875 22.713525390624994, 90.73691406250003 22.638720703125003, 90.8681640625 22.48486328125, 90.86582031250003 22.390576171874997, 90.82988281249999 22.159960937500003, 90.77763671874999 22.089306640624997, 90.60361328125003 22.05419921875, 90.51503906250002 22.065136718749997, 90.68046874999999 22.32749023437499, 90.67490234375003 22.444970703124994, 90.64921874999999 22.540673828124994, 90.56494140625 22.617626953124997, 90.56035156249999 22.672558593749997, 90.52255859375003 22.747509765624997, 90.5029296875 22.835351562499994, 90.59648437499999 22.863525390625, 90.67226562500002 22.813183593749997)), ((90.57988281249999 23.035449218750003, 90.64179687500001 22.96298828124999, 90.65957031250002 22.92001953124999, 90.60390625000002 22.945556640625, 90.56230468749999 22.97543945312499, 90.53632812500001 23.014892578125, 90.57988281249999 23.035449218750003)), ((81.1982421875 8.661962890624991, 81.21923828125 8.6083984375, 81.21621093750002 8.549414062499991, 81.22695312500002 8.505517578124994, 81.27460937500001 8.483593749999997, 81.333984375 8.472070312499994, 81.37285156249999 8.431445312499989, 81.42216796874999 8.215234374999994, 81.42216796874999 8.147851562499994, 81.66542968750002 7.782470703125, 81.6787109375 7.7415527343749915, 81.68291015624999 7.684472656249994, 81.72734374999999 7.625, 81.79667968749999 7.464794921874997, 81.83203125 7.428417968749997, 81.87412109375003 7.288330078125, 81.876953125 7.020458984374997, 81.86142578125003 6.901269531249994, 81.81855468750001 6.7562011718749915, 81.76777343750001 6.614306640624989, 81.71269531249999 6.511865234374994, 81.63740234375001 6.4251464843749915, 81.37998046875003 6.240917968749997, 81.30625000000003 6.203857421875, 80.97109375000002 6.08837890625, 80.72412109375 5.979052734374989, 80.49580078125001 5.949365234374994, 80.26738281249999 6.009765625, 80.09531250000003 6.1531738281249915, 80.00722656250002 6.364404296874994, 79.94697265625001 6.584521484374989, 79.859375 6.829296874999997, 79.79208984375003 7.585205078125, 79.70781249999999 8.065673828125, 79.71298828125003 8.182324218749997, 79.74980468749999 8.294238281249989, 79.74970703125001 8.048876953124989, 79.78349609374999 8.018457031249994, 79.80888671874999 8.049999999999997, 79.83193359375002 8.304052734374991, 79.85087890624999 8.411572265624997, 79.94179687500002 8.691503906249991, 79.92890625000001 8.899218749999989, 80.06484375000002 9.095654296874997, 80.099609375 9.2099609375, 80.11835937500001 9.326855468749997, 80.11093750000003 9.453271484374994, 80.08632812500002 9.577832031249997, 80.19609374999999 9.538134765624989, 80.25644531250003 9.494775390624994, 80.31796875000003 9.465429687499991, 80.36796874999999 9.48046875, 80.42832031250003 9.48095703125, 80.38535156250003 9.548779296874997, 80.25761718749999 9.611279296874997, 80.04580078125002 9.64990234375, 79.9794921875 9.699365234374994, 79.95400390625002 9.742333984374994, 79.96699218750001 9.792626953124994, 79.98232421875002 9.812695312499997, 80.18095703124999 9.810009765624997, 80.25283203125002 9.796337890624997, 80.3759765625 9.642333984375, 80.71113281250001 9.366357421874994, 80.89345703125002 9.085888671874997, 80.91005859375002 9.024511718749991, 80.93544921875002 8.971484374999989, 80.97919921875001 8.956933593749994, 81.01601562500002 8.9326171875, 81.1982421875 8.661962890624991)), ((79.845703125 9.714648437499989, 79.87226562500001 9.744335937499997, 79.88847656249999 9.741162109374997, 79.91191406249999 9.679150390624997, 79.96953124999999 9.630664062499989, 79.90683593750003 9.619824218749997, 79.857421875 9.686376953124991, 79.845703125 9.714648437499989)), ((79.85996093750003 9.065722656249989, 79.87480468749999 9.050732421874997, 79.90371093750002 8.974999999999994, 79.76679687500001 9.069775390624997, 79.74765625000003 9.104589843749991, 79.85996093750003 9.065722656249989)))