MULTIPOLYGON (((73.60771484375002 15.87109375, 73.47607421875 16.054248046875003, 73.4537109375 16.152099609375, 73.33759765625001 16.459863281249994, 73.23916015625002 17.198535156250003, 73.1490234375 17.52744140624999, 73.15605468750002 17.62192382812499, 73.04716796875002 17.90673828125, 72.99394531250002 18.097705078125003, 72.97207031250002 18.25927734375, 72.94316406250002 18.365624999999994, 72.91718750000001 18.576123046874997, 72.87548828125 18.642822265625, 72.87089843750002 18.683056640624997, 72.89873046875002 18.778955078124994, 72.97685546875002 18.927197265624997, 73.00556640625001 19.02109374999999, 72.97207031250002 19.1533203125, 72.90068359375002 19.01450195312499, 72.83466796875001 18.9755859375, 72.80302734375002 19.079296874999997, 72.802734375 19.21875, 72.79453125 19.252099609374994, 72.81162109375 19.29892578124999, 72.98720703125002 19.27744140624999, 72.78789062500002 19.362988281249997, 72.76396484375002 19.41318359374999, 72.7564453125 19.45053710937499, 72.7994140625 19.519824218750003, 72.7265625 19.578271484374994, 72.69746093750001 19.757128906250003, 72.66777343750002 19.830957031249994, 72.708984375 20.078027343749994, 72.88115234375002 20.563183593749997, 72.89375000000001 20.672753906249994, 72.87890625 20.828515624999994, 72.84052734375001 20.95249023437499, 72.81386718750002 21.1171875, 72.7515625 21.129150390625, 72.6923828125 21.177636718749994, 72.62382812500002 21.371972656249994, 72.6865234375 21.435742187499997, 72.73476562500002 21.47080078124999, 72.66835937500002 21.45590820312499, 72.61328125 21.461816406249994, 72.810546875 21.619921875000003, 73.0224609375 21.699609374999994, 73.11250000000001 21.750439453124997, 72.9791015625 21.70468749999999, 72.83974609375002 21.687255859375, 72.54306640625 21.696582031250003, 72.59248046875001 21.877587890624994, 72.64404296875 21.93798828125, 72.7001953125 21.971923828125, 72.61748046875002 21.961718750000003, 72.52226562500002 21.976220703124994, 72.55302734375002 22.159960937500003, 72.6279296875 22.199609374999994, 72.70878906250002 22.207177734374994, 72.8091796875 22.233300781249994, 72.70195312500002 22.263623046874997, 72.59013671875002 22.278125000000003, 72.45595703125002 22.248095703125003, 72.3326171875 22.270214843749997, 72.18281250000001 22.269726562499997, 72.24257812500002 22.245166015625003, 72.30644531250002 22.189208984375, 72.2744140625 22.089746093749994, 72.24433593750001 22.027636718750003, 72.16171875 21.984814453124997, 72.09443359375001 21.919970703125003, 72.07558593750002 21.862988281249997, 72.03720703125 21.823046875000003, 72.1708984375 21.774316406249994, 72.21035156250002 21.728222656249997, 72.25664062500002 21.66123046874999, 72.25400390625 21.531005859375, 72.07656250000002 21.224072265624997, 72.015234375 21.155712890624997, 71.57109375000002 20.97055664062499, 71.396484375 20.869775390624994, 71.02460937500001 20.73886718749999, 70.87968750000002 20.714501953124994, 70.7193359375 20.740429687499997, 70.48505859375001 20.84018554687499, 70.12734375000002 21.094677734374997, 70.03437500000001 21.17880859374999, 69.74843750000002 21.50571289062499, 69.5419921875 21.67856445312499, 69.38544921875001 21.839550781249997, 69.19169921875002 21.991503906250003, 69.0087890625 22.19677734375, 68.96992187500001 22.290283203125, 68.98349609375 22.385400390624994, 69.05166015625002 22.437304687500003, 69.13134765625 22.416259765625, 69.19423828125002 22.336083984374994, 69.2388671875 22.300195312499994, 69.27656250000001 22.28549804687499, 69.54921875000002 22.408398437499997, 69.65517578125002 22.403515624999997, 69.7275390625 22.46518554687499, 69.81904296875001 22.45175781249999, 70.005859375 22.54770507812499, 70.08417968750001 22.553515625000003, 70.17724609375 22.57275390625, 70.327734375 22.81577148437499, 70.4404296875 22.97031249999999, 70.51347656250002 23.002490234375003, 70.509375 23.04013671874999, 70.4892578125 23.089501953124994, 70.4345703125 23.077099609374997, 70.339453125 22.939746093750003, 70.25117187500001 22.970898437499997, 70.19169921875002 22.96567382812499, 70.11826171875 22.947021484375, 69.84980468750001 22.8564453125, 69.73964843750002 22.775195312500003, 69.6646484375 22.759082031250003, 69.2359375 22.848535156249994, 68.81708984375001 23.0537109375, 68.64072265625 23.18994140625, 68.52919921875002 23.364062500000003, 68.41748046875 23.571484374999997, 68.45380859375001 23.62949218749999, 68.77675781250002 23.852099609375003, 68.64238281250002 23.808496093749994, 68.49687500000002 23.747998046874997, 68.42490234375 23.70556640625, 68.343359375 23.616845703124994, 68.2349609375 23.596972656250003, 68.1919921875 23.728906249999994, 68.1650390625 23.857324218749994, 68.14882812500002 23.79721679687499, 68.11552734375002 23.753369140624997, 68.03701171875002 23.84824218749999, 68.00146484375 23.826074218749994, 67.95097656250002 23.82861328125, 67.8599609375 23.90268554687499, 67.81904296875001 23.828076171874997, 67.66845703125 23.810986328124997, 67.64951171875 23.86728515624999, 67.64580078125002 23.919873046874997, 67.5630859375 23.8818359375, 67.50361328125001 23.94003906249999, 67.47685546875002 24.018261718749997, 67.42763671875002 24.064843749999994, 67.365234375 24.091601562500003, 67.30937500000002 24.1748046875, 67.288671875 24.36777343749999, 67.171484375 24.756103515625, 67.1005859375 24.791943359374997, 66.70302734375002 24.86093749999999, 66.6822265625 24.928857421874994, 66.70986328125002 25.111328125, 66.69863281250002 25.226318359375, 66.569921875 25.37851562499999, 66.53388671875001 25.484375, 66.42861328125002 25.575341796874994, 66.32421875 25.601806640625, 66.21904296875002 25.589892578125003, 66.16230468750001 25.553906249999997, 66.13115234375002 25.49326171874999, 66.3564453125 25.507373046875003, 66.40712890625002 25.485058593749997, 66.46767578125002 25.4453125, 66.4029296875 25.446826171875003, 66.32832031250001 25.465771484374997, 66.23466796875002 25.46435546875, 65.88359375000002 25.419628906249997, 65.6796875 25.355273437500003, 65.40625 25.374316406250003, 65.06132812500002 25.311083984375003, 64.77666015625002 25.307324218749997, 64.65898437500002 25.18408203125, 64.59404296875002 25.206298828125, 64.54375000000002 25.23666992187499, 64.15205078125001 25.333447265624997, 64.12490234375002 25.373925781249994, 64.05937500000002 25.40292968749999, 63.9873046875 25.35117187499999, 63.935546875 25.342529296875, 63.72089843750001 25.385888671874994, 63.556640625 25.353173828124994, 63.495703125000006 25.297509765624994, 63.49140625000001 25.210839843749994, 63.285742187500006 25.227587890625003, 63.170019531250006 25.2548828125, 63.01503906250002 25.224658203125003, 62.66474609375001 25.264794921874994, 62.57246093750001 25.25473632812499, 62.44472656250002 25.197265625, 62.391210937500006 25.152539062499997, 62.31533203125002 25.134912109374994, 62.24873046875001 25.19736328124999, 62.19863281250002 25.224853515625, 62.15214843750002 25.20664062499999, 62.089453125000006 25.155322265625003, 61.90791015625001 25.131298828124997, 61.74365234375 25.13818359375, 61.53310546875002 25.195507812499997, 61.490332031250006 25.15366210937499, 61.412207031250006 25.102099609375003, 61.24296875000002 25.141992187499994, 61.10859375000001 25.183886718750003, 60.66386718750002 25.2822265625, 60.61513671875002 25.329833984375, 60.587500000000006 25.413525390624997, 60.51054687500002 25.437060546875003, 60.40019531250002 25.311572265625003, 60.02470703125002 25.38413085937499, 59.897070312500006 25.36181640625, 59.818359375 25.40087890625, 59.61601562500002 25.403271484374997, 59.4560546875 25.481494140625003, 59.22724609375001 25.427734375, 59.04609375000001 25.417285156250003, 58.7978515625 25.554589843749994, 58.530859375000006 25.592431640624994, 58.31425781250002 25.580859375000003, 58.20292968750002 25.591601562500003, 58.02236328125002 25.640820312499997, 57.936621093750006 25.691650390625, 57.79609375000001 25.653027343749997, 57.732519531250006 25.724902343750003, 57.334570312500006 25.791552734375003, 57.26093750000001 25.918847656249994, 57.20556640625 26.03720703125, 57.20136718750001 26.158837890624994, 57.10429687500002 26.371435546875, 57.07197265625001 26.680078124999994, 57.03603515625002 26.800683593749994, 56.98222656250002 26.905468749999997, 56.91044921875002 26.994580078124997, 56.81289062500002 27.089990234374994, 56.728125000000006 27.127685546875, 56.35615234375001 27.200244140624996, 56.28437500000001 27.190624999999997, 56.11806640625002 27.143115234374996, 55.94111328125001 27.03759765625, 55.65029296875002 26.9775390625, 55.59160156250002 26.93212890625, 55.5185546875 26.829931640625, 55.42402343750001 26.770556640624996, 55.29414062500001 26.785937499999996, 55.15458984375002 26.725390624999996, 54.89580078125002 26.556689453124996, 54.75927734375 26.505078124999997, 54.64492187500002 26.508935546874994, 54.522070312500006 26.589160156249996, 54.2470703125 26.696630859375, 54.0693359375 26.732373046874997, 53.82255859375002 26.707714843749997, 53.70576171875001 26.7255859375, 53.50712890625002 26.851757812499997, 53.45498046875002 26.943261718749994, 53.34169921875002 27.0044921875, 52.982519531250006 27.141943359375, 52.69160156250001 27.323388671874994, 52.63818359375 27.391992187499994, 52.602636718750006 27.493359374999997, 52.47587890625002 27.616503906249996, 52.19189453125 27.71728515625, 52.03076171875 27.824414062499997, 51.84199218750001 27.8482421875, 51.66630859375002 27.844970703125, 51.58906250000001 27.864208984374997, 51.5185546875 27.910009765625, 51.278906250000006 28.13134765625, 51.27607421875001 28.21884765625, 51.12841796875 28.43515625, 51.093847656250006 28.512109374999994, 51.06201171875 28.726123046874996, 51.02119140625001 28.782080078125, 50.86699218750002 28.870166015624996, 50.84296875000001 28.92783203125, 50.87578125000002 29.00439453125, 50.87578125000002 29.062695312499997, 50.795507812500006 29.117431640625, 50.67519531250002 29.14658203125, 50.646093750000006 29.212207031249996, 50.66796875 29.33984375, 50.64960937500001 29.420068359374994, 50.543554687500006 29.547998046874994, 50.38691406250001 29.679052734375, 50.23017578125001 29.872900390625, 50.1689453125 29.921240234375, 50.07158203125002 30.198535156249996, 49.98310546875001 30.209374999999994, 49.55488281250001 30.028955078124994, 49.42998046875002 30.13046875, 49.054296875000006 30.306933593749996, 49.02812500000002 30.333447265624997, 49.001953125 30.373925781249994, 49.04902343750001 30.397265624999996, 49.09619140625 30.406787109374996, 49.19033203125002 30.375390624999994, 49.24726562500001 30.412499999999994, 49.22451171875002 30.472314453124994, 49.13037109375 30.509423828124994, 49.001953125 30.506542968749997, 49.037109375 30.450488281249996, 48.91679687500002 30.397265624999996, 48.891210937500006 30.32763671875, 48.90869140625 30.241455078125, 48.91914062500001 30.120898437499996, 48.8701171875 30.062402343749994, 48.83242187500002 30.035498046875, 48.6708984375 30.0283203125, 48.59550781250002 29.975048828124997, 48.454199218750006 29.9384765625, 48.354589843750006 29.956738281249997, 48.141699218750006 30.040917968749994, 48.07275390625 30.043212890625, 47.982519531250006 30.011328125, 47.9736328125 29.9458984375, 48.00566406250002 29.835791015625, 48.13613281250002 29.618115234374997, 48.14345703125002 29.572460937499997, 48.089453125000006 29.5791015625, 48.04833984375 29.597509765625, 47.96962890625002 29.61669921875, 47.72529296875001 29.416943359374997, 47.72265625 29.393017578124997, 47.845312500000006 29.36572265625, 47.93535156250002 29.366601562499994, 47.998144531250006 29.385546874999996, 48.05146484375001 29.355371093749994, 48.08632812500002 29.27548828125, 48.10039062500002 29.210742187499996, 48.18378906250001 28.979394531249994, 48.2529296875 28.901269531249994, 48.33925781250002 28.76328125, 48.3896484375 28.631591796875, 48.49853515625 28.448876953124994, 48.523046875000006 28.355029296874996, 48.62636718750002 28.132568359375, 48.77373046875002 27.95908203125, 48.80898437500002 27.895898437499994, 48.83281250000002 27.800683593749994, 48.807226562500006 27.765283203124994, 48.79716796875002 27.724316406249997, 48.90644531250001 27.629052734374994, 49.0869140625 27.548583984375, 49.15751953125002 27.528222656249994, 49.23750000000001 27.492724609374996, 49.17509765625002 27.437646484374994, 49.28154296875002 27.310498046874997, 49.4052734375 27.180957031249996, 49.537695312500006 27.151757812499994, 49.71650390625001 26.955859374999996, 49.98613281250002 26.828906249999996, 50.14980468750002 26.662646484374996, 50.13466796875002 26.659521484375, 50.0263671875 26.69921875, 50.00810546875002 26.678515624999996, 50.011328125000006 26.608789062499994, 50.02734375 26.52685546875, 50.11074218750002 26.455957031249994, 50.18496093750002 26.404931640624994, 50.2138671875 26.308496093749994, 50.15546875000001 26.100537109374997, 50.05390625000001 26.122851562499996, 50.03164062500002 26.110986328124994, 50.0810546875 25.961376953124997, 50.13027343750002 25.846630859374997, 50.18964843750001 25.755810546874997, 50.23896484375001 25.622851562500003, 50.28125 25.566113281249997, 50.455175781250006 25.4248046875, 50.50849609375001 25.306689453125003, 50.55791015625002 25.086669921875, 50.66689453125002 24.963818359374997, 50.7255859375 24.869384765625, 50.80439453125001 24.789257812499997, 50.8359375 24.850390625000003, 50.846777343750006 24.888574218749994, 50.77734375 25.177441406249997, 50.75458984375001 25.39926757812499, 50.76289062500001 25.444726562499994, 50.80263671875002 25.4970703125, 50.86865234375 25.612695312499994, 50.90380859375 25.724072265624997, 51.00312500000001 25.9814453125, 51.10810546875001 26.08056640625, 51.262304687500006 26.153271484374997, 51.38906250000002 26.011132812499994, 51.543066406250006 25.902392578125003, 51.572265625 25.781005859375, 51.526953125000006 25.68212890625, 51.4853515625 25.524707031250003, 51.51025390625 25.452343749999997, 51.51953125 25.38974609374999, 51.56142578125002 25.284472656250003, 51.60195312500002 25.14794921875, 51.60888671875 25.052880859374994, 51.5869140625 24.96484375, 51.53339843750001 24.890869140625, 51.42792968750001 24.668261718750003, 51.396484375 24.64511718749999, 51.26796875000002 24.607226562500003, 51.338476562500006 24.564355468749994, 51.411230468750006 24.57080078125, 51.41835937500002 24.530957031249997, 51.36992187500002 24.47690429687499, 51.30986328125002 24.340380859375003, 51.47675781250001 24.30820312499999, 51.534765625000006 24.286328124999997, 51.568359375 24.286181640625003, 51.60546875 24.338427734375003, 51.623144531250006 24.301074218750003, 51.66455078125 24.250439453124997, 51.73476562500002 24.26279296874999, 51.767578125 24.25439453125, 51.79169921875001 24.074755859375003, 51.84316406250002 24.010888671874994, 51.90605468750002 23.9853515625, 52.11855468750002 23.971093749999994, 52.25087890625002 23.99521484374999, 52.51142578125001 24.112499999999997, 52.64824218750002 24.15463867187499, 53.0263671875 24.14731445312499, 53.32958984375 24.098437500000003, 53.8017578125 24.069482421874994, 53.89335937500002 24.077050781249994, 54.14794921875 24.171191406250003, 54.304296875000006 24.254296874999994, 54.397070312500006 24.27817382812499, 54.45839843750002 24.35825195312499, 54.49882812500002 24.462695312500003, 54.53466796875 24.530957031249997, 54.58046875000002 24.563525390625003, 54.624121093750006 24.621289062499997, 54.65898437500002 24.715527343749997, 54.74677734375001 24.810449218749994, 55.09814453125 25.04160156249999, 55.30351562500002 25.23681640625, 55.32167968750002 25.2998046875, 55.43339843750002 25.394482421874997, 55.52285156250002 25.49814453124999, 55.94121093750002 25.793994140625003, 56.02519531250002 25.916015625, 56.07460937500002 26.052783203124996, 56.16445312500002 26.20703125, 56.197265625 26.229199218749997, 56.22841796875002 26.219775390624996, 56.30556640625002 26.235205078125, 56.34648437500002 26.313623046874994, 56.37871093750002 26.356347656249994, 56.4130859375 26.351171875, 56.429785156250006 26.327197265624996, 56.41640625000002 26.108740234375, 56.373632812500006 25.804589843749994, 56.32929687500001 25.751953125, 56.307226562500006 25.70932617187499, 56.2978515625 25.650683593750003, 56.36347656250001 25.569384765625003, 56.37285156250002 25.018310546875, 56.489843750000006 24.716357421875003, 56.640625 24.47031249999999, 56.77412109375001 24.33457031249999, 56.91250000000002 24.150195312500003, 57.123046875 23.980712890625, 57.219824218750006 23.922753906249994, 57.611328125 23.803662109374997, 57.82509765625002 23.75913085937499, 58.12041015625002 23.716552734375, 58.32451171875002 23.623828125000003, 58.393164062500006 23.6181640625, 58.5 23.645654296874994, 58.57802734375002 23.643457031249994, 58.773046875000006 23.51718749999999, 58.83037109375002 23.3974609375, 58.91152343750002 23.334179687499997, 58.9833984375 23.23471679687499, 59.029882812500006 23.130566406249997, 59.19472656250002 22.971874999999997, 59.31093750000002 22.793359374999994, 59.42939453125001 22.660839843749997, 59.53515625 22.578515624999994, 59.69560546875002 22.546142578125, 59.8232421875 22.508984374999997, 59.837500000000006 22.420556640624994, 59.82441406250001 22.30517578125, 59.80000000000001 22.219921874999997, 59.68085937500001 22.05380859374999, 59.65253906250001 21.951367187499997, 59.517578125 21.78232421874999, 59.37148437500002 21.498828125000003, 59.30449218750002 21.435351562500003, 59.06875000000002 21.2890625, 58.89570312500001 21.11279296875, 58.6904296875 20.80712890625, 58.5341796875 20.50390625, 58.474218750000006 20.406884765624994, 58.348730468750006 20.386914062499997, 58.26601562500002 20.395458984374997, 58.208984375 20.423974609374994, 58.23164062500001 20.5068359375, 58.24501953125002 20.59921874999999, 58.16943359375 20.589501953124994, 58.10292968750002 20.570361328125003, 57.94716796875002 20.34360351562499, 57.86181640625 20.244140625, 57.84365234375002 20.117724609375003, 57.80214843750002 19.95458984375, 57.7412109375 19.804492187500003, 57.71416015625002 19.678417968749997, 57.71513671875002 19.60693359375, 57.760839843750006 19.43222656249999, 57.76396484375002 19.253320312499994, 57.811621093750006 19.01708984375, 57.73847656250001 18.977343750000003, 57.67578125 18.95786132812499, 57.42792968750001 18.943798828124997, 57.17656250000002 18.902587890625, 56.95722656250001 18.827832031249997, 56.82597656250002 18.75351562499999, 56.65507812500002 18.587353515624997, 56.55078125 18.165966796874997, 56.38349609375001 17.987988281249997, 56.27031250000002 17.95078124999999, 55.997656250000006 17.935205078124994, 55.613867187500006 17.88608398437499, 55.479101562500006 17.84326171875, 55.25537109375 17.585644531249997, 55.23818359375002 17.50473632812499, 55.28144531250001 17.446240234374997, 55.29560546875001 17.381591796875, 55.27519531250002 17.32089843749999, 55.17373046875002 17.157617187499994, 55.06416015625001 17.03891601562499, 54.77187500000002 16.964648437500003, 54.664648437500006 17.00888671874999, 54.566503906250006 17.03125, 54.376953125 17.033642578124997, 54.06816406250002 17.005517578124994, 53.95439453125002 16.91782226562499, 53.775390625 16.855712890625, 53.60986328125 16.759960937499997, 53.29775390625002 16.723339843749997, 52.58144531250002 16.470361328124994, 52.44843750000001 16.391259765624994, 52.327734375000006 16.29355468749999, 52.2373046875 16.17138671875, 52.17402343750001 15.956835937500003, 52.22207031250002 15.760595703124991, 52.21748046875001 15.655517578125, 52.08730468750002 15.5859375, 51.9658203125 15.535693359375003, 51.83076171875001 15.459277343750003, 51.748632812500006 15.440136718749997, 51.68154296875002 15.379101562499997, 51.60371093750001 15.336816406249994, 51.32246093750001 15.226269531249997, 51.01513671875 15.140771484374994, 50.52705078125001 15.038183593749991, 50.33857421875001 14.927197265624997, 50.16689453125002 14.851025390624997, 49.906347656250006 14.828125, 49.54863281250002 14.722412109375, 49.42255566367038 14.668728645266455, 48.42784797707986 15.719735471126564, 47.51275983609853 16.873781946708153, 46.7029620349573 18.103492596097418, 46.006425208634695 19.399254883869975, 45.430864838726585 20.750840632023106, 44.98375630161223 22.147424499151544, 44.67232990676785 23.577595988020892, 44.50353621185705 25.029367037201116, 44.139429683624385 29.795606848869788, 43.0579783862037 33.47250043722519, 42.68940122100835 34.89797559604835, 42.47605860464239 36.344011929821384, 42.42771094416848 37.79842817145031, 42.55403094218517 39.248390719316994, 42.86436157576342 40.68039388181043, 43.36735368623985 42.080254460679406, 44.07046012913609 43.43313306485885, 44.979270059971284 44.7235976425966, 46.09668172023132 45.935747264179874, 47.42193782166579 47.053415143270996, 48.949585583754434 48.060467797215146, 50.66847120578317 48.9412104594806, 52.560927368388256 49.68089607477059, 54.60234610632294 50.26631642464608, 56.76132686024309 50.686431483238934, 59.00053233972011 50.93297219455356, 61.278269635434924 51.000939758796235, 63.5506624224392 50.888927972054546, 65.77413744160003 50.59921688332798, 67.90786667718199 50.1376221515676, 69.91581840913304 49.51312516455658, 71.76817080287728 48.73734237909964, 73.44199139416475 47.8239097929494, 74.921232104535 46.78785775303797, 76.1961916467402 45.645036418298446, 77.26264017350694 44.41163031658851, 78.12079289695983 43.10377850401627, 78.77428021721977 41.737299381218996, 79.22921215028964 40.32750793936786, 79.49338893999278 38.88910768805085, 79.57567467024192 37.43613830446314, 79.48552778651904 35.98196149492331, 78.97444516994123 31.042454230448897, 78.82148255065641 29.88075770711982, 78.5723257849366 28.731847295561632, 77.20129698821906 22.915277401954786, 76.8260270962453 21.498543919745405, 76.31827443618934 20.120772337529996, 75.68540135072907 18.79312247239953, 74.93501172282576 17.526161649617418, 74.07495597572156 16.329849493713482, 73.63226148112835 15.815921943930409, 73.60771484375002 15.87109375)), ((58.641210937500006 20.337353515624997, 58.78798828125002 20.49658203125, 58.884375000000006 20.680566406249994, 58.950781250000006 20.516162109375003, 58.83515625000001 20.42392578124999, 58.77226562500002 20.266845703125, 58.72207031250002 20.21875, 58.65908203125002 20.20361328125, 58.64091796875002 20.210693359375, 58.641210937500006 20.337353515624997)), ((55.295019531250006 26.639208984374996, 55.296484375000006 26.657568359375, 55.34697265625002 26.64794921875, 55.53173828125 26.710009765624996, 55.76259765625002 26.811962890624997, 55.78457031250002 26.857177734375, 55.74746093750002 26.930957031249996, 55.75761718750002 26.947656249999994, 55.90712890625002 26.909814453124994, 56.07412109375002 26.983349609374997, 56.213964843750006 27.003271484375, 56.279394531250006 26.952099609374997, 56.18798828125 26.921142578125, 56.09492187500001 26.801171874999994, 55.95429687500001 26.701123046874997, 55.894140625000006 26.732275390625, 55.84765625 26.730810546875, 55.74726562500001 26.69248046875, 55.67460937500002 26.685839843749996, 55.54316406250001 26.617529296875, 55.42373046875002 26.58310546875, 55.3115234375 26.592626953125, 55.295019531250006 26.639208984374996)), ((53.49941406250002 12.425341796874989, 53.31582031250002 12.533154296874997, 53.38847656250002 12.601855468749989, 53.403906250000006 12.633349609374989, 53.43095703125002 12.66357421875, 53.53496093750002 12.715771484374997, 53.63847656250002 12.707373046874991, 53.76318359375 12.636816406249991, 53.824804687500006 12.624804687499989, 53.918554687500006 12.659423828125, 54.18740234375002 12.664013671874997, 54.51113281250002 12.552783203124989, 54.45000000000002 12.5234375, 54.41376953125001 12.483300781249994, 54.27128906250002 12.446630859374991, 54.129492187500006 12.360644531249989, 53.718847656250006 12.318994140624994, 53.59833984375001 12.34228515625, 53.49941406250002 12.425341796874989)), ((54.33476562500002 24.47104492187499, 54.37890625 24.504589843749997, 54.39833984375002 24.50634765625, 54.42656250000002 24.47104492187499, 54.465429687500006 24.442773437499994, 54.456640625000006 24.42333984375, 54.42841796875001 24.425097656250003, 54.35771484375002 24.442773437499994, 54.33476562500002 24.47104492187499)), ((53.79912109375002 24.135546875000003, 53.7158203125 24.145312500000003, 53.63447265625001 24.16977539062499, 53.68964843750001 24.21079101562499, 53.83378906250002 24.258935546874994, 53.89375000000001 24.215136718750003, 53.927832031250006 24.177197265624997, 53.92812500000002 24.143359375000003, 53.82636718750001 24.153125000000003, 53.79912109375002 24.135546875000003)), ((53.33251953125 24.341601562500003, 53.37089843750002 24.364453124999997, 53.41240234375002 24.411035156249994, 53.4453125 24.37119140624999, 53.40898437500002 24.307910156250003, 53.38261718750002 24.28085937499999, 53.33222656250001 24.258593750000003, 53.25830078125 24.2529296875, 53.19091796875 24.290917968749994, 53.33251953125 24.341601562500003)), ((52.65761718750002 24.33261718749999, 52.61689453125001 24.28857421875, 52.60000000000002 24.281298828125003, 52.58222656250001 24.335253906250003, 52.583593750000006 24.352343750000003, 52.62939453125 24.376757812500003, 52.65761718750002 24.33261718749999)), ((50.60722656250002 25.883105468750003, 50.57490234375001 25.806787109374994, 50.544042968750006 25.83349609375, 50.465917968750006 25.965527343749997, 50.48945312500001 26.058447265625, 50.45244140625002 26.190820312499994, 50.46992187500001 26.228955078124997, 50.564062500000006 26.246435546875, 50.5859375 26.24072265625, 50.55781250000001 26.198291015624996, 50.60976562500002 26.124462890624997, 50.61748046875002 26.002343749999994, 50.60722656250002 25.883105468750003)), ((48.22773437500001 29.936328124999996, 48.348242187500006 29.782666015624997, 48.34736328125001 29.719970703125, 48.34023437500002 29.694726562499994, 48.275390625 29.624316406249996, 48.21826171875 29.601953124999994, 48.1796875 29.61142578125, 48.142578125 29.665283203125, 48.08144531250002 29.79892578125, 48.11474609375 29.848779296874994, 48.1201171875 29.886328125, 48.13886718750001 29.89658203125, 48.15859375000002 29.9595703125, 48.18476562500001 29.978857421875, 48.22773437500001 29.936328124999996)))