MULTIPOLYGON (((112.02519531249999 21.843017578125, 111.94394531250003 21.849658203125003, 111.92646484375001 21.776269531249994, 111.87343750000002 21.71713867187499, 111.82460937500002 21.709765625000003, 111.77597656250003 21.71923828125, 111.7119140625 21.655224609374997, 111.681640625 21.60849609374999, 111.60273437500001 21.55908203125, 111.39238281249999 21.535107421874997, 111.31914062499999 21.486132812500003, 111.22060546875002 21.493896484375, 111.14423828125001 21.482226562500003, 111.1005859375 21.48471679687499, 111.06113281250003 21.510986328125, 111.01689453124999 21.51171875, 110.99677734375001 21.43027343749999, 110.87802734375003 21.395947265624997, 110.77109375000003 21.386523437500003, 110.65214843749999 21.279101562500003, 110.56718749999999 21.214062499999997, 110.50429687500002 21.207421874999994, 110.4580078125 21.23056640624999, 110.4345703125 21.326904296875, 110.41093749999999 21.338134765625, 110.3974609375 21.247705078124994, 110.37460937500003 21.17236328125, 110.33115234375003 21.13134765625, 110.19355468750001 21.037646484375003, 110.15400390625001 20.944628906250003, 110.18037109375001 20.858593749999997, 110.36542968750001 20.837597656249997, 110.38847656249999 20.79052734375, 110.37050781250002 20.75205078124999, 110.326171875 20.719921874999997, 110.31308593750003 20.671679687500003, 110.51152343749999 20.518261718749997, 110.517578125 20.460009765625003, 110.48691406250003 20.42685546874999, 110.44951171874999 20.355419921874997, 110.3447265625 20.294824218749994, 110.12314453125003 20.263720703125003, 109.9384765625 20.295117187499997, 109.88251953125001 20.364062500000003, 109.88583984375003 20.413134765625003, 109.931640625 20.398876953124997, 109.98388671875 20.403271484374997, 109.96835937500003 20.448144531249994, 109.94638671875003 20.474365234375, 109.86103515625001 20.514306640624994, 109.7919921875 20.621875000000003, 109.80527343750003 20.711474609375003, 109.76738281249999 20.780712890624997, 109.72626953125001 20.838769531249994, 109.68476562500001 20.87363281249999, 109.66259765625 20.916894531249994, 109.70449218750002 21.052734375, 109.68125000000003 21.131640625000003, 109.76015625000002 21.22836914062499, 109.77958984374999 21.337451171875003, 109.92109375000001 21.37646484375, 109.93076171875003 21.48056640624999, 109.82958984375 21.483593749999997, 109.75937500000003 21.56005859375, 109.74335937500001 21.527978515624994, 109.68691406250002 21.524609374999997, 109.59433593750003 21.67197265624999, 109.56640625 21.690576171874994, 109.521484375 21.693408203125003, 109.54404296875003 21.53793945312499, 109.435546875 21.4794921875, 109.3466796875 21.45395507812499, 109.22041015625001 21.443408203125003, 109.14863281250001 21.425537109375, 109.08154296875 21.44028320312499, 109.09814453125 21.487353515625003, 109.13349609375001 21.543603515624994, 109.10175781250001 21.590478515624994, 109.03056640624999 21.626513671875003, 108.92177734375002 21.624414062499994, 108.84638671875001 21.634472656249997, 108.77167968750001 21.63046874999999, 108.67451171875001 21.724658203125003, 108.61582031250003 21.770458984374997, 108.58935546875 21.815966796875003, 108.61582031250003 21.868896484375, 108.59375 21.901025390624994, 108.47988281250002 21.90463867187499, 108.49257812500002 21.739404296874994, 108.52568359374999 21.67138671875, 108.50214843750001 21.633447265624994, 108.4443359375 21.607324218749994, 108.3828125 21.67919921875, 108.35458984375003 21.696923828124994, 108.32480468750003 21.693505859374994, 108.30214843750002 21.62192382812499, 108.24628906250001 21.558398437500003, 108.14560546875003 21.565185546875, 108.0673828125 21.52597656249999, 107.92578125 21.498925781249994, 107.80908203125 21.497119140625003, 107.70722656250001 21.40585937499999, 107.63671875 21.368066406249994, 107.52695312500003 21.336230468750003, 107.40996093749999 21.284814453124994, 107.37617187500001 21.194140625000003, 107.37333984374999 21.128466796875003, 107.35429687499999 21.05517578125, 107.16474609375001 20.94873046875, 107.11171875000002 20.95957031249999, 107.0751953125 20.999267578125, 107.01923828125001 20.9912109375, 106.9814453125 20.971386718749997, 106.93642578125002 20.974072265624997, 106.88623046875 20.950000000000003, 106.82060546874999 20.95751953125, 106.76025390625 20.991113281249994, 106.72519531250003 20.999902343749994, 106.68339843749999 21.000292968750003, 106.67548828125001 20.960498046875003, 106.7373046875 20.80615234375, 106.75341796875 20.735058593749997, 106.55078125 20.526562499999997, 106.57285156250003 20.39218749999999, 106.51796875000002 20.288867187500003, 106.3955078125 20.20590820312499, 106.16572265625001 19.99204101562499, 106.06220703125001 19.987353515625003, 105.98408203125001 19.93906249999999, 105.81396484375 19.587451171875003, 105.81210937500003 19.466992187499997, 105.78535156250001 19.378857421874997, 105.79111328125003 19.294189453125, 105.71640625000003 19.12778320312499, 105.63906250000002 19.057177734375003, 105.62177734375001 18.96630859375, 105.80820312500003 18.64584960937499, 105.83925781250002 18.574169921874997, 105.88828125000003 18.502490234375003, 106.06562500000001 18.316357421874997, 106.14453125 18.259423828124994, 106.23955078124999 18.220703125, 106.41191406249999 18.053173828124997, 106.4990234375 17.946435546874994, 106.45937500000002 17.873681640624994, 106.47890625000002 17.71958007812499, 106.35585937500002 17.765039062499994, 106.37050781250002 17.746875000000003, 106.51679687500001 17.662792968749997, 106.73574218750002 17.3671875, 106.92617187500002 17.221386718749997, 107.11992187499999 17.05551757812499, 107.18037109375001 16.89794921875, 107.35507812500003 16.793750000000003, 107.54931640625 16.642578125, 107.5449835527029 16.605433252885092, 107.23423630072399 16.356493708341556, 106.01083456091034 15.53666508779261, 104.72071688000372 14.822985582783073, 103.37310207632846 14.22120763862019, 101.97756852021735 13.73632194858664, 100.90224992466149 13.463411585693612, 100.65605468749999 13.521289062500003, 100.60292968750002 13.568164062500003, 100.53642578124999 13.514453125000003, 100.23564453124999 13.484472656249991, 100.12236328124999 13.439550781249991, 100.01748046875002 13.353173828124994, 100.0003406099219 13.283403424525876, 99.08276204592255 13.133039132752875, 98.58326354487681 13.094955617292635, 98.57597656249999 13.161914062499989, 98.48710937499999 13.293066406249991, 98.42128906250002 13.483789062499994, 98.24541015624999 13.733496093749991, 98.24843750000002 13.840380859375003, 98.23896484375001 13.934472656249994, 98.20039062500001 13.980175781249997, 98.14951171875003 13.647607421874994, 98.11064453124999 13.712890625, 98.09824218750003 13.898339843749994, 98.07265625000002 13.986474609374994, 98.10019531250003 14.161523437499994, 97.99843750000002 14.335302734374991, 97.9765625 14.461474609375003, 97.90976562500003 14.652685546874991, 97.92929687500003 14.695556640625, 98.01875000000001 14.652587890625, 97.9365234375 14.763916015625, 97.869140625 14.738720703124997, 97.81230468749999 14.858935546875003, 97.7998046875 15.184912109374991, 97.74375000000003 15.306787109374994, 97.77421874999999 15.430957031250003, 97.71035156250002 15.875537109375003, 97.58427734374999 16.019580078125003, 97.640625 16.253857421874997, 97.63369140625002 16.457666015624994, 97.66464843750003 16.520458984374997, 97.72597656250002 16.568554687499997, 97.61962890625 16.53720703124999, 97.50507812500001 16.525292968749994, 97.37587890625002 16.52294921875, 97.3310546875 16.671777343749994, 97.26748046875002 16.743115234374997, 97.21171874999999 16.892578125, 97.17832031250003 17.06201171875, 97.2001953125 17.095410156249997, 97.10019531250003 17.16455078125, 97.07451171874999 17.206933593749994, 96.97011718750002 17.317333984374997, 96.85146484375002 17.401025390624994, 96.87773437499999 17.342187499999994, 96.90976562500003 17.304833984374994, 96.85087890624999 17.202929687500003, 96.90859375000002 17.030957031249997, 96.85800781250003 16.921191406250003, 96.81064453125003 16.778369140625003, 96.76542968749999 16.710351562499994, 96.62246093750002 16.563916015624997, 96.50664062499999 16.514355468749997, 96.43115234375 16.504931640625003, 96.36435546875003 16.5205078125, 96.2822265625 16.595996093750003, 96.26210937500002 16.659130859374997, 96.24892578125002 16.765332031249997, 96.22031250000003 16.780566406250003, 96.18906250000003 16.768310546875, 96.23769531250002 16.631249999999994, 96.23671875000002 16.567431640625003, 96.32431640625003 16.44443359374999, 96.29306640625003 16.410058593749994, 96.13505859374999 16.342529296875, 96.08095703125002 16.35336914062499, 96.04287109375002 16.33994140624999, 96.03212890625002 16.284619140624997, 96.01230468750003 16.253710937500003, 95.76328125000003 16.16904296874999, 95.71142578125 16.073388671874994, 95.67949218749999 15.976757812499997, 95.5556640625 15.837841796874997, 95.38955078125002 15.722753906249991, 95.34843749999999 15.729296875000003, 95.30146484375001 15.756152343750003, 95.30781250000001 15.880419921875003, 95.36474609375 15.985449218749991, 95.34677734375003 16.097607421874997, 95.3330078125 16.033251953125003, 95.22587890624999 15.876806640624991, 95.17695312500001 15.82568359375, 95.07832031250001 15.839160156250003, 94.94257812500001 15.818261718749994, 94.89121093750003 15.979101562499991, 94.89218750000003 16.03818359374999, 94.88222656250002 16.087939453125003, 94.89785156250002 16.140820312499997, 94.89316406250003 16.182812499999997, 94.86015624999999 16.102441406249994, 94.84775390625003 16.032861328124994, 94.79814453124999 15.971093749999994, 94.66152343750002 15.904394531249991, 94.6513671875 16.064843749999994, 94.68076171875003 16.13330078125, 94.67656249999999 16.24204101562499, 94.71992187500001 16.398730468750003, 94.70332031250001 16.511914062499997, 94.67900390624999 16.425585937500003, 94.66523437500001 16.336132812499997, 94.6376953125 16.30908203125, 94.58750000000003 16.288818359375, 94.49570312500003 16.18613281249999, 94.44160156250001 16.094384765624994, 94.29902343750001 16.007617187500003, 94.22382812500001 16.01645507812499, 94.21425781250002 16.126611328124994, 94.27128906249999 16.517285156249997, 94.32734375000001 16.572167968749994, 94.35341796875002 16.639941406250003, 94.40000000000003 16.8681640625, 94.45244140624999 16.954492187499994, 94.47314453125 17.135449218749997, 94.564453125 17.308544921874997, 94.58896484375003 17.5693359375, 94.56005859375 17.698974609375, 94.49433593750001 17.824609374999994, 94.43076171875003 18.20166015625, 94.26582031250001 18.507226562499994, 94.25214843750001 18.609179687500003, 94.17070312499999 18.732421875, 94.24570312500003 18.741162109374997, 94.09130859375 18.84921874999999, 94.07001953125001 18.89340820312499, 94.03896484375002 19.146191406249997, 94.044921875 19.287402343750003, 94.0224609375 19.268798828125, 94.00156250000003 19.181787109374994, 93.94101562500003 19.14609374999999, 93.96806640624999 18.995068359374997, 93.96132812500002 18.958398437499994, 93.92919921875 18.899658203125, 93.80009765624999 18.960595703124994, 93.70546875000002 19.026904296875003, 93.59814453125 19.1884765625, 93.49306640625002 19.36948242187499, 93.53056640624999 19.39755859374999, 93.57861328125 19.401171875000003, 93.72802734375 19.266503906249994, 93.82490234375001 19.238476562499997, 93.88613281250002 19.271923828124997, 93.96201171875003 19.329345703125, 93.99814453125003 19.440869140624997, 93.96074218749999 19.481689453125, 93.88789062500001 19.50390625, 93.83955078125001 19.534130859374997, 93.76992187500002 19.609570312499997, 93.73955078124999 19.697265625, 93.66874999999999 19.731982421875003, 93.61171875000002 19.776074218749997, 93.65986328125001 19.854150390624994, 93.70703125 19.912158203125003, 93.58183593749999 19.909570312499994, 93.43906250000003 20.009423828124994, 93.40957031250002 20.038330078125, 93.3623046875 20.058300781249997, 93.25 20.070117187500003, 93.15664062500002 20.040771484375, 93.19902343749999 19.898339843749994, 93.19062500000001 19.851220703124994, 93.12949218750003 19.85800781249999, 93.001953125 20.074853515624994, 93.04033203124999 20.129785156249994, 93.09550781249999 20.181347656249997, 93.068359375 20.188671874999997, 93.01513671875 20.185253906249997, 93.06679687500002 20.377636718749997, 93.03535156250001 20.406152343749994, 93.01875000000001 20.34604492187499, 92.99072265625 20.287988281249994, 92.88212890624999 20.152148437500003, 92.82832031250001 20.17758789062499, 92.79121093750001 20.21142578125, 92.84355468749999 20.282617187499994, 92.87167968750003 20.3017578125, 92.89111328125 20.34033203125, 92.85068359375003 20.414843750000003, 92.78691406249999 20.469042968750003, 92.73564453124999 20.562695312499997, 92.708984375 20.56396484375, 92.73261718750001 20.453369140625, 92.72285156250001 20.295605468749997, 92.60800781250003 20.469873046874994, 92.37832031250002 20.717578125000003, 92.32412109375002 20.79184570312499, 92.30781250000001 20.790429687499994, 92.19462890624999 20.984277343749994, 92.05605468750002 21.1748046875, 92.01093750000001 21.516259765624994, 92.00800781250001 21.684765624999997, 91.91318359375003 21.883056640625, 91.85000000000002 22.157373046874994, 91.82480468750003 22.228662109374994, 91.86337890625003 22.350488281249994, 91.84541015625001 22.34311523437499, 91.79707031250001 22.29746093749999, 91.73408203125001 22.406689453124997, 91.69296875000003 22.504785156249994, 91.52968750000002 22.707666015624994, 91.48212890625001 22.797412109375003, 91.48007812500003 22.884814453125003, 91.40957031250002 22.797021484374994, 91.31376953124999 22.735156250000003, 91.21621093750002 22.642236328124994, 91.1513671875 22.614062500000003, 90.94560546874999 22.59702148437499, 90.82675781250003 22.721386718749997, 90.65625 23.02548828124999, 90.63359374999999 23.09423828125, 90.65605468749999 23.27304687499999, 90.61562500000002 23.442333984374997, 90.61611328125002 23.531640624999994, 90.60400390625 23.591357421875003, 90.57343750000001 23.578125, 90.56162109375003 23.537109375, 90.56806640625001 23.474267578124994, 90.5556640625 23.421533203124994, 90.40800781249999 23.431884765625, 90.26914062500003 23.455859375000003, 90.39150390625002 23.366943359375, 90.52275390624999 23.346142578124997, 90.59091796875003 23.266406250000003, 90.59921875000003 23.204150390625003, 90.59511718750002 23.133935546874994, 90.52773437500002 23.0849609375, 90.46601562500001 23.053906249999997, 90.4775390625 22.986767578124997, 90.55224609375 22.90488281249999, 90.46162109375001 22.881787109374997, 90.43691406250002 22.828173828125003, 90.43505859375 22.751904296874997, 90.48066406250001 22.68466796874999, 90.49843750000002 22.634814453125003, 90.48740234375003 22.58872070312499, 90.53173828125 22.539306640625, 90.59550781249999 22.435839843750003, 90.61611328125002 22.36215820312499, 90.58945312500003 22.258447265624994, 90.55283203125003 22.218164062499994, 90.494140625 22.178906249999997, 90.35576171874999 22.048242187499994, 90.28818359375003 21.8994140625, 90.23056640625003 21.829785156249997, 90.15878906250003 21.816845703124997, 90.13076171875002 21.847412109375, 90.07119140625002 21.887255859375003, 90.07001953125001 21.959912109374997, 90.087890625 22.017480468749994, 90.20957031250003 22.15659179687499, 90.14345703125002 22.137890624999997, 89.95419921875003 22.022851562499994, 89.91806640625003 22.116162109374997, 89.89404296875 22.202587890624997, 89.89384765624999 22.308398437500003, 89.98515624999999 22.46640624999999, 89.8818359375 22.387597656249994, 89.85322265625001 22.288964843749994, 89.86582031250003 22.173046874999997, 89.8525390625 22.09091796874999, 89.81191406250002 21.98349609374999, 89.7568359375 21.91904296874999, 89.66777343749999 21.877685546875, 89.62812500000001 21.814160156249997, 89.56855468750001 21.76743164062499, 89.56660156250001 21.860595703125, 89.54746093750003 21.983691406250003, 89.48320312499999 22.275537109374994, 89.46933593750003 22.212939453125003, 89.50253906250003 22.031884765624994, 89.50058593750003 21.914355468750003, 89.45195312499999 21.821093750000003, 89.35371093750001 21.721093749999994, 89.27861328124999 21.706982421874997, 89.23427734375002 21.722363281249997, 89.16708984375003 21.78427734374999, 89.09394531250001 21.872753906249997, 89.08164062500003 22.014941406250003, 89.05146484375001 22.093164062499994, 89.02792968750003 21.937207031249997, 88.94931640625003 21.937939453124997, 89.01962890625003 21.833642578124994, 89.0419921875 21.758691406249994, 89.05166015625002 21.654101562500003, 88.96708984374999 21.641357421875, 88.90742187500001 21.653076171875, 88.85751953125003 21.744677734375003, 88.83437500000002 21.661376953125, 88.74501953125002 21.584374999999994, 88.71298828125003 21.621972656249994, 88.69472656250002 21.662402343750003, 88.69121093749999 21.73349609374999, 88.740234375 22.005419921875003, 88.73027343749999 22.036083984374997, 88.70830078124999 22.05615234375, 88.65957031250002 22.066943359375003, 88.6416015625 22.121972656249994, 88.56679687500002 21.83212890624999, 88.59980468750001 21.713769531249994, 88.58466796875001 21.659716796875003, 88.44599609375001 21.6142578125, 88.30546874999999 21.723339843749997, 88.28750000000002 21.758203124999994, 88.27919921875002 21.69687499999999, 88.25371093749999 21.622314453125, 88.1220703125 21.635791015625003, 88.05683593750001 21.694140625000003, 88.09941406249999 21.79355468749999, 88.18105468750002 22.032910156249997, 88.1962890625 22.139550781249994, 88.08710937500001 22.217724609374997, 87.99443359374999 22.265673828125003, 87.94140625 22.374316406250003, 87.96162109375001 22.255029296874994, 88.0107421875 22.212646484375, 88.0830078125 22.18271484374999, 88.15927734375003 22.121728515624994, 88.10410156250003 22.04736328125, 88.05078125 22.00107421874999, 87.94843750000001 21.825439453125, 87.82373046875 21.727343750000003, 87.67822265625 21.653515624999997, 87.20068359375 21.544873046874997, 87.10068359375003 21.500781250000003, 86.9541015625 21.36533203124999, 86.85957031250001 21.236718749999994, 86.84228515625 21.106347656249994, 86.89580078124999 20.965576171875, 86.93935546875002 20.745068359374997, 86.97548828125002 20.700146484374997, 86.92451171875001 20.619775390624994, 86.8359375 20.534326171874994, 86.76249999999999 20.419140624999997, 86.76923828125001 20.355908203124997, 86.75039062500002 20.313232421875, 86.49873046875001 20.171630859375, 86.44580078125 20.088916015625003, 86.37656250000003 20.006738281249994, 86.29365234375001 20.053759765625003, 86.24521484375003 20.053027343750003, 86.31191406250002 19.98779296875, 86.30292968750001 19.94467773437499, 86.27949218750001 19.91943359375, 86.21621093750002 19.895800781250003, 85.85292968750002 19.791748046875, 85.57499999999999 19.692919921875003, 85.49687499999999 19.696923828124994, 85.51113281250002 19.72690429687499, 85.55976562500001 19.753466796875003, 85.55507812500002 19.866894531249997, 85.50410156250001 19.8876953125, 85.4599609375 19.895898437499994, 85.24863281250003 19.75766601562499, 85.16279296875001 19.620898437500003, 85.18076171875003 19.594873046874994, 85.228515625 19.601318359375, 85.37089843749999 19.678906249999997, 85.43691406250002 19.656884765624994, 85.44160156250001 19.62656249999999, 85.2255859375 19.508349609375003, 84.77099609375 19.125390624999994, 84.74980468749999 19.050097656250003, 84.69082031250002 18.96469726562499, 84.609375 18.884326171875003, 84.46279296875002 18.689746093750003, 84.18173828125003 18.400585937499997, 84.10410156250003 18.292675781249997, 83.654296875 18.069873046875003, 83.572265625 18.003613281249997, 83.38798828124999 17.786669921875003, 83.19833984375003 17.60898437499999, 82.97685546874999 17.461816406249994, 82.59316406250002 17.27392578125, 82.35957031250001 17.09619140625, 82.28652343750002 16.978076171875003, 82.28193359375001 16.936083984375003, 82.30722656250003 16.878564453124994, 82.35000000000002 16.8251953125, 82.35976562500002 16.78281249999999, 82.3271484375 16.664355468750003, 82.2587890625 16.559863281250003, 82.14150390625002 16.4853515625, 81.76191406250001 16.329492187499994, 81.40185546875 16.365234375, 81.2861328125 16.337060546874994, 81.23857421874999 16.263964843750003, 81.13212890624999 15.961767578124991, 81.03007812499999 15.881445312499991, 80.99345703124999 15.808740234374994, 80.97871093750001 15.758349609375003, 80.91777343749999 15.759667968749994, 80.86474609375 15.7822265625, 80.82597656249999 15.765917968750003, 80.78183593750003 15.867333984374994, 80.70781249999999 15.888085937499994, 80.64658203125003 15.89501953125, 80.38486328125003 15.792773437500003, 80.29345703125 15.710742187500003, 80.10107421875 15.323632812499994, 80.05341796875001 15.074023437500003, 80.0986328125 14.798242187499994, 80.16542968750002 14.577832031249997, 80.1787109375 14.478320312500003, 80.17157723062891 14.37131470943345, 79.115757855011 14.950943723265809, 72.98368830852118 18.173464957959784, 72.97207031250002 18.25927734375, 72.94316406250002 18.365624999999994, 72.91718750000001 18.576123046874997, 72.87548828125 18.642822265625, 72.87089843750002 18.683056640624997, 72.89873046875002 18.778955078124994, 72.97685546875002 18.927197265624997, 73.00556640625001 19.02109374999999, 72.97207031250002 19.1533203125, 72.90068359375002 19.01450195312499, 72.83466796875001 18.9755859375, 72.80302734375002 19.079296874999997, 72.802734375 19.21875, 72.79453125 19.252099609374994, 72.81162109375 19.29892578124999, 72.98720703125002 19.27744140624999, 72.78789062500002 19.362988281249997, 72.76396484375002 19.41318359374999, 72.7564453125 19.45053710937499, 72.7994140625 19.519824218750003, 72.7265625 19.578271484374994, 72.69746093750001 19.757128906250003, 72.66777343750002 19.830957031249994, 72.708984375 20.078027343749994, 72.88115234375002 20.563183593749997, 72.89375000000001 20.672753906249994, 72.87890625 20.828515624999994, 72.84052734375001 20.95249023437499, 72.81386718750002 21.1171875, 72.7515625 21.129150390625, 72.6923828125 21.177636718749994, 72.62382812500002 21.371972656249994, 72.6865234375 21.435742187499997, 72.73476562500002 21.47080078124999, 72.66835937500002 21.45590820312499, 72.61328125 21.461816406249994, 72.810546875 21.619921875000003, 73.0224609375 21.699609374999994, 73.11250000000001 21.750439453124997, 72.9791015625 21.70468749999999, 72.83974609375002 21.687255859375, 72.54306640625 21.696582031250003, 72.59248046875001 21.877587890624994, 72.64404296875 21.93798828125, 72.7001953125 21.971923828125, 72.61748046875002 21.961718750000003, 72.52226562500002 21.976220703124994, 72.55302734375002 22.159960937500003, 72.6279296875 22.199609374999994, 72.70878906250002 22.207177734374994, 72.8091796875 22.233300781249994, 72.70195312500002 22.263623046874997, 72.59013671875002 22.278125000000003, 72.45595703125002 22.248095703125003, 72.3326171875 22.270214843749997, 72.18281250000001 22.269726562499997, 72.24257812500002 22.245166015625003, 72.30644531250002 22.189208984375, 72.2744140625 22.089746093749994, 72.24433593750001 22.027636718750003, 72.16171875 21.984814453124997, 72.09443359375001 21.919970703125003, 72.07558593750002 21.862988281249997, 72.03720703125 21.823046875000003, 72.1708984375 21.774316406249994, 72.21035156250002 21.728222656249997, 72.25664062500002 21.66123046874999, 72.25400390625 21.531005859375, 72.07656250000002 21.224072265624997, 72.015234375 21.155712890624997, 71.57109375000002 20.97055664062499, 71.396484375 20.869775390624994, 71.02460937500001 20.73886718749999, 70.87968750000002 20.714501953124994, 70.7193359375 20.740429687499997, 70.48505859375001 20.84018554687499, 70.12734375000002 21.094677734374997, 70.03437500000001 21.17880859374999, 69.74843750000002 21.50571289062499, 69.5419921875 21.67856445312499, 69.38544921875001 21.839550781249997, 69.19169921875002 21.991503906250003, 69.0087890625 22.19677734375, 68.96992187500001 22.290283203125, 68.98349609375 22.385400390624994, 69.05166015625002 22.437304687500003, 69.13134765625 22.416259765625, 69.19423828125002 22.336083984374994, 69.2388671875 22.300195312499994, 69.27656250000001 22.28549804687499, 69.54921875000002 22.408398437499997, 69.65517578125002 22.403515624999997, 69.7275390625 22.46518554687499, 69.81904296875001 22.45175781249999, 70.005859375 22.54770507812499, 70.08417968750001 22.553515625000003, 70.17724609375 22.57275390625, 70.327734375 22.81577148437499, 70.4404296875 22.97031249999999, 70.51347656250002 23.002490234375003, 70.509375 23.04013671874999, 70.4892578125 23.089501953124994, 70.4345703125 23.077099609374997, 70.339453125 22.939746093750003, 70.25117187500001 22.970898437499997, 70.19169921875002 22.96567382812499, 70.11826171875 22.947021484375, 69.84980468750001 22.8564453125, 69.73964843750002 22.775195312500003, 69.6646484375 22.759082031250003, 69.2359375 22.848535156249994, 68.81708984375001 23.0537109375, 68.64072265625 23.18994140625, 68.52919921875002 23.364062500000003, 68.41748046875 23.571484374999997, 68.45380859375001 23.62949218749999, 68.77675781250002 23.852099609375003, 68.64238281250002 23.808496093749994, 68.49687500000002 23.747998046874997, 68.42490234375 23.70556640625, 68.343359375 23.616845703124994, 68.2349609375 23.596972656250003, 68.1919921875 23.728906249999994, 68.1650390625 23.857324218749994, 68.14882812500002 23.79721679687499, 68.11552734375002 23.753369140624997, 68.03701171875002 23.84824218749999, 68.00146484375 23.826074218749994, 67.95097656250002 23.82861328125, 67.8599609375 23.90268554687499, 67.81904296875001 23.828076171874997, 67.66845703125 23.810986328124997, 67.64951171875 23.86728515624999, 67.64580078125002 23.919873046874997, 67.5630859375 23.8818359375, 67.50361328125001 23.94003906249999, 67.47685546875002 24.018261718749997, 67.42763671875002 24.064843749999994, 67.365234375 24.091601562500003, 67.30937500000002 24.1748046875, 67.288671875 24.36777343749999, 67.171484375 24.756103515625, 67.1005859375 24.791943359374997, 66.70302734375002 24.86093749999999, 66.6822265625 24.928857421874994, 66.70986328125002 25.111328125, 66.69863281250002 25.226318359375, 66.569921875 25.37851562499999, 66.53388671875001 25.484375, 66.42861328125002 25.575341796874994, 66.32421875 25.601806640625, 66.21904296875002 25.589892578125003, 66.16230468750001 25.553906249999997, 66.13115234375002 25.49326171874999, 66.3564453125 25.507373046875003, 66.40712890625002 25.485058593749997, 66.46767578125002 25.4453125, 66.4029296875 25.446826171875003, 66.32832031250001 25.465771484374997, 66.23466796875002 25.46435546875, 65.88359375000002 25.419628906249997, 65.6796875 25.355273437500003, 65.40625 25.374316406250003, 65.06132812500002 25.311083984375003, 64.77666015625002 25.307324218749997, 64.65898437500002 25.18408203125, 64.59404296875002 25.206298828125, 64.54375000000002 25.23666992187499, 64.15205078125001 25.333447265624997, 64.12490234375002 25.373925781249994, 64.05937500000002 25.40292968749999, 63.9873046875 25.35117187499999, 63.935546875 25.342529296875, 63.72089843750001 25.385888671874994, 63.556640625 25.353173828124994, 63.495703125000006 25.297509765624994, 63.49140625000001 25.210839843749994, 63.285742187500006 25.227587890625003, 63.170019531250006 25.2548828125, 63.01503906250002 25.224658203125003, 62.66474609375001 25.264794921874994, 62.57246093750001 25.25473632812499, 62.44472656250002 25.197265625, 62.391210937500006 25.152539062499997, 62.31533203125002 25.134912109374994, 62.24873046875001 25.19736328124999, 62.19863281250002 25.224853515625, 62.15214843750002 25.20664062499999, 62.089453125000006 25.155322265625003, 61.90791015625001 25.131298828124997, 61.74365234375 25.13818359375, 61.53310546875002 25.195507812499997, 61.490332031250006 25.15366210937499, 61.412207031250006 25.102099609375003, 60.954523164718104 25.21795546696671, 60.078441422923035 26.07824833792094, 59.09549581391488 27.216163727150203, 58.21784911404245 28.423341158599406, 57.4538888720568 29.69106017128505, 56.81207746241369 31.01012762652719, 56.30100057201758 32.37086973193431, 55.9293946793347 33.763112276410546, 55.706142007005354 35.1761506422527, 55.640218828634005 36.59871231828853, 55.740580157686125 38.018916110307515, 56.01596112569998 39.42423410843732, 56.47457351541538 40.80146476817462, 57.12367620051734 42.136728151170495, 57.96900250449432 43.41549725407121, 59.01403811352044 44.62268197532323, 60.25916268953553 45.74278382839654, 61.7006984317251 46.76013881284908, 63.329948741223184 47.6592614264228, 65.13235445995501 48.42529325392729, 67.08693225334062 49.04454430501328, 69.16617237975592 49.505095415471004, 71.33654336606044 49.79740915875054, 73.55966945302217 49.91488075163919, 75.79412205153454 49.85425604496375, 77.99763015791038 49.61585539933965, 80.12941168425823 49.20356958209297, 82.15229669178927 48.62463036284437, 84.03436684806358 47.88919398950863, 93.59954024800886 42.89286256681793, 96.76019037528629 42.95714054882041, 98.7453830916207 42.88786885777919, 100.69837141604845 42.64749663747235, 102.58746728141902 42.24097926291348, 104.38394352088326 41.67601694471919, 106.06301912450071 40.96266432747164, 107.6044422502382 40.11286797809467, 108.99267182960374 39.139980496483105, 110.21671560389014 38.05829390078184, 111.26971577836257 36.882623613510034, 112.14838245544891 35.62796133807608, 112.85236535170101 34.30920321774621, 113.38363423080811 32.940950548585114, 113.7459154344739 31.53737444718219, 113.94421091727524 30.112132922827882, 113.98440977884476 28.67832805680787, 113.87299097020023 27.24849166999151, 113.61680902129838 25.83458930467389, 113.22295121855365 24.448034084266762, 112.69865354678764 23.09970375173208, 112.06486643017942 21.827267049449723, 112.02519531249999 21.843017578125)), ((109.42474895859024 18.268111613040276, 109.34091796875003 18.299609375000003, 109.18320312500003 18.325146484374997, 109.02988281250003 18.36777343749999, 108.92226562500002 18.41611328124999, 108.70156250000002 18.53525390624999, 108.67607421874999 18.750244140625, 108.63808593750002 18.86630859374999, 108.63564453125002 18.90771484375, 108.65000000000003 19.265039062499994, 108.66552734375 19.304101562499994, 108.69355468750001 19.338281249999994, 108.791015625 19.418164062499997, 108.90283203125 19.481347656249994, 109.06289062500002 19.613574218750003, 109.17910156250002 19.674121093750003, 109.27666015624999 19.761132812499994, 109.21953124999999 19.757470703124994, 109.17744140625001 19.768457031249994, 109.21894531250001 19.842822265625003, 109.26347656249999 19.88266601562499, 109.31484375000002 19.90439453124999, 109.41816406250001 19.888818359374994, 109.513671875 19.904248046874997, 109.58427734374999 19.97031249999999, 109.6513671875 19.984375, 109.90625 19.96274414062499, 110.0830078125 19.992919921875, 110.17158203125001 20.0537109375, 110.21337890625 20.056054687499994, 110.34394531250001 20.038818359375, 110.39228515625001 19.9755859375, 110.3935546875 20.059228515624994, 110.41757812500003 20.054736328125003, 110.58818359374999 19.976367187500003, 110.58876953125002 20.072460937499997, 110.59833984375001 20.097607421874997, 110.65175781250002 20.137744140625003, 110.67851562499999 20.13706054687499, 110.74453125000002 20.059472656249994, 110.80908203125 20.014404296875, 110.87126356182618 19.996877639972407, 110.41715371762903 19.385083762366936, 109.445773014666 18.288115556139086, 109.42474895859024 18.268111613040276)), ((110.42236328125 21.05859375, 110.52158203125003 21.08310546874999, 110.53955078125 21.039013671874997, 110.53886718749999 21.018457031249994, 110.50390625 20.967724609374997, 110.421875 21.006884765625003, 110.33994140625003 20.997753906249997, 110.28095703125001 21.001171874999997, 110.2646484375 21.025195312500003, 110.30986328124999 21.074755859375003, 110.38515625000002 21.093164062499994, 110.42236328125 21.05859375)), ((107.60273437500001 21.216796875, 107.45869140625001 21.09165039062499, 107.40351562500001 21.093652343749994, 107.45253906250002 21.235302734374997, 107.47626953125001 21.268945312499994, 107.56269531250001 21.220410156249997, 107.60273437500001 21.216796875)), ((107.51894531250002 21.012841796874994, 107.55126953125 21.03403320312499, 107.55107421874999 20.981201171875, 107.52128906249999 20.92661132812499, 107.46552734375001 20.900537109374994, 107.39921874999999 20.903466796874994, 107.47861328125003 20.952343749999997, 107.51894531250002 21.012841796874994)), ((107.04374999999999 20.836816406249994, 107.064453125 20.817285156249994, 107.06396484375 20.799755859374997, 107.04228515624999 20.761035156250003, 107.03134765625003 20.747021484374997, 106.99003906249999 20.743066406249994, 106.91064453125 20.82421875, 106.95341796874999 20.86704101562499, 107.04374999999999 20.836816406249994)), ((106.86562500000002 20.815722656250003, 106.85410156250003 20.79638671875, 106.80312500000002 20.84375, 106.76943359375002 20.864208984374997, 106.79531250000002 20.927929687499997, 106.85507812500003 20.85825195312499, 106.86562500000002 20.815722656250003)), ((98.25458984375001 13.188574218749991, 98.26533203125001 13.202246093749991, 98.29863281249999 13.151660156249989, 98.3154296875 13.099072265624997, 98.31449388853413 13.074463677194434, 98.25402821304701 13.069853562284365, 98.25458984375001 13.188574218749991)), ((97.48037109375002 16.305712890625003, 97.46914062500002 16.46103515624999, 97.51640624999999 16.496875000000003, 97.5419921875 16.505078124999997, 97.57900390625002 16.486035156249997, 97.599609375 16.42954101562499, 97.58935546875 16.397363281249994, 97.57499999999999 16.253222656250003, 97.53720703125003 16.240136718749994, 97.48037109375002 16.305712890625003)), ((94.83818359374999 15.89208984375, 94.80488281250001 15.8193359375, 94.78437500000001 15.793847656249994, 94.73349609375003 15.823046875000003, 94.82802734375002 15.933007812499994, 94.83818359374999 15.89208984375)), ((94.54599609375003 16.15283203125, 94.60126953125001 16.205517578124997, 94.61865234375 16.141308593749997, 94.56611328125001 16.019287109375, 94.47675781250001 15.945947265624994, 94.41191406249999 15.848388671875, 94.38789062500001 15.994140625, 94.49375000000003 16.075341796874994, 94.54599609375003 16.15283203125)), ((93.64404296875 19.495068359374997, 93.68837890625002 19.54443359375, 93.71484375 19.558251953124994, 93.82949218750002 19.475292968749997, 93.87470703125001 19.48105468749999, 93.94570312500002 19.428613281249994, 93.94746093750001 19.408154296874997, 93.93398437500002 19.365429687499997, 93.90195312500003 19.33203125, 93.81523437499999 19.29868164062499, 93.755859375 19.32568359375, 93.73232421875002 19.416308593750003, 93.66220703125003 19.458935546874997, 93.64404296875 19.495068359374997)), ((93.48750000000001 18.86752929687499, 93.61826171875003 18.888818359374994, 93.74472656250003 18.865527343750003, 93.74550781250002 18.808056640624997, 93.71835937500003 18.715722656249994, 93.67402343750001 18.675683593749994, 93.56992187500003 18.759570312500003, 93.48750000000001 18.86752929687499)), ((93.51328125000003 19.754785156249994, 93.44462890624999 19.806445312500003, 93.41953125000003 19.877587890624994, 93.41289062499999 19.950341796874994, 93.49179687500003 19.892578125, 93.51328125000003 19.754785156249994)), ((92.74003906249999 12.779638671874991, 92.75312500000001 12.820898437499991, 92.80703125000002 12.87890625, 92.83085937499999 13.002636718749997, 92.80898437500002 13.039599609374989, 92.86015624999999 13.230566406249991, 92.85732421875002 13.358105468749997, 92.92460937499999 13.48583984375, 93.02939453125003 13.543847656249994, 93.06230468749999 13.545458984375003, 93.06669921874999 13.436474609374997, 93.07666015625 13.400683593750003, 93.01601562500002 13.336181640625, 93.07382812500003 13.252099609374994, 93.06611328125001 13.221582031249994, 93.04296875 13.154882812499991, 93.00468749999999 13.08935546875, 92.95136718750001 13.0625, 92.90996093749999 12.975195312499991, 92.88623046875 12.942285156249994, 92.96503906250001 12.850488281249994, 92.97470444623715 12.730813597729329, 92.7509158854591 12.716819469886818, 92.74003906249999 12.779638671874991)), ((93.01015625000002 19.92392578124999, 93.02324218749999 19.828857421875, 92.97519531250003 19.86801757812499, 92.91269531250003 19.999804687500003, 92.91464843750003 20.086474609375003, 92.95957031250003 20.046191406250003, 93.01015625000002 19.92392578124999)), ((92.71757812499999 12.864892578124994, 92.68574218750001 12.799951171874994, 92.6796875 12.939257812499989, 92.69443359375003 12.956787109375, 92.71064453125001 12.961572265624994, 92.73085937500002 12.948535156249989, 92.71757812499999 12.864892578124994)), ((91.87324218750001 21.574414062499997, 91.85703125000003 21.708789062500003, 91.90771484375 21.722949218750003, 91.93398437500002 21.72216796875, 91.9619140625 21.609765624999994, 91.94921875 21.508056640625, 91.88886718750001 21.503320312499994, 91.85947265625003 21.532958984375, 91.87324218750001 21.574414062499997)), ((91.861328125 21.926660156249994, 91.88251953125001 21.88364257812499, 91.87382812499999 21.83212890624999, 91.83759765625001 21.750244140625, 91.81972656250002 21.809814453125, 91.83515625000001 21.88535156249999, 91.85068359375003 21.927050781250003, 91.861328125 21.926660156249994)), ((91.41132812500001 22.47568359374999, 91.43886718750002 22.598828124999997, 91.4560546875 22.616503906250003, 91.48398437500003 22.576562499999994, 91.52304687500003 22.49072265625, 91.55673828125003 22.382226562499994, 91.51044921875001 22.352783203125, 91.46689453125003 22.37841796875, 91.41132812500001 22.47568359374999)), ((91.04472656249999 22.105175781249997, 91.07949218750002 22.519726562499997, 91.15830078125003 22.365429687499997, 91.17822265625 22.283007812500003, 91.15078125000002 22.175195312499994, 91.04472656249999 22.105175781249997)), ((90.67226562500002 22.813183593749997, 90.69921875 22.713525390624994, 90.73691406250003 22.638720703125003, 90.8681640625 22.48486328125, 90.86582031250003 22.390576171874997, 90.82988281249999 22.159960937500003, 90.77763671874999 22.089306640624997, 90.60361328125003 22.05419921875, 90.51503906250002 22.065136718749997, 90.68046874999999 22.32749023437499, 90.67490234375003 22.444970703124994, 90.64921874999999 22.540673828124994, 90.56494140625 22.617626953124997, 90.56035156249999 22.672558593749997, 90.52255859375003 22.747509765624997, 90.5029296875 22.835351562499994, 90.59648437499999 22.863525390625, 90.67226562500002 22.813183593749997)), ((90.57988281249999 23.035449218750003, 90.64179687500001 22.96298828124999, 90.65957031250002 22.92001953124999, 90.60390625000002 22.945556640625, 90.56230468749999 22.97543945312499, 90.53632812500001 23.014892578125, 90.57988281249999 23.035449218750003)))