MULTIPOLYGON (((32.54218750000001 41.806396484375, 32.94667968750002 41.891748046874994, 33.284765625000006 42.00458984375, 33.38134765625 42.017578125, 34.192968750000006 41.963671874999996, 34.75048828125 41.956835937499996, 35.006445312500006 42.063281249999996, 35.154882812500006 42.0275390625, 35.14101562500002 41.989501953125, 35.11406250000002 41.956982421875, 35.1220703125 41.89111328125, 35.20917968750001 41.794384765625, 35.29775390625002 41.728515625, 35.55800781250002 41.634033203125, 35.91982421875002 41.713720703125, 36.0517578125 41.682568359375, 36.17919921875 41.426562499999996, 36.278417968750006 41.3361328125, 36.405371093750006 41.274609375, 36.50966796875002 41.262499999999996, 36.58710937500001 41.32666015625, 36.647070312500006 41.3525390625, 36.77773437500002 41.3634765625, 36.99199218750002 41.275390625, 37.06621093750002 41.184423828125, 37.43095703125002 41.114111328125, 37.765625 41.078906249999996, 37.91005859375002 41.001904296875, 38.38105468750001 40.92451171875, 38.55693359375002 40.9365234375, 38.852148437500006 41.01767578125, 39.426367187500006 41.1064453125, 39.80791015625002 40.98251953125, 39.9111328125 40.966455078124994, 40.00019531250001 40.9771484375, 40.12841796875 40.943017578124994, 40.265234375000006 40.961328124999994, 40.6875 41.107421875, 40.81953125000001 41.190234374999996, 40.95947265625 41.21162109375, 41.083593750000006 41.261181640625, 41.41435546875002 41.423632812499996, 41.701757812500006 41.705419921875, 41.7587890625 41.817138671875, 41.76298828125002 41.970019531249996, 41.66328125000001 42.146874999999994, 41.48876953125 42.659326171874994, 41.41943359375 42.737646484375, 41.12871093750002 42.828125, 41.061621093750006 42.930859375, 40.83662109375001 43.0634765625, 40.524023437500006 43.121044921875, 40.46210937500001 43.145703125, 40.19062500000001 43.312402343749994, 39.873632812500006 43.472802734374994, 39.516699218750006 43.727880859375, 39.32939453125002 43.897265624999996, 38.71728515625 44.2880859375, 38.635839843750006 44.318017578124994, 38.31181640625002 44.374462890625, 38.181250000000006 44.419677734375, 37.85146484375002 44.698828125, 37.70488281250002 44.661376953125, 37.57246093750001 44.670849609375, 37.4951171875 44.695263671875, 37.41132812500001 44.7353515625, 37.35234375000002 44.788378906249996, 37.28408203125002 44.905029296875, 37.20478515625001 44.971972656249996, 36.944433593750006 45.069580078125, 36.65078125000002 45.12646484375, 36.62763671875001 45.151318359375, 36.619140625 45.185498046875, 36.873046875 45.251757812499996, 36.94121093750002 45.289697265624994, 36.81103515625 45.3400390625, 36.76162109375002 45.34833984375, 36.72041015625001 45.371874999999996, 36.79375000000002 45.409716796874996, 36.86591796875001 45.427050781249996, 36.97783203125002 45.383593749999996, 37.103515625 45.302880859374994, 37.21357421875001 45.272314453125, 37.264257812500006 45.310937499999994, 37.64716796875001 45.377197265625, 37.672949218750006 45.429736328124996, 37.671875 45.48837890625, 37.634375000000006 45.486328125, 37.609960937500006 45.49951171875, 37.612402343750006 45.564697265625, 37.66923828125002 45.654052734375, 37.840917968750006 45.799560546875, 37.93310546875 46.001708984375, 38.014257812500006 46.047753906249994, 38.073828125000006 46.01708984375, 38.06972656250002 45.969873046874994, 38.07958984375 45.934814453125, 38.1328125 46.002832031249994, 38.18359375 46.09482421875, 38.31181640625002 46.095361328124994, 38.400390625 46.080029296875, 38.492285156250006 46.09052734375, 38.31523437500002 46.241943359375, 38.077734375000006 46.394335937499996, 37.9775390625 46.382861328124996, 37.91386718750002 46.406494140625, 37.8095703125 46.532080078125, 37.76650390625002 46.636132812499994, 37.86738281250001 46.6337890625, 37.96796875000001 46.618017578125, 38.15947265625002 46.690673828125, 38.22998046875 46.70126953125, 38.34345703125001 46.6783203125, 38.5009765625 46.663671875, 38.48798828125001 46.732177734375, 38.43867187500001 46.8130859375, 38.63076171875002 46.873046875, 38.80107421875002 46.906152343749994, 39.12675781250002 47.0234375, 39.27070312500001 47.044140625, 39.2890625 47.0708984375, 39.29345703125 47.105761718749996, 39.24453125000002 47.199511718749996, 39.19570312500002 47.268847656249996, 39.02373046875002 47.272216796875, 38.928320312500006 47.175683593749994, 38.66816406250001 47.143945312499994, 38.55244140625001 47.150341796875, 38.64433593750002 47.212207031249996, 38.73603515625001 47.23583984375, 38.76191406250001 47.261621093749994, 38.577246093750006 47.239111328125, 38.48476562500002 47.175537109375, 38.178320312500006 47.080224609374994, 37.828710937500006 47.095849609374994, 37.54335937500002 47.074560546875, 37.33984375 46.916894531249994, 37.21855468750002 46.917333984375, 37.04755859375001 46.876220703125, 36.93203125000002 46.825146484375, 36.79482421875002 46.714404296874996, 36.68867187500001 46.764111328125, 36.55878906250001 46.7626953125, 36.43203125000002 46.732568359374994, 36.27949218750001 46.658593749999994, 36.19462890625002 46.6455078125, 36.02490234375 46.666796874999996, 35.8271484375 46.624316406249996, 35.40019531250002 46.381396484374996, 35.25664062500002 46.203906249999996, 35.20439453125002 46.169189453125, 35.13232421875 46.125878906249994, 35.055273437500006 46.10400390625, 35.01455078125002 46.106005859374996, 35.2177734375 46.232177734375, 35.28017578125002 46.2794921875, 35.29091796875002 46.314404296875, 35.2919921875 46.370703125, 35.23037109375002 46.440625, 35.064062500000006 46.267236328124994, 34.96953125000002 46.242089843749994, 34.849609375 46.189892578125, 34.84375 46.073583984375, 34.85732421875002 45.987353515624996, 34.90664062500002 45.878808593749994, 35.02285156250002 45.700976562499996, 35.26015625000002 45.446923828124994, 35.37392578125002 45.35361328125, 35.45751953125 45.316308593749994, 35.55800781250002 45.310888671875, 35.7509765625 45.38935546875, 35.83349609375 45.401611328125, 36.01289062500001 45.3716796875, 36.0771484375 45.424121093749996, 36.170507812500006 45.453076171875, 36.29033203125002 45.45673828125, 36.42705078125002 45.433251953124994, 36.57500000000002 45.3935546875, 36.514257812500006 45.303759765624996, 36.450781250000006 45.232324218749994, 36.39335937500002 45.065380859375, 36.22988281250002 45.0259765625, 36.054785156250006 45.030810546874996, 35.8701171875 45.005322265625, 35.75947265625001 45.070849609374996, 35.67753906250002 45.102001953125, 35.56953125000001 45.1193359375, 35.47255859375002 45.098486328125, 35.35781250000002 44.978417968749994, 35.15478515625 44.896337890625, 35.08769531250002 44.802636718749994, 34.887792968750006 44.823583984375, 34.716894531250006 44.80712890625, 34.46992187500001 44.7216796875, 34.28173828125 44.538427734375, 34.07441406250001 44.423828125, 33.90996093750002 44.387597656249994, 33.75566406250002 44.39892578125, 33.655859375000006 44.433203125, 33.45068359375 44.553662109375, 33.46269531250002 44.596826171874994, 33.491308593750006 44.618603515625, 33.53007812500002 44.680517578125, 33.61220703125002 44.9078125, 33.601171875000006 44.981494140624996, 33.55517578125 45.09765625, 33.39248046875002 45.187841796875, 33.26152343750002 45.170751953125, 33.18691406250002 45.194775390625, 32.91865234375001 45.34814453125, 32.77265625000001 45.358984375, 32.611328125 45.328076171875, 32.551855468750006 45.350390624999996, 32.50800781250001 45.40380859375, 32.82802734375002 45.593017578125, 33.14228515625001 45.74921875, 33.28007812500002 45.765234375, 33.46621093750002 45.837939453124996, 33.66484375000002 45.947070312499996, 33.63671875 46.032861328124994, 33.59414062500002 46.096240234374996, 33.42988281250001 46.0576171875, 33.26347656250002 46.12568359375, 33.202246093750006 46.175732421875, 32.94179687500002 46.123779296875, 32.796875 46.131494140624994, 32.47675781250001 46.08369140625, 32.32988281250002 46.13037109375, 32.035742187500006 46.260986328125, 31.925195312500023 46.287255859374994, 31.83125000000001 46.281689453125, 31.77998046875001 46.324658203125, 31.842871093750006 46.346142578125, 31.915917968750023 46.348681640624996, 31.99169921875 46.364404296874994, 32.01308593750002 46.387158203125, 32.00849609375001 46.429980468749996, 31.855761718750017 46.462451171874996, 31.713671875000017 46.47177734375, 31.623632812500006 46.51025390625, 31.55488281250001 46.554296875, 31.71601562500001 46.554980468749996, 31.8779296875 46.5216796875, 32.131445312500006 46.509375, 32.361328125 46.474951171875, 32.4189453125 46.5177734375, 32.55253906250002 46.5919921875, 32.57802734375002 46.615624999999994, 32.354101562500006 46.564843749999994, 32.12724609375002 46.597216796874996, 32.04433593750002 46.642480468749994, 31.97431640625001 46.708789062499996, 31.944921875000006 46.784375, 31.96406250000001 46.854833984375, 31.939550781250006 46.981982421874996, 31.86474609375 47.095117187499994, 31.838183593750017 47.1572265625, 31.759179687500023 47.212841796875, 31.8369140625 47.08701171875, 31.86591796875001 47.003271484375, 31.912695312500006 46.926123046875, 31.901660156250017 46.721630859375, 31.872851562500017 46.649755859375, 31.779589843750017 46.631640624999996, 31.657031250000017 46.642431640625, 31.532128906250023 46.66474609375, 31.563378906250023 46.777294921875, 31.496875000000017 46.73837890625, 31.402929687500006 46.628808593749994, 31.3203125 46.6125, 31.136816406250006 46.624462890625, 30.796289062500023 46.552001953125, 30.772851562500023 46.473046874999994, 30.7216796875 46.3662109375, 30.672265625000023 46.304003906249996, 30.65673828125 46.266503906249994, 30.511523437500017 46.105371093749994, 30.303391287019483 45.93553477701453, 30.186183706167483 46.28416949688233, 29.889746498295477 47.69647994705474, 29.779911635125853 49.12085275640926, 29.87375431373368 50.54559618612085, 30.189326837127393 51.957944915166074, 30.745243108298176 53.34393629366795, 31.55995336337981 54.688305223492605, 32.650605608463835 55.97442410418201, 34.0313951045079 57.18432570536698, 35.71134462710332 58.29885863941533, 37.69155960652458 59.298033229084716, 39.962181846941334 60.16161287982531, 42.499514657197 60.86998319431355, 45.264046277345756 61.405280215849245, 48.20022263188064 61.75268176288438, 51.238649121767864 61.90168069274585, 54.30085177857971 61.84710306689477, 57.30593133713176 61.589647159086425, 60.177752507440594 61.13581529133175, 62.851102237641136 60.49725942129092, 65.27564785149599 59.68970068500311, 67.41729803092328 58.73165648386648, 69.12542402698199 57.819931176001866, 72.47476227036633 57.234340558737664, 80.19936217633267 57.39672036446499, 82.88395676874629 57.280823565982, 85.49731747065461 56.97337733236259, 87.98319417517905 56.48285131759069, 90.29432928007236 55.82164551403056, 92.3944661762583 55.00515456800616, 94.25882174744667 54.050760079177586, 95.87330003100541 52.9768871083903, 97.23289697109226 51.8022147081934, 98.33975163783309 50.545079392634605, 99.20119931083335 49.22306984557975, 99.82804745103803 47.85278638904435, 100.23317566144821 46.44972842552688, 100.43047599591459 45.02827276771266, 100.43410122248665 43.60171083298547, 100.25796746201664 42.18231965252213, 99.91545386975908 40.781448479639806, 99.41924742816111 39.409608539289266, 98.78128993859974 38.07655788976524, 98.01279377673629 36.79137657102777, 97.12430139562093 35.56252942935756, 96.12577039588577 34.397915491743845, 95.02667122512457 33.30490373809028, 93.83608843947577 32.290355757959354, 92.56281924924056 31.360636205461198, 91.21546505786084 30.521612264294408, 89.8025131294239 29.778643555996307, 88.3324065737802 29.136564095283735, 86.81360166170128 28.59965802690516, 85.25461217360707 28.171630967071945, 83.66404110583825 27.85557881087664, 82.05060063923683 27.653955844009065, 80.42312182244093 27.5685439022307, 70.46732246819258 26.989451548849534, 68.71933228952177 27.022635082994505, 66.9785964975685 27.19327340415362, 65.25649775262559 27.500339119844487, 55.33462887521672 29.151423756664343, 53.64423706746328 29.407947736384553, 51.98021637039034 29.78647164555384, 50.35223547070226 30.284223393783442, 48.769915851178446 30.897672187083515, 40.45103494490199 34.841367983996854, 38.992122980688144 35.653583311532486, 37.6038707657707 36.55656809955166, 36.29504771073346 37.5447910891268, 35.07471749995829 38.612250650928154, 33.95234932056007 39.752479157182464, 32.93794253337502 40.958536195995414, 32.37571429991281 41.7521582193093, 32.54218750000001 41.806396484375)), ((31.7001953125 46.2140625, 31.563867187500023 46.257763671875, 31.528710937500023 46.306591796875, 31.5087890625 46.37314453125, 31.584863281250023 46.303173828125, 31.638476562500017 46.27255859375, 32.01220703125 46.203906249999996, 32.15009765625001 46.154687499999994, 32.009375000000006 46.167822265625, 31.7001953125 46.2140625)))