MULTIPOLYGON (((72.55302734375002 22.159960937500003, 72.6279296875 22.199609374999994, 72.70878906250002 22.207177734374994, 72.8091796875 22.233300781249994, 72.70195312500002 22.263623046874997, 72.59013671875002 22.278125000000003, 72.45595703125002 22.248095703125003, 72.3326171875 22.270214843749997, 72.18281250000001 22.269726562499997, 72.24257812500002 22.245166015625003, 72.30644531250002 22.189208984375, 72.29838259150863 22.164172760808775, 71.44466739271417 22.28482221556557, 70.16281762478036 22.56977131612721, 70.17724609375 22.57275390625, 70.327734375 22.81577148437499, 70.4404296875 22.97031249999999, 70.51347656250002 23.002490234375003, 70.509375 23.04013671874999, 70.4892578125 23.089501953124994, 70.4345703125 23.077099609374997, 70.339453125 22.939746093750003, 70.25117187500001 22.970898437499997, 70.19169921875002 22.96567382812499, 70.11826171875 22.947021484375, 69.84980468750001 22.8564453125, 69.73964843750002 22.775195312500003, 69.6646484375 22.759082031250003, 69.2359375 22.848535156249994, 68.81708984375001 23.0537109375, 68.64072265625 23.18994140625, 68.52919921875002 23.364062500000003, 68.41748046875 23.571484374999997, 68.45380859375001 23.62949218749999, 68.77675781250002 23.852099609375003, 68.64238281250002 23.808496093749994, 68.49687500000002 23.747998046874997, 68.42490234375 23.70556640625, 68.343359375 23.616845703124994, 68.2349609375 23.596972656250003, 68.1919921875 23.728906249999994, 68.1650390625 23.857324218749994, 68.14882812500002 23.79721679687499, 68.11552734375002 23.753369140624997, 68.03701171875002 23.84824218749999, 68.00146484375 23.826074218749994, 67.95097656250002 23.82861328125, 67.8599609375 23.90268554687499, 67.81904296875001 23.828076171874997, 67.66845703125 23.810986328124997, 67.64951171875 23.86728515624999, 67.64580078125002 23.919873046874997, 67.5630859375 23.8818359375, 67.50361328125001 23.94003906249999, 67.47685546875002 24.018261718749997, 67.42763671875002 24.064843749999994, 67.365234375 24.091601562500003, 67.30937500000002 24.1748046875, 67.288671875 24.36777343749999, 67.171484375 24.756103515625, 67.1005859375 24.791943359374997, 66.70302734375002 24.86093749999999, 66.6822265625 24.928857421874994, 66.70986328125002 25.111328125, 66.69863281250002 25.226318359375, 66.569921875 25.37851562499999, 66.53388671875001 25.484375, 66.42861328125002 25.575341796874994, 66.32421875 25.601806640625, 66.21904296875002 25.589892578125003, 66.16230468750001 25.553906249999997, 66.13115234375002 25.49326171874999, 66.3564453125 25.507373046875003, 66.40712890625002 25.485058593749997, 66.46767578125002 25.4453125, 66.4029296875 25.446826171875003, 66.32832031250001 25.465771484374997, 66.23466796875002 25.46435546875, 65.88359375000002 25.419628906249997, 65.6796875 25.355273437500003, 65.40625 25.374316406250003, 65.06132812500002 25.311083984375003, 64.77666015625002 25.307324218749997, 64.65898437500002 25.18408203125, 64.59404296875002 25.206298828125, 64.54375000000002 25.23666992187499, 64.15205078125001 25.333447265624997, 64.12490234375002 25.373925781249994, 64.05937500000002 25.40292968749999, 63.9873046875 25.35117187499999, 63.93895322257149 25.34309809264873, 63.01405168886555 25.989784092234927, 61.82711870027254 26.96813924020605, 60.72667943127921 28.034182420743807, 59.721840056830494 29.18066871088727, 58.821836031249354 30.399730806518846, 58.036095225316366 31.68287941400524, 57.37429698237826 33.020994089603704, 56.846418860688274 34.404304121956436, 56.46276018947812 35.82235979252654, 56.233928274781434 37.26399535158081, 56.17076913561726 38.71728641181801, 56.28422020858068 40.169506303961164, 56.58505805084802 41.60708837205333, 58.120258964380085 46.848141481269295, 59.066173156543385 49.98976574151444, 59.632790251894136 51.397724755325115, 60.45063348350323 52.759483638750176, 61.5334935523654 54.05799326088719, 62.89175235674036 55.27516738274171, 64.53039882530791 56.3921032842067, 66.44669978411098 57.389477546270605, 68.62776513351331 58.24815363418074, 71.04843196765076 58.950012164523905, 73.67005114337975 59.478968214944395, 76.44079170206325 59.82207779202014, 79.29788276985052 59.97057533161408, 82.1717667627897 59.92065366862187, 84.99156604927718 59.67382213453286, 87.69081561037231 59.236761022034806, 90.21231831101639 58.62070520518586, 92.51128966092688 57.84049136623639, 94.55650929922112 56.913454746590524, 96.3297240992333 55.85835287474774, 97.82386197385819 54.69444286588731, 99.04067689450471 53.44077435616098, 99.9883303844335 52.11570512608406, 100.67923112347569 50.73661143810768, 101.12828298463747 49.319749698574824, 101.35156940509782 47.88022457038228, 101.36543200329149 46.43202471365852, 101.18587165144142 44.98809607763871, 100.8281955919988 43.56043126350925, 100.30684231157825 42.16016065130789, 99.63532870380703 40.79763642184418, 98.82627713011581 39.48250446855143, 97.89149132614465 38.223761814215926, 96.8420591035678 37.029798864277055, 94.3168441414668 34.22543655285875, 90.68823724128843 29.727781634494985, 89.72181650119678 28.54125661690158, 88.65507688560773 27.43280264468446, 87.49747645690401 26.41003652914267, 86.25837075104879 25.479903117701383, 84.94706570280196 24.648661825452905, 83.57286197356125 23.921868002126637, 82.14508829760348 23.304351004074405, 80.67312263368481 22.80019094669831, 79.16640095451694 22.41269610874955, 77.63441444605982 22.144382845737617, 76.08669671643158 21.99695964771081, 74.53280330782718 21.971316655286447, 72.98228633320811 22.06752154309742, 72.54783049462745 22.128920075201197, 72.55302734375002 22.159960937500003)))