MULTIPOLYGON (((100 40, 100 29, 99 29, 99 40, 100 40)), ((99.86865234375 6.749902343749994, 99.69599609375001 6.876660156249997, 99.72031250000003 7.106201171875, 99.66777343749999 7.15087890625, 99.60244140625002 7.155322265624989, 99.55302734374999 7.218798828124989, 99.59697265624999 7.355615234374994, 99.52910156249999 7.329492187499994, 99.43515625000003 7.334374999999994, 99.35859375000001 7.372216796874994, 99.30039062500003 7.561328124999989, 99.263671875 7.619042968749994, 99.18339843749999 7.718066406249989, 99.07763671875 7.718066406249989, 99.04267578125001 7.765625, 99.05107421874999 7.887841796874994, 98.97392578124999 7.962792968749994, 98.91217161915935 8, 100 8, 100 6.588444581505841, 99.86865234375 6.749902343749994)), ((99.86582031250003 6.297070312499997, 99.8232421875 6.312744140625, 99.78261718750002 6.2715820312499915, 99.74375000000003 6.2632812499999915, 99.70468750000003 6.337548828124994, 99.65664062500002 6.367138671874997, 99.64628906249999 6.418359374999994, 99.71054687500003 6.4273437499999915, 99.74921875000001 6.409619140624997, 99.84804687500002 6.465722656249994, 99.91865234375001 6.358593749999997, 99.86582031250003 6.297070312499997)), ((98.24843750000002 4.41455078125, 98.27333984375002 4.322314453124989, 98.2412109375 4.194531249999997, 98.30732421875001 4.0928710937499915, 98.5283203125 3.99755859375, 98.65869140625 3.9281249999999943, 98.6865234375 3.8855468749999886, 98.70576171875001 3.8347656249999886, 98.77792968750003 3.7594238281249943, 98.86865234375 3.7103515624999943, 99.15117187499999 3.581249999999997, 99.521484375 3.3111816406249943, 99.73232421875002 3.183056640624997, 99.89607070009085 3, 97.3723396638076 3, 97.31318359375001 3.0770507812499943, 97.18837890625002 3.2757324218749915, 96.96894531250001 3.575146484374997, 96.89394531250002 3.6537109374999943, 96.80097656250001 3.7085449218749886, 96.525390625 3.7666015625, 96.44472656250002 3.8163085937499943, 96.31083984374999 3.986328125, 96.23007812500003 4.07275390625, 95.98798828125001 4.2632812499999915, 95.57861328125 4.6619628906249915, 95.49472656250003 4.761376953124994, 95.20664062500003 5.2840332031249915, 95.220703125 5.346240234374989, 95.2470703125 5.410791015624994, 95.24296874999999 5.464306640624997, 95.22382812500001 5.51708984375, 95.22783203124999 5.5647949218749915, 95.27958984374999 5.5928710937499915, 95.39609375000003 5.628808593749994, 95.51699218750002 5.6246093749999915, 95.62890625 5.609082031249997, 95.7373046875 5.579296874999997, 95.84130859375 5.5145019531249915, 96.02734375 5.3511718749999915, 96.13330078125 5.2942871093749915, 96.25087890625002 5.266992187499994, 96.49257812500002 5.2293457031249915, 96.615234375 5.22021484375, 96.84267578125002 5.274462890624989, 96.9677734375 5.2691406249999915, 97.08574218749999 5.229931640624997, 97.1904296875 5.207324218749989, 97.451171875 5.236035156249997, 97.50019531250001 5.228320312499989, 97.54716796874999 5.205859374999989, 97.70673828125001 5.0401367187499915, 97.90839843750001 4.8799804687499915, 97.96660156249999 4.777490234374994, 97.99980468749999 4.662255859374994, 98.24843750000002 4.41455078125)), ((99.6630859375 6.521923828124997, 99.64404296875 6.51611328125, 99.60664062500001 6.596826171874994, 99.65400390625001 6.714111328125, 99.70136718750001 6.570556640625, 99.6630859375 6.521923828124997)), ((99.03769531250003 7.548486328124994, 99.0380859375 7.625732421875, 99.04511718750001 7.636523437499989, 99.07841796874999 7.591845703124989, 99.10439453125002 7.4712890624999915, 99.06787109375 7.495898437499989, 99.03769531250003 7.548486328124994)), ((98.57998046875002 7.917041015624989, 98.55806677476417 8, 98.59858033240997 8, 98.59199218750001 7.9339355468749915, 98.57998046875002 7.917041015624989)), ((98.26230468750003 7.926074218749989, 98.27604553903349 8, 98.40940571446575 8, 98.39882812500002 7.964550781249997, 98.40908203125002 7.902050781249997, 98.3984375 7.828417968749989, 98.357421875 7.8294433593749915, 98.31562500000001 7.7823242187499915, 98.29628906250002 7.776074218749997, 98.26230468750003 7.926074218749989)), ((95.36210937499999 5.812402343749994, 95.34257812499999 5.784130859374997, 95.283203125 5.798535156249997, 95.21767578125002 5.8895019531249915, 95.24199218749999 5.907031249999989, 95.35917968749999 5.876757812499989, 95.36601562499999 5.842675781249994, 95.36210937499999 5.812402343749994)), ((92.32412109375002 20.79184570312499, 92.30781250000001 20.790429687499994, 92.19462890624999 20.984277343749994, 92.05605468750002 21.1748046875, 92.01093750000001 21.516259765624994, 92.00800781250001 21.684765624999997, 91.91318359375003 21.883056640625, 91.85000000000002 22.157373046874994, 91.82480468750003 22.228662109374994, 91.86337890625003 22.350488281249994, 91.84541015625001 22.34311523437499, 91.79707031250001 22.29746093749999, 91.73408203125001 22.406689453124997, 91.69296875000003 22.504785156249994, 91.52968750000002 22.707666015624994, 91.48212890625001 22.797412109375003, 91.48007812500003 22.884814453125003, 91.40957031250002 22.797021484374994, 91.31376953124999 22.735156250000003, 91.21621093750002 22.642236328124994, 91.1513671875 22.614062500000003, 90.94560546874999 22.59702148437499, 90.82675781250003 22.721386718749997, 90.65625 23.02548828124999, 90.63359374999999 23.09423828125, 90.65605468749999 23.27304687499999, 90.61562500000002 23.442333984374997, 90.61611328125002 23.531640624999994, 90.60400390625 23.591357421875003, 90.57343750000001 23.578125, 90.56162109375003 23.537109375, 90.56806640625001 23.474267578124994, 90.5556640625 23.421533203124994, 90.40800781249999 23.431884765625, 90.26914062500003 23.455859375000003, 90.39150390625002 23.366943359375, 90.52275390624999 23.346142578124997, 90.59091796875003 23.266406250000003, 90.59921875000003 23.204150390625003, 90.59511718750002 23.133935546874994, 90.52773437500002 23.0849609375, 90.46601562500001 23.053906249999997, 90.4775390625 22.986767578124997, 90.55224609375 22.90488281249999, 90.46162109375001 22.881787109374997, 90.43691406250002 22.828173828125003, 90.43505859375 22.751904296874997, 90.48066406250001 22.68466796874999, 90.49843750000002 22.634814453125003, 90.48740234375003 22.58872070312499, 90.53173828125 22.539306640625, 90.59550781249999 22.435839843750003, 90.61611328125002 22.36215820312499, 90.58945312500003 22.258447265624994, 90.55283203125003 22.218164062499994, 90.494140625 22.178906249999997, 90.35576171874999 22.048242187499994, 90.28818359375003 21.8994140625, 90.23056640625003 21.829785156249997, 90.15878906250003 21.816845703124997, 90.13076171875002 21.847412109375, 90.07119140625002 21.887255859375003, 90.07001953125001 21.959912109374997, 90.087890625 22.017480468749994, 90.20957031250003 22.15659179687499, 90.14345703125002 22.137890624999997, 89.95419921875003 22.022851562499994, 89.91806640625003 22.116162109374997, 89.89404296875 22.202587890624997, 89.89384765624999 22.308398437500003, 89.98515624999999 22.46640624999999, 89.8818359375 22.387597656249994, 89.85322265625001 22.288964843749994, 89.86582031250003 22.173046874999997, 89.8525390625 22.09091796874999, 89.81191406250002 21.98349609374999, 89.7568359375 21.91904296874999, 89.66777343749999 21.877685546875, 89.62812500000001 21.814160156249997, 89.56855468750001 21.76743164062499, 89.56660156250001 21.860595703125, 89.54746093750003 21.983691406250003, 89.48320312499999 22.275537109374994, 89.46933593750003 22.212939453125003, 89.50253906250003 22.031884765624994, 89.50058593750003 21.914355468750003, 89.45195312499999 21.821093750000003, 89.35371093750001 21.721093749999994, 89.27861328124999 21.706982421874997, 89.23427734375002 21.722363281249997, 89.16708984375003 21.78427734374999, 89.09394531250001 21.872753906249997, 89.08164062500003 22.014941406250003, 89.05146484375001 22.093164062499994, 89.02792968750003 21.937207031249997, 88.94931640625003 21.937939453124997, 89.01962890625003 21.833642578124994, 89.0419921875 21.758691406249994, 89.05166015625002 21.654101562500003, 88.96708984374999 21.641357421875, 88.90742187500001 21.653076171875, 88.85751953125003 21.744677734375003, 88.83437500000002 21.661376953125, 88.74501953125002 21.584374999999994, 88.71298828125003 21.621972656249994, 88.69472656250002 21.662402343750003, 88.69121093749999 21.73349609374999, 88.740234375 22.005419921875003, 88.73027343749999 22.036083984374997, 88.70830078124999 22.05615234375, 88.65957031250002 22.066943359375003, 88.6416015625 22.121972656249994, 88.56679687500002 21.83212890624999, 88.59980468750001 21.713769531249994, 88.58466796875001 21.659716796875003, 88.44599609375001 21.6142578125, 88.30546874999999 21.723339843749997, 88.28750000000002 21.758203124999994, 88.27919921875002 21.69687499999999, 88.25371093749999 21.622314453125, 88.1220703125 21.635791015625003, 88.05683593750001 21.694140625000003, 88.09941406249999 21.79355468749999, 88.18105468750002 22.032910156249997, 88.1962890625 22.139550781249994, 88.08710937500001 22.217724609374997, 87.99443359374999 22.265673828125003, 87.94140625 22.374316406250003, 87.96162109375001 22.255029296874994, 88.0107421875 22.212646484375, 88.0830078125 22.18271484374999, 88.15927734375003 22.121728515624994, 88.10410156250003 22.04736328125, 88.05078125 22.00107421874999, 87.94843750000001 21.825439453125, 87.82373046875 21.727343750000003, 87.67822265625 21.653515624999997, 87.20068359375 21.544873046874997, 87.10068359375003 21.500781250000003, 86.9541015625 21.36533203124999, 86.85957031250001 21.236718749999994, 86.84228515625 21.106347656249994, 86.89580078124999 20.965576171875, 86.93935546875002 20.745068359374997, 86.97548828125002 20.700146484374997, 86.92451171875001 20.619775390624994, 86.8359375 20.534326171874994, 86.76249999999999 20.419140624999997, 86.76923828125001 20.355908203124997, 86.75039062500002 20.313232421875, 86.49873046875001 20.171630859375, 86.44580078125 20.088916015625003, 86.37656250000003 20.006738281249994, 86.29365234375001 20.053759765625003, 86.24521484375003 20.053027343750003, 86.31191406250002 19.98779296875, 86.30292968750001 19.94467773437499, 86.27949218750001 19.91943359375, 86.21621093750002 19.895800781250003, 85.85292968750002 19.791748046875, 85.57499999999999 19.692919921875003, 85.49687499999999 19.696923828124994, 85.51113281250002 19.72690429687499, 85.55976562500001 19.753466796875003, 85.55507812500002 19.866894531249997, 85.50410156250001 19.8876953125, 85.4599609375 19.895898437499994, 85.24863281250003 19.75766601562499, 85.16279296875001 19.620898437500003, 85.18076171875003 19.594873046874994, 85.228515625 19.601318359375, 85.37089843749999 19.678906249999997, 85.43691406250002 19.656884765624994, 85.44160156250001 19.62656249999999, 85.2255859375 19.508349609375003, 84.77099609375 19.125390624999994, 84.74980468749999 19.050097656250003, 84.69082031250002 18.96469726562499, 84.609375 18.884326171875003, 84.46279296875002 18.689746093750003, 84.18173828125003 18.400585937499997, 84.10410156250003 18.292675781249997, 83.654296875 18.069873046875003, 83.572265625 18.003613281249997, 83.38798828124999 17.786669921875003, 83.19833984375003 17.60898437499999, 82.97685546874999 17.461816406249994, 82.59316406250002 17.27392578125, 82.35957031250001 17.09619140625, 82.28652343750002 16.978076171875003, 82.28193359375001 16.936083984375003, 82.30722656250003 16.878564453124994, 82.35000000000002 16.8251953125, 82.35976562500002 16.78281249999999, 82.3271484375 16.664355468750003, 82.2587890625 16.559863281250003, 82.14150390625002 16.4853515625, 81.76191406250001 16.329492187499994, 81.40185546875 16.365234375, 81.2861328125 16.337060546874994, 81.23857421874999 16.263964843750003, 81.13212890624999 15.961767578124991, 81.03007812499999 15.881445312499991, 80.99345703124999 15.808740234374994, 80.97871093750001 15.758349609375003, 80.91777343749999 15.759667968749994, 80.86474609375 15.7822265625, 80.82597656249999 15.765917968750003, 80.78183593750003 15.867333984374994, 80.70781249999999 15.888085937499994, 80.64658203125003 15.89501953125, 80.38486328125003 15.792773437500003, 80.29345703125 15.710742187500003, 80.10107421875 15.323632812499994, 80.05341796875001 15.074023437500003, 80.0986328125 14.798242187499994, 80.16542968750002 14.577832031249997, 80.1787109375 14.478320312500003, 80.17011718750001 14.349414062500003, 80.13623046875 14.286572265624997, 80.11171875000002 14.212207031250003, 80.14365234375003 14.058935546874991, 80.22441406249999 13.858203125000003, 80.244140625 13.773486328125003, 80.24580078125001 13.685839843750003, 80.30654296875002 13.485058593749997, 80.265625 13.521289062500003, 80.2333984375 13.605761718750003, 80.15625 13.713769531249994, 80.06210937500003 13.606250000000003, 80.1142578125 13.528710937499994, 80.29033203124999 13.436718749999997, 80.34238281250003 13.361328125, 80.22910156250003 12.690332031249994, 80.14306640625 12.452001953124991, 80.03750000000002 12.295800781249994, 79.98173828124999 12.235449218749991, 80 12.25521409123248, 80 23, 70.50782346595221 23, 70.4404296875 22.97031249999999, 70.51347656250002 23.002490234375003, 70.509375 23.04013671874999, 70.4892578125 23.089501953124994, 70.4345703125 23.077099609374997, 70.38122558593753 23, 68.92673582706152 23, 68.81708984375001 23.0537109375, 68.64072265625 23.18994140625, 68.52919921875002 23.364062500000003, 68.41748046875 23.571484374999997, 68.45380859375001 23.62949218749999, 68.77675781250002 23.852099609375003, 68.64238281250002 23.808496093749994, 68.49687500000002 23.747998046874997, 68.42490234375 23.70556640625, 68.343359375 23.616845703124994, 68.2349609375 23.596972656250003, 68.1919921875 23.728906249999994, 68.1650390625 23.857324218749994, 68.14882812500002 23.79721679687499, 68.11552734375002 23.753369140624997, 68.03701171875002 23.84824218749999, 68.00146484375 23.826074218749994, 67.95097656250002 23.82861328125, 67.8599609375 23.90268554687499, 67.81904296875001 23.828076171874997, 67.66845703125 23.810986328124997, 67.64951171875 23.86728515624999, 67.64580078125002 23.919873046874997, 67.5630859375 23.8818359375, 67.50361328125001 23.94003906249999, 67.47685546875002 24.018261718749997, 67.42763671875002 24.064843749999994, 67.365234375 24.091601562500003, 67.30937500000002 24.1748046875, 67.288671875 24.36777343749999, 67.171484375 24.756103515625, 67.1005859375 24.791943359374997, 66.70302734375002 24.86093749999999, 66.6822265625 24.928857421874994, 66.70986328125002 25.111328125, 66.69863281250002 25.226318359375, 66.569921875 25.37851562499999, 66.53388671875001 25.484375, 66.42861328125002 25.575341796874994, 66.32421875 25.601806640625, 66.21904296875002 25.589892578125003, 66.16230468750001 25.553906249999997, 66.13115234375002 25.49326171874999, 66.3564453125 25.507373046875003, 66.40712890625002 25.485058593749997, 66.46767578125002 25.4453125, 66.4029296875 25.446826171875003, 66.32832031250001 25.465771484374997, 66.23466796875002 25.46435546875, 65.88359375000002 25.419628906249997, 65.6796875 25.355273437500003, 65.40625 25.374316406250003, 65.06132812500002 25.311083984375003, 64.77666015625002 25.307324218749997, 64.65898437500002 25.18408203125, 64.59404296875002 25.206298828125, 64.54375000000002 25.23666992187499, 64.15205078125001 25.333447265624997, 64.12490234375002 25.373925781249994, 64.05937500000002 25.40292968749999, 63.9873046875 25.35117187499999, 63.935546875 25.342529296875, 63.72089843750001 25.385888671874994, 63.556640625 25.353173828124994, 63.495703125000006 25.297509765624994, 63.49140625000001 25.210839843749994, 63.285742187500006 25.227587890625003, 63.170019531250006 25.2548828125, 63.01503906250002 25.224658203125003, 62.66474609375001 25.264794921874994, 62.57246093750001 25.25473632812499, 62.44472656250002 25.197265625, 62.391210937500006 25.152539062499997, 62.31533203125002 25.134912109374994, 62.24873046875001 25.19736328124999, 62.19863281250002 25.224853515625, 62.15214843750002 25.20664062499999, 62.089453125000006 25.155322265625003, 61.90791015625001 25.131298828124997, 61.74365234375 25.13818359375, 61.53310546875002 25.195507812499997, 61.490332031250006 25.15366210937499, 61.412207031250006 25.102099609375003, 61.01701148186933 25.204137782431953, 61.5 31, 61.2 34, 65 34, 65 38, 72 38, 72 35, 74 35, 88 27.5, 95 27.88888888888889, 95 27, 92.5 21, 92.5 20.586353410993333, 92.37832031250002 20.717578125000003, 92.32412109375002 20.79184570312499)), ((93.85898437500003 7.206835937499989, 93.92958984375002 6.9734863281249915, 93.89003906250002 6.8310546875, 93.82880859375001 6.748681640624994, 93.70927734374999 7.000683593749997, 93.65800781249999 7.016064453124997, 93.65634765625003 7.13623046875, 93.68417968750003 7.18359375, 93.82246093750001 7.236621093749989, 93.85898437500003 7.206835937499989)), ((93.6142578125 7.358105468749997, 93.69248046875003 7.410595703124997, 93.73359375000001 7.356494140624989, 93.63847656249999 7.261865234374994, 93.59726562500003 7.318749999999994, 93.6142578125 7.358105468749997)), ((93.44736328125003 7.899121093749997, 93.44257812500001 7.877832031249994, 93.36503906249999 7.8765624999999915, 93.30937499999999 7.964013671874994, 93.33041819983646 8, 93.39048866529143 8, 93.43369140625003 7.948388671874994, 93.44736328125003 7.899121093749997)), ((92.44785156250003 10.865527343749989, 92.5 10.892171936035137, 92.5 10.551679592688082, 92.47265625 10.520751953125, 92.36953125000002 10.547412109374989, 92.37714843750001 10.650585937499997, 92.35283203124999 10.751123046874994, 92.37070312500003 10.793505859374989, 92.44785156250003 10.865527343749989)), ((91.93398437500002 21.72216796875, 91.9619140625 21.609765624999994, 91.94921875 21.508056640625, 91.88886718750001 21.503320312499994, 91.85947265625003 21.532958984375, 91.87324218750001 21.574414062499997, 91.85703125000003 21.708789062500003, 91.90771484375 21.722949218750003, 91.93398437500002 21.72216796875)), ((91.81972656250002 21.809814453125, 91.83515625000001 21.88535156249999, 91.85068359375003 21.927050781250003, 91.861328125 21.926660156249994, 91.88251953125001 21.88364257812499, 91.87382812499999 21.83212890624999, 91.83759765625001 21.750244140625, 91.81972656250002 21.809814453125)), ((91.52304687500003 22.49072265625, 91.55673828125003 22.382226562499994, 91.51044921875001 22.352783203125, 91.46689453125003 22.37841796875, 91.41132812500001 22.47568359374999, 91.43886718750002 22.598828124999997, 91.4560546875 22.616503906250003, 91.48398437500003 22.576562499999994, 91.52304687500003 22.49072265625)), ((91.15078125000002 22.175195312499994, 91.04472656249999 22.105175781249997, 91.07949218750002 22.519726562499997, 91.15830078125003 22.365429687499997, 91.17822265625 22.283007812500003, 91.15078125000002 22.175195312499994)), ((90.86582031250003 22.390576171874997, 90.82988281249999 22.159960937500003, 90.77763671874999 22.089306640624997, 90.60361328125003 22.05419921875, 90.51503906250002 22.065136718749997, 90.68046874999999 22.32749023437499, 90.67490234375003 22.444970703124994, 90.64921874999999 22.540673828124994, 90.56494140625 22.617626953124997, 90.56035156249999 22.672558593749997, 90.52255859375003 22.747509765624997, 90.5029296875 22.835351562499994, 90.59648437499999 22.863525390625, 90.67226562500002 22.813183593749997, 90.69921875 22.713525390624994, 90.73691406250003 22.638720703125003, 90.8681640625 22.48486328125, 90.86582031250003 22.390576171874997)), ((90.56230468749999 22.97543945312499, 90.53632812500001 23.014892578125, 90.57988281249999 23.035449218750003, 90.64179687500001 22.96298828124999, 90.65957031250002 22.92001953124999, 90.60390625000002 22.945556640625, 90.56230468749999 22.97543945312499)), ((81.27460937500001 8.483593749999997, 81.333984375 8.472070312499994, 81.37285156249999 8.431445312499989, 81.42216796874999 8.215234374999994, 81.42216796874999 8.147851562499994, 81.66542968750002 7.782470703125, 81.6787109375 7.7415527343749915, 81.68291015624999 7.684472656249994, 81.72734374999999 7.625, 81.79667968749999 7.464794921874997, 81.83203125 7.428417968749997, 81.87412109375003 7.288330078125, 81.876953125 7.020458984374997, 81.86142578125003 6.901269531249994, 81.76777343750001 6.614306640624989, 81.71269531249999 6.511865234374994, 81.63740234375001 6.4251464843749915, 81.37998046875003 6.240917968749997, 81.30625000000003 6.203857421875, 80.97109375000002 6.08837890625, 80.72412109375 5.979052734374989, 80.49580078125001 5.949365234374994, 80.26738281249999 6.009765625, 80.09531250000003 6.1531738281249915, 80.00722656250002 6.364404296874994, 79.94697265625001 6.584521484374989, 79.859375 6.829296874999997, 79.79208984375003 7.585205078125, 79.70781249999999 8.065673828125, 79.71298828125003 8.182324218749997, 79.74980468749999 8.294238281249989, 79.74970703125001 8.048876953124989, 79.78349609374999 8.018457031249994, 79.80888671874999 8.049999999999997, 79.83193359375002 8.304052734374991, 79.85087890624999 8.411572265624997, 79.94179687500002 8.691503906249991, 79.92890625000001 8.899218749999989, 80.06484375000002 9.095654296874997, 80.099609375 9.2099609375, 80.11835937500001 9.326855468749997, 80.11093750000003 9.453271484374994, 80.08632812500002 9.577832031249997, 80.19609374999999 9.538134765624989, 80.25644531250003 9.494775390624994, 80.31796875000003 9.465429687499991, 80.36796874999999 9.48046875, 80.42832031250003 9.48095703125, 80.38535156250003 9.548779296874997, 80.25761718749999 9.611279296874997, 80.04580078125002 9.64990234375, 79.9794921875 9.699365234374994, 79.95400390625002 9.742333984374994, 79.96699218750001 9.792626953124994, 79.98232421875002 9.812695312499997, 80.18095703124999 9.810009765624997, 80.25283203125002 9.796337890624997, 80.3759765625 9.642333984375, 80.71113281250001 9.366357421874994, 80.89345703125002 9.085888671874997, 80.91005859375002 9.024511718749991, 80.93544921875002 8.971484374999989, 80.97919921875001 8.956933593749994, 81.01601562500002 8.9326171875, 81.1982421875 8.661962890624991, 81.21923828125 8.6083984375, 81.21621093750002 8.549414062499991, 81.22695312500002 8.505517578124994, 81.27460937500001 8.483593749999997)), ((79.96953124999999 9.630664062499989, 79.90683593750003 9.619824218749997, 79.857421875 9.686376953124991, 79.845703125 9.714648437499989, 79.85859375000001 9.734375, 79.87226562500001 9.744335937499997, 79.88847656249999 9.741162109374997, 79.91191406249999 9.679150390624997, 79.96953124999999 9.630664062499989)), ((79.76679687500001 9.069775390624997, 79.74765625000003 9.104589843749991, 79.85996093750003 9.065722656249989, 79.87480468749999 9.050732421874997, 79.90371093750002 8.974999999999994, 79.76679687500001 9.069775390624997)), ((78.99628906250001 9.68310546875, 78.93994140625 9.565771484374991, 78.91914062500001 9.452880859375, 78.953125 9.393798828125, 79.01992187500002 9.333349609374991, 79.10703125000003 9.308935546874991, 79.27548828125003 9.284619140624997, 79.35634765625002 9.252148437499997, 79.41142578124999 9.1923828125, 79.212890625 9.256005859374994, 78.97958984375003 9.2685546875, 78.42148437500003 9.105029296874989, 78.27451171875003 8.990185546874997, 78.19248046875003 8.890869140625, 78.13603515624999 8.663378906249989, 78.12636718750002 8.511328124999991, 78.06015625000003 8.384570312499989, 77.77031249999999 8.189843749999994, 77.58720703124999 8.1298828125, 77.517578125 8.078320312499997, 77.30146484375001 8.145312499999989, 77.06591796875 8.31591796875, 76.96689453125003 8.407275390624989, 76.61728515625003 8.847070312499994, 76.55341796875001 8.902783203124997, 76.48291015625 9.090771484374997, 76.47177734375003 9.160839843749997, 76.45234375000001 9.188769531249989, 76.41904296875003 9.207812499999989, 76.40312499999999 9.23681640625, 76.32460937500002 9.452099609374997, 76.29238281250002 9.676464843749997, 76.24238281250001 9.927099609374991, 76.28466796875 9.909863281249997, 76.34306640624999 9.827343749999997, 76.37226562500001 9.707373046874991, 76.37558593750003 9.539892578124991, 76.41953125000003 9.520458984374997, 76.45878906249999 9.536230468749991, 76.34648437499999 9.922119140625, 76.24873046875001 10.017968749999994, 76.26705621378312 10, 79.23166378297914 10, 78.99628906250001 9.68310546875)), ((73.47304687500002 4.170703124999989, 73.50410156250001 4.234619140625, 73.51777343750001 4.2476562499999915, 73.5283203125 4.243310546874994, 73.51220703125 4.16455078125, 73.49482421875001 4.155175781249994, 73.47861328125 4.158935546875, 73.47304687500002 4.170703124999989)), ((73.4166015625 3.2312499999999886, 73.39531250000002 3.2293945312499943, 73.38203125000001 3.2464843749999943, 73.38496093750001 3.2713867187499943, 73.40156250000001 3.288769531249997, 73.427734375 3.2898437499999886, 73.44277343750002 3.2743164062499943, 73.43496093750002 3.2501464843749943, 73.4166015625 3.2312499999999886)), ((73.02851562500001 8.253515624999991, 73.02607421875001 8.275292968749994, 73.03896484375002 8.264843749999997, 73.05585937500001 8.274560546874994, 73.07949218750002 8.316503906249991, 73.07978515625001 8.293066406249991, 73.0673828125 8.269091796874989, 73.03886718750002 8.251953125, 73.02851562500001 8.253515624999991)))