MULTIPOLYGON (((23.89716796875001 70.478759765625, 24.038476562500023 70.4853515625, 24.285546875000023 70.66240234375, 24.355566406250006 70.694580078125, 24.420019531250006 70.702001953125, 24.40351562500001 70.7453125, 24.268164062500006 70.772705078125, 24.263476562500017 70.826318359375, 24.441796875000023 70.891552734375, 24.658007812500017 71.001025390625, 24.764746093750006 71.008447265625, 24.831640625000006 70.97802734375, 25.04218750000001 70.92861328125, 25.171191406250017 70.872021484375, 25.2646484375 70.843505859375, 25.32539062500001 70.8494140625, 25.375585937500006 70.891943359375, 25.435937500000023 70.911865234375, 25.56982421875 70.90068359375, 25.649707031250017 70.87333984375, 25.7119140625 70.8697265625, 25.768164062500006 70.853173828125, 25.78144531250001 70.816796875, 25.665625000000006 70.7771484375, 25.46826171875 70.67197265625, 25.273535156250006 70.552392578125, 25.209277343750017 70.489404296875, 25.146386718750023 70.3240234375, 24.994238281250006 70.218212890625, 24.982714843750017 70.143994140625, 25.043847656250023 70.109033203125, 25.211816406250023 70.136474609375, 25.418847656250023 70.235498046875, 25.470507812500017 70.340576171875, 25.988085937500017 70.625390625, 26.230859375000023 70.7826171875, 26.506933593750006 70.91279296875, 26.66132812500001 70.93974609375, 26.733984375000006 70.853564453125, 26.67548828125001 70.740966796875, 26.558203125000006 70.669140625, 26.644628906250006 70.63623046875, 26.62812500000001 70.55087890625, 26.583984375 70.45380859375, 26.585058593750006 70.410009765625, 26.666113281250006 70.4216796875, 26.989355468750006 70.511376953125, 27.0712890625 70.608447265625, 27.147265625000017 70.681201171875, 27.183691406250006 70.74404296875, 27.309375000000017 70.803564453125, 27.546484375000006 70.80400390625, 27.5556640625 70.827392578125, 27.26904296875 70.910009765625, 27.235253906250023 70.947216796875, 27.331640625000006 70.996728515625, 27.597070312500023 71.09130859375, 27.733496093750006 71.080859375, 27.815039062500006 71.059375, 28.141699218750006 71.043017578125, 28.39228515625001 70.97529296875, 28.382714843750023 70.86943359375, 28.32685546875001 70.8251953125, 28.271875000000023 70.79794921875, 27.950976562500017 70.717578125, 27.898046875000006 70.6779296875, 27.998828125000017 70.6642578125, 28.215625000000017 70.704345703125, 28.271777343750017 70.66796875, 28.202734375000006 70.576904296875, 28.191015625000006 70.440185546875, 28.166015625 70.360400390625, 28.166015625 70.287646484375, 28.192968750000006 70.248583984375, 28.280078125000017 70.40341796875, 28.309863281250017 70.44306640625, 28.437304687500017 70.5013671875, 28.484765625000023 70.618798828125, 28.609375 70.75966796875, 28.749804687500017 70.84150390625, 28.83154296875 70.86396484375, 29.102343750000017 70.8607421875, 29.218554687500017 70.829931640625, 29.321093750000017 70.761474609375, 29.39765625000001 70.734130859375, 29.639062500000023 70.705029296875, 29.721972656250017 70.6685546875, 29.73750000000001 70.646826171875, 29.796484375000006 70.642529296875, 29.959375000000023 70.694384765625, 30.06513671875001 70.702978515625, 30.237695312500023 70.62216796875, 30.203027343750023 70.5623046875, 30.213183593750017 70.543310546875, 30.42207031250001 70.54716796875, 30.59589843750001 70.523681640625, 30.926367187500006 70.401123046875, 30.96064453125001 70.34384765625, 30.944140625000017 70.2744140625, 30.46894531250001 70.1978515625, 30.262988281250017 70.12470703125, 29.925878906250006 70.096484375, 28.781152343750023 70.14541015625, 28.804296875000006 70.092529296875, 29.601367187500017 69.9767578125, 29.646875000000023 69.943701171875, 29.621386718750017 69.874072265625, 29.620996093750023 69.818212890625, 29.63593750000001 69.780126953125, 29.694628906250017 69.744580078125, 29.792089843750006 69.727880859375, 29.990332031250006 69.736669921875, 30.088281250000023 69.717578125, 30.155175781250023 69.745947265625, 30.180078125000023 69.841162109375, 30.237597656250017 69.86220703125, 30.34882812500001 69.8345703125, 30.397265625000017 69.7328125, 30.428320312500006 69.722265625, 30.484375 69.794873046875, 30.594531250000017 69.7896484375, 30.714453125000006 69.795703125, 31.04951171875001 69.76923828125, 31.452734375000006 69.689599609375, 31.546972656250006 69.696923828125, 31.66621093750001 69.72099609375, 31.78857421875 69.815771484375, 31.87939453125 69.831982421875, 31.997949218750023 69.809912109375, 32.03056640625002 69.835302734375, 31.969335937500006 69.913916015625, 31.98457031250001 69.953662109375, 32.3916015625 69.868701171875, 32.5654296875 69.806494140625, 32.94169921875002 69.75185546875, 33.0078125 69.722119140625, 33.01259765625002 69.6705078125, 32.99462890625 69.626171875, 32.9150390625 69.601708984375, 32.75429687500002 69.605712890625, 32.1767578125 69.6740234375, 32.09150390625001 69.632568359375, 32.16132812500001 69.596630859375, 32.33056640625 69.554248046875, 32.37773437500002 69.4791015625, 32.636816406250006 69.489453125, 32.8837890625 69.46083984375, 32.99980468750002 69.4701171875, 33.02099609375 69.44560546875, 32.94160156250001 69.383349609375, 32.97890625000002 69.367333984375, 33.255859375 69.427734375, 33.384863281250006 69.444287109375, 33.45429687500001 69.428173828125, 33.46367187500002 69.378173828125, 33.41796875 69.315283203125, 33.41298828125002 69.267431640625, 33.327734375000006 69.15185546875, 33.196386718750006 69.116845703125, 33.141210937500006 69.068701171875, 33.33339843750002 69.098193359375, 33.435644531250006 69.13037109375, 33.627050781250006 69.28916015625, 33.68437500000002 69.31025390625, 34.22939453125002 69.313134765625, 34.35273437500001 69.3029296875, 34.86396484375001 69.228076171875, 35.00957031250002 69.221240234375, 35.175878906250006 69.230810546875, 35.23320312500002 69.265576171875, 35.28984375000002 69.275439453125, 35.85791015625 69.191748046875, 36.618261718750006 69.003466796875, 37.730566406250006 68.692138671875, 38.35761718750001 68.41513671875, 38.43017578125 68.355615234375, 38.656835937500006 68.321875, 38.70556640625 68.3447265625, 38.83154296875 68.32490234375, 39.568945312500006 68.071728515625, 39.823339843750006 68.05859375, 39.78974609375001 68.112158203125, 39.74628906250001 68.16220703125, 39.80927734375001 68.150830078125, 39.895605468750006 68.114501953125, 40.035742187500006 68.015380859375, 40.206640625000006 67.94189453125, 40.38066406250002 67.831884765625, 40.52578125000002 67.789697265625, 40.65654296875002 67.774072265625, 40.76630859375001 67.743017578125, 40.966406250000006 67.7134765625, 41.06093750000002 67.444189453125, 41.133886718750006 67.38603515625, 41.133886718750006 67.266943359375, 41.26171875 67.21845703125, 41.35878906250002 67.20966796875, 41.35429687500002 67.121435546875, 41.27558593750001 66.914306640625, 41.18896484375 66.826171875, 40.521582031250006 66.446630859375, 40.10332031250002 66.299951171875, 39.2890625 66.13203125, 38.653906250000006 66.06904296875, 38.397558593750006 66.064453125, 37.90068359375002 66.09560546875, 37.62822265625002 66.12958984375, 37.29482421875002 66.225048828125, 36.98369140625002 66.27255859375, 36.76992187500002 66.2935546875, 36.37343750000002 66.302294921875, 35.51347656250002 66.39580078125, 35.36396484375001 66.428662109375, 34.82460937500002 66.6111328125, 34.61025390625002 66.559619140625, 34.48261718750001 66.550341796875, 34.396093750000006 66.61318359375, 34.43085937500001 66.62978515625, 34.45156250000002 66.651220703125, 34.146093750000006 66.703271484375, 33.893652343750006 66.70673828125, 33.75957031250002 66.7509765625, 33.59541015625001 66.784619140625, 33.52294921875 66.76435546875, 33.482031250000006 66.76455078125, 33.15019531250002 66.8439453125, 33.001953125 66.90830078125, 32.84755859375002 67.021533203125, 32.88525390625 67.0611328125, 32.93046875000002 67.08681640625, 32.39990234375 67.152685546875, 31.895312500000017 67.16142578125, 31.983007812500006 67.129833984375, 32.20156250000002 67.113232421875, 32.34062500000002 67.06787109375, 32.5009765625 67.003857421875, 32.46367187500002 66.91630859375, 32.68642578125002 66.829541015625, 32.85732421875002 66.746923828125, 32.862402343750006 66.72138671875, 32.9287109375 66.7041015625, 33.18056640625002 66.679931640625, 33.22441406250002 66.603857421875, 33.18291015625002 66.573876953125, 33.217382812500006 66.531640625, 33.4052734375 66.48427734375, 33.517675781250006 66.47138671875, 33.65595703125001 66.442626953125, 33.59326171875 66.3845703125, 33.47695312500002 66.346875, 33.36054687500001 66.329541015625, 33.41582031250002 66.315625, 33.56669921875002 66.32099609375, 34.11269531250002 66.225244140625, 34.39980468750002 66.12841796875, 34.69179687500002 65.95185546875, 34.78632812500001 65.86455078125, 34.79316406250001 65.816357421875, 34.776953125000006 65.76826171875, 34.73476562500002 65.71630859375, 34.71552734375001 65.6640625, 34.61572265625 65.509912109375, 34.54414062500001 65.456689453125, 34.40644531250001 65.395751953125, 34.67109375000001 65.168115234375, 34.80351562500002 64.985986328125, 34.8271484375 64.9126953125, 34.832617187500006 64.8001953125, 34.952246093750006 64.75595703125, 34.90546875000001 64.738671875, 34.85830078125002 64.706689453125, 34.86953125000002 64.560009765625, 35.03535156250001 64.440234375, 35.28408203125002 64.362548828125, 35.43203125000002 64.34677734375, 35.647070312500006 64.3783203125, 35.80205078125002 64.3353515625, 36.146484375 64.189013671875, 36.30195312500001 64.034375, 36.36494140625001 64.00283203125, 36.975195312500006 63.909521484375, 37.37275390625001 63.816748046875, 37.44218750000002 63.813378906249994, 37.635351562500006 63.893408203125, 37.96796875000001 63.949121093749994, 38.07080078125 64.025830078125, 38.06220703125001 64.091015625, 37.977148437500006 64.20703125, 37.953710937500006 64.3201171875, 37.84355468750002 64.36630859375, 37.74062500000002 64.39697265625, 37.42958984375002 64.373583984375, 37.28955078125 64.3779296875, 37.183691406250006 64.40849609375, 37.04042968750002 64.48916015625, 36.76933593750002 64.68525390625, 36.62421875000001 64.750537109375, 36.578710937500006 64.790966796875, 36.52822265625002 64.84736328125, 36.53457031250002 64.938623046875, 36.652929687500006 64.93544921875, 36.78593750000002 64.987158203125, 36.8828125 65.17236328125, 37.05019531250002 65.1958984375, 37.14082031250001 65.194287109375, 37.52812500000002 65.108251953125, 38.009375000000006 64.878759765625, 38.11572265625 64.85458984375, 38.412109375 64.857080078125, 38.441992187500006 64.8271484375, 38.54091796875002 64.791259765625, 38.61308593750002 64.786669921875, 39.05351562500002 64.713916015625, 39.5673828125 64.570556640625, 39.75800781250001 64.57705078125, 39.8330078125 64.656396484375, 39.8486328125 64.69052734375, 40.05781250000001 64.770751953125, 40.203710937500006 64.784033203125, 40.407812500000006 64.7548828125, 40.444921875000006 64.7787109375, 40.37539062500002 64.8962890625, 40.28125 64.998095703125, 40.142675781250006 65.06328125, 39.896484375 65.25478515625, 39.79804687500001 65.349853515625, 39.749121093750006 65.44794921875, 39.78115234375002 65.534716796875, 39.816503906250006 65.59794921875, 40.32783203125001 65.751708984375, 40.512792968750006 65.843798828125, 40.69160156250001 65.963427734375, 40.7744140625 65.987890625, 41.07607421875002 66.02109375, 41.47578125000001 66.1234375, 41.780859375000006 66.259326171875, 42.083593750000006 66.46591796875, 42.210546875000006 66.519677734375, 42.31367187500001 66.51474609375, 42.450781250000006 66.482421875, 42.602148437500006 66.422509765625, 42.80654296875002 66.411328125, 43.005957031250006 66.420947265625, 43.23320312500002 66.41552734375, 43.550878906250006 66.3212890625, 43.65312500000002 66.2509765625, 43.550390625000006 66.173388671875, 43.54189453125002 66.123388671875, 43.62392578125002 66.146728515625, 43.73701171875001 66.1583984375, 43.84375 66.1423828125, 43.94414062500002 66.098681640625, 44.016699218750006 66.049755859375, 44.10439453125002 66.00859375, 44.132421875000006 66.06455078125, 44.14531250000002 66.112744140625, 44.09716796875 66.23505859375, 44.220703125 66.407080078125, 44.31640625 66.481689453125, 44.48867187500002 66.67177734375, 44.437109375000006 66.79462890625, 44.429296875000006 66.937744140625, 44.403906250000006 67.00419921875, 44.29179687500002 67.099658203125, 44.07441406250001 67.167333984375, 43.85537109375002 67.188623046875, 43.78242187500001 67.2544921875, 43.79570312500002 67.32958984375, 43.85634765625002 67.439306640625, 44.03642578125002 67.670654296875, 44.22539062500002 67.99560546875, 44.231542968750006 68.071240234375, 44.2138671875 68.11259765625, 44.22646484375002 68.154443359375, 44.204687500000006 68.253759765625, 44.16914062500001 68.327099609375, 43.40400390625001 68.608544921875, 43.358007812500006 68.635791015625, 43.33320312500001 68.673388671875, 43.47197265625002 68.679833984375, 44.04804687500001 68.548828125, 44.17529296875 68.541748046875, 45.078125 68.578173828125, 45.51943359375002 68.546533203125, 45.89199218750002 68.4796875, 46.15839843750001 68.291357421875, 46.4296875 68.11884765625, 46.68359375 67.970458984375, 46.6904296875 67.848828125, 46.42890625000001 67.823681640625, 46.17421875000002 67.8181640625, 45.52871093750002 67.757568359375, 44.939453125 67.47744140625, 44.90214843750002 67.413134765625, 44.939453125 67.35078125, 45.13886718750001 67.284716796875, 45.56220703125001 67.185595703125, 45.752539062500006 66.98916015625, 45.885351562500006 66.891064453125, 45.98603515625001 66.853125, 46.083984375 66.843505859375, 46.29775390625002 66.842822265625, 46.44853515625002 66.818994140625, 46.49238281250001 66.8001953125, 46.552343750000006 66.818994140625, 46.69082031250002 66.825537109375, 47.49648437500002 66.929833984375, 47.655859375000006 66.975927734375, 47.709082031250006 67.04501953125, 47.76806640625 67.275634765625, 47.83925781250002 67.355712890625, 47.908203125 67.4546875, 47.88261718750002 67.51533203125, 47.87470703125001 67.5841796875, 48.27871093750002 67.650390625, 48.65380859375 67.695263671875, 48.83320312500001 67.681494140625, 48.8779296875 67.73134765625, 48.69570312500002 67.87421875, 48.75429687500002 67.895947265625, 48.84062500000002 67.8697265625, 48.95390625000002 67.85380859375, 49.1552734375 67.87041015625, 49.931250000000006 68.06513671875, 50.23320312500002 68.175341796875, 50.4140625 68.218359375, 50.69941406250001 68.317724609375, 50.8388671875 68.349951171875, 51.07851562500002 68.363330078125, 51.33613281250001 68.40244140625, 51.61669921875 68.476318359375, 51.994726562500006 68.53876953125, 52.0556640625 68.54130859375, 52.12880859375002 68.53203125, 52.28535156250001 68.459375, 52.22744140625002 68.418603515625, 52.18349609375002 68.374267578125, 52.322265625 68.339697265625, 52.39667968750001 68.351708984375, 52.47500000000002 68.38212890625, 52.66972656250002 68.4267578125, 52.72265625 68.484033203125, 52.64765625000001 68.50615234375, 52.55009765625002 68.592431640625, 52.43505859375 68.610205078125, 52.34404296875002 68.608154296875, 52.68359375 68.731201171875, 53.41289062500002 68.912548828125, 53.80195312500001 68.9958984375, 54.18583984375002 69.0033203125, 54.4912109375 68.992333984375, 54.37626953125002 68.96474609375, 53.87441406250002 68.926611328125, 53.79765625000002 68.907470703125, 53.79824218750002 68.88466796875, 53.919531250000006 68.871240234375, 53.97060546875002 68.844287109375, 53.929296875000006 68.811865234375, 53.891210937500006 68.801513671875, 53.83388671875002 68.708935546875, 53.758886718750006 68.633984375, 53.91767578125001 68.536962890625, 53.93085937500001 68.435546875, 53.82949218750002 68.382666015625, 53.690039062500006 68.4025390625, 53.56669921875002 68.36708984375, 53.34257812500002 68.343212890625, 53.29335937500002 68.311669921875, 53.26054687500002 68.26748046875, 53.40312500000002 68.2568359375, 53.51513671875 68.25966796875, 53.967871093750006 68.22734375, 54.099218750000006 68.259033203125, 54.39394531250002 68.27509765625, 54.476171875000006 68.294140625, 54.56123046875001 68.273046875, 54.71796875000001 68.1841796875, 54.861328125 68.20185546875, 54.92304687500001 68.373828125, 55.15087890625 68.480029296875, 55.418066406250006 68.567822265625, 55.67529296875 68.57587890625, 55.92460937500002 68.6373046875, 56.04365234375001 68.648876953125, 56.27568359375002 68.624072265625, 56.620214843750006 68.61904296875, 56.90937500000001 68.56669921875, 57.12685546875002 68.55400390625, 57.4443359375 68.64150390625, 58.17304687500001 68.88974609375, 58.23701171875001 68.833935546875, 58.35390625000002 68.9162109375, 58.9189453125 69.00380859375, 59.05732421875001 69.0060546875, 59.05986328125002 68.97255859375, 59.11015625000002 68.8962890625, 59.22041015625001 68.849609375, 59.37050781250002 68.73837890625, 59.29833984375 68.708447265625, 59.22255859375002 68.69130859375, 59.1123046875 68.61630859375, 59.09902343750002 68.4443359375, 59.60429687500002 68.351123046875, 59.725683593750006 68.351611328125, 59.82753906250002 68.380322265625, 59.85878906250002 68.396044921875, 59.89736328125002 68.421923828125, 59.9228515625 68.471337890625, 59.94140625 68.510498046875, 59.86513671875002 68.604931640625, 59.89599609375 68.70634765625, 60.160253906250006 68.69951171875, 60.48916015625002 68.728955078125, 60.6376953125 68.78701171875, 60.81513671875001 68.89521484375, 60.93359375 68.986767578125, 60.85859375000001 69.1455078125, 60.66455078125 69.11025390625, 60.33730468750002 69.45703125, 60.17060546875001 69.59091796875, 60.276464843750006 69.65263671875, 60.558691406250006 69.692333984375, 60.81298828125 69.821142578125, 60.90908203125002 69.847119140625, 61.01591796875002 69.85146484375, 61.7705078125 69.763037109375, 62.63125000000002 69.743115234375, 63.361425781250006 69.67529296875, 64.1904296875 69.53466796875, 64.59218750000002 69.43564453125, 64.92851562500002 69.325390625, 64.89628906250002 69.247802734375, 65.03154296875002 69.26982421875, 65.3267578125 69.2013671875, 65.5279296875 69.1734375, 65.73574218750002 69.13232421875, 65.81269531250001 69.077001953125, 66.08476562500002 69.036328125, 66.41611328125 68.9478515625, 66.7564453125 68.8919921875, 67.00244140625 68.873583984375, 67.14921875000002 68.753955078125, 67.6396484375 68.579296875, 67.73076171875002 68.513671875, 68.15693359375001 68.403662109375, 68.37119140625 68.3142578125, 68.50419921875002 68.3484375, 68.82949218750002 68.567431640625, 69.02431640625002 68.81796875, 69.14052734375002 68.950634765625, 68.9244140625 68.956201171875, 68.76289062500001 68.9173828125, 68.65957031250002 68.927392578125, 68.54277343750002 68.96708984375, 68.355078125 69.067578125, 68.11738281250001 69.23623046875, 68.07304687500002 69.42080078125, 68.005859375 69.480029296875, 67.77431640625002 69.52998046875, 67.62412109375 69.584423828125, 67.064453125 69.693701171875, 66.96406250000001 69.65556640625, 66.9341796875 69.5966796875, 66.89667968750001 69.55380859375, 66.84023437500002 69.6091796875, 66.80400390625002 69.659228515625, 66.80292968750001 69.74013671875, 66.83222656250001 69.8421875, 66.9263671875 70.0142578125, 67.06904296875001 70.005615234375, 67.14443359375002 70.030615234375, 67.2392578125 70.108056640625, 67.19746093750001 70.171630859375, 67.146484375 70.219921875, 67.1568359375 70.2951171875, 67.24687500000002 70.50009765625, 67.284765625 70.738720703125, 67.2115234375 70.7984375, 67.14335937500002 70.837548828125, 66.82246093750001 70.79736328125, 66.70224609375 70.818505859375, 66.67519531250002 70.864697265625, 66.66611328125 70.9005859375, 66.7587890625 70.962353515625, 66.84707031250002 71.063720703125, 66.69257812500001 71.04169921875, 66.6396484375 71.081396484375, 66.76806640625 71.139892578125, 66.917578125 71.282373046875, 67.27421875000002 71.3478515625, 67.54179687500002 71.41201171875, 67.95937500000002 71.548388671875, 68.26923828125001 71.6828125, 68.46943359375001 71.85263671875, 68.607421875 72.012744140625, 68.8296875 72.391552734375, 69.0390625 72.669921875, 69.39140625000002 72.955517578125, 69.61181640625 72.98193359375, 69.6943359375 72.9775390625, 69.708984375 72.956396484375, 69.6587890625 72.9318359375, 69.6451171875 72.89755859375, 69.73828125 72.8849609375, 69.88750000000002 72.882568359375, 70.17216796875002 72.901171875, 70.65537109375 72.890380859375, 71.50019531250001 72.913671875, 71.61699218750002 72.902099609375, 71.92958984375002 72.819677734375, 72.10097656250002 72.82900390625, 72.44638671875 72.79033203125, 72.812109375 72.69140625, 72.78740234375002 72.482958984375, 72.7529296875 72.3431640625, 72.62441406250002 72.079443359375, 72.57412109375002 72.012548828125, 72.375 71.821630859375, 72.27949218750001 71.6955078125, 72.12968750000002 71.6091796875, 71.91201171875002 71.54794921875, 71.884375 71.511376953125, 71.86728515625 71.457373046875, 72.07929687500001 71.306689453125, 72.58134765625002 71.151123046875, 72.70449218750002 70.963232421875, 72.73164062500001 70.8228515625, 72.70000000000002 70.45732421875, 72.6533203125 70.40341796875, 72.46943359375001 70.274951171875, 72.52968750000002 70.172509765625, 72.59941406250002 69.793212890625, 72.61562500000002 69.484033203125, 72.55732421875001 69.37841796875, 72.52705078125001 69.154248046875, 72.52734375 69.080517578125, 72.5767578125 68.968701171875, 72.6783203125 68.874853515625, 72.81191406250002 68.815234375, 73.19072265625002 68.706787109375, 73.54804687500001 68.57451171875, 73.57343750000001 68.5326171875, 73.59169921875002 68.481884765625, 73.46523437500002 68.43076171875, 73.26640625000002 68.294482421875, 73.13945312500002 68.18134765625, 73.12939453125 68.09091796875, 73.17304687500001 67.973046875, 73.15214843750002 67.8650390625, 73.06679687500002 67.766943359375, 72.94873046875 67.696240234375, 72.5943359375 67.586962890625, 71.84746093750002 67.0076171875, 71.66816406250001 66.939697265625, 71.365234375 66.9615234375, 71.44892578125001 66.878955078125, 71.55117187500002 66.76044921875, 71.53955078125 66.68310546875, 71.34199218750001 66.68671875, 71.06562500000001 66.6044921875, 70.939453125 66.54814453125, 70.72490234375002 66.51943359375, 70.56142578125002 66.548681640625, 70.3828125 66.602490234375, 70.40888671875001 66.647607421875, 70.44257812500001 66.66826171875, 70.56796875 66.70087890625, 70.69072265625002 66.7453125, 70.5791015625 66.753759765625, 70.4439453125 66.697314453125, 70.28339843750001 66.685791015625, 70.09375 66.754345703125, 69.94863281250002 66.82998046875, 69.87714843750001 66.845458984375, 69.74042968750001 66.814599609375, 69.2177734375 66.82861328125, 69.0787109375 66.81591796875, 69.01347656250002 66.788330078125, 69.05117187500002 66.766357421875, 69.09111328125002 66.723583984375, 69.14394531250002 66.64072265625, 69.1943359375 66.578662109375, 69.41201171875002 66.5107421875, 69.70097656250002 66.4845703125, 69.982421875 66.401416015625, 70.339453125 66.3423828125, 71.1455078125 66.366650390625, 71.3580078125 66.359423828125, 71.56562500000001 66.333740234375, 71.9169921875 66.246728515625, 72.06757812500001 66.2533203125, 72.32158203125002 66.33212890625, 72.38398437500001 66.50654296875, 72.41738281250002 66.560791015625, 73.34160156250002 66.8068359375, 73.51357421875002 66.861083984375, 73.79208984375 66.9953125, 73.88330078125 67.0849609375, 73.98623046875002 67.327685546875, 74.07451171875002 67.414111328125, 74.67607421875002 67.69462890625, 74.76953125 67.766357421875, 74.78730468750001 67.897509765625, 74.77822265625002 67.9859375, 74.74267578125 68.07353515625, 74.632421875 68.218310546875, 74.51123046875 68.303076171875, 74.39140625000002 68.42060546875, 74.48095703125 68.65888671875, 74.57958984375 68.751220703125, 75.124609375 68.86171875, 75.58955078125001 68.901171875, 76.10751953125003 68.975732421875, 76.31601562500003 68.99150390625, 76.45917968750001 68.978271484375, 76.60576171874999 68.897607421875, 76.73505859375001 68.776904296875, 77.11171875000002 68.59619140625, 77.23847656250001 68.469580078125, 77.26103515624999 68.315576171875, 77.24843750000002 67.941015625, 77.17441406250003 67.778515625, 77.32509765625002 67.73564453125, 77.39560546875003 67.698681640625, 77.57919921875003 67.6439453125, 77.67509765624999 67.589599609375, 77.77158203125003 67.570263671875, 77.98554687500001 67.5591796875, 78.92246093750003 67.589111328125, 78.88759765625002 67.613134765625, 78.83906250000001 67.631201171875, 78.55908203125 67.639111328125, 78.16123046875003 67.678369140625, 77.58828125000002 67.751904296875, 77.52011718750003 67.909619140625, 77.53593749999999 68.007666015625, 77.66484374999999 68.190380859375, 77.7568359375 68.22236328125, 77.9951171875 68.25947265625, 77.95869140625001 68.37705078125, 77.90683593750003 68.482275390625, 77.78525390625003 68.63046875, 77.65068359374999 68.90302734375, 77.46630859375 68.905126953125, 77.32832031250001 68.958642578125, 76.64492187500002 69.1173828125, 76.0009765625 69.23505859375, 75.5611328125 69.251806640625, 75.42001953125 69.238623046875, 75.05351562500002 69.11630859375, 74.81484375000002 69.090576171875, 74.36259765625002 69.144580078125, 73.97744140625002 69.1146484375, 73.83603515625 69.143212890625, 73.77568359375002 69.1982421875, 73.89091796875002 69.41796875, 73.83271484375001 69.50390625, 73.66328125000001 69.61708984375, 73.56015625 69.7072265625, 73.578125 69.802978515625, 73.83017578125 70.17568359375, 73.93740234375002 70.2728515625, 74.20673828125001 70.445458984375, 74.343359375 70.5787109375, 74.31093750000002 70.65361328125, 73.73154296875 71.068701171875, 73.57656250000002 71.21650390625, 73.50722656250002 71.263525390625, 73.365234375 71.319775390625, 73.15048828125 71.385205078125, 73.08623046875002 71.444921875, 73.67177734375002 71.845068359375, 73.939453125 71.91474609375, 74.31123046875001 71.9578125, 74.48906250000002 71.997021484375, 74.80410156250002 72.077392578125, 74.9921875 72.14482421875, 75.05322265625 72.19921875, 75.08994140625 72.263134765625, 75.09707031250002 72.420654296875, 75.06035156250002 72.548779296875, 75.00800781250001 72.61943359375, 74.78681640625001 72.811865234375, 74.86494140625001 72.838427734375, 74.94218750000002 72.85380859375, 75.15244140625 72.852734375, 75.36933593750001 72.796630859375, 75.47490234375002 72.685009765625, 75.603515625 72.5810546875, 75.603125 72.512158203125, 75.59140625 72.4572265625, 75.64433593750002 72.382275390625, 75.69111328125001 72.35, 75.74140625000001 72.296240234375, 75.69443359375 72.253515625, 75.64433593750002 72.23232421875, 75.55019531250002 72.17080078125, 75.39453125 71.983203125, 75.27382812500002 71.958935546875, 75.24746093750002 71.81337890625, 75.50322265625002 71.654638671875, 75.46855468750002 71.534375, 75.41718750000001 71.494677734375, 75.2802734375 71.430078125, 75.29804687500001 71.378466796875, 75.33203125 71.341748046875, 75.73359375000001 71.26591796875, 76.11044921875003 71.2185546875, 76.74199218749999 71.20205078125, 76.92900390624999 71.127880859375, 76.99521484375003 71.1810546875, 77.58964843749999 71.167919921875, 78.06826171875002 70.986328125, 78.32060546874999 70.930419921875, 78.52578125000002 70.91181640625, 78.94218749999999 70.9337890625, 79.01542968749999 70.9501953125, 79.08388671875002 71.002001953125, 78.888671875 70.99716796875, 78.80351562499999 70.97353515625, 78.72392578124999 70.9759765625, 78.58769531249999 70.993896484375, 78.49140625000001 71.025390625, 78.38652343749999 71.087109375, 78.21259765625001 71.26630859375, 77.90839843750001 71.324072265625, 77.70664062500003 71.3005859375, 77.48105468750003 71.311572265625, 77.11367187500002 71.409375, 76.87119140625003 71.44658203125, 76.43339843749999 71.552490234375, 76.31210937500003 71.595458984375, 76.21572265625002 71.682861328125, 76.03242187500001 71.910400390625, 76.1240234375 71.926611328125, 76.42167968749999 72.006005859375, 76.87138671874999 72.0330078125, 77.06132812499999 72.00419921875, 77.55078125 71.84208984375, 77.77753906250001 71.83642578125, 78.18691406250002 71.907080078125, 78.232421875 71.952294921875, 78.14082031250001 72.044677734375, 78.01640624999999 72.092041015625, 77.78066406250002 72.114306640625, 77.49287109375001 72.071728515625, 77.41083984375001 72.107763671875, 77.43974609374999 72.15654296875, 77.47158203125002 72.192138671875, 77.62529296874999 72.201416015625, 77.73320312499999 72.22919921875, 77.96816406250002 72.3287109375, 78.22539062499999 72.37744140625, 78.48261718750001 72.394970703125, 79.42207031250001 72.38076171875, 79.95390624999999 72.223046875, 80.47402343750002 72.153125, 80.76249999999999 72.08916015625, 80.81474609374999 72.054296875, 80.85605468750003 71.97021484375, 81.51123046875 71.746142578125, 81.66162109375 71.715966796875, 82.07988281249999 71.7068359375, 82.54726562500002 71.75859375, 82.7578125 71.764111328125, 82.98613281249999 71.748681640625, 83.10664062500001 71.7205078125, 83.23359375000001 71.6681640625, 83.16552734375 71.602197265625, 83.10566406250001 71.562451171875, 82.97705078125 71.4513671875, 82.91796875 71.419921875, 82.4931640625 71.29287109375, 82.32285156250003 71.260009765625, 82.27695312500003 71.09345703125, 82.25429687500002 71.056201171875, 82.23916015625002 70.997705078125, 82.31601562500003 70.879443359375, 82.3359375 70.807373046875, 82.27070312500001 70.70673828125, 82.16318359375003 70.59814453125, 82.18242187499999 70.511474609375, 82.22119140625 70.395703125, 82.23583984375 70.4302734375, 82.2314453125 70.48291015625, 82.25839843750003 70.543603515625, 82.45166015625 70.690087890625, 82.59248046875001 70.88994140625, 82.73779296875 70.94208984375, 82.869140625 70.954833984375, 83.01015625000002 70.89541015625, 83.05107421874999 70.815234375, 83.05839843749999 70.6947265625, 83.03017578125002 70.580517578125, 82.91982421875002 70.407421875, 82.74248046874999 70.286474609375, 82.68232421875001 70.217724609375, 82.76728515625001 70.154052734375, 82.85654296875003 70.104541015625, 82.96103515625003 70.08828125, 83.08076171875001 70.093017578125, 83.10957031250001 70.1095703125, 83.13203125000001 70.157177734375, 83.09414062500002 70.22109375, 83.07382812500003 70.276708984375, 83.29345703125 70.321337890625, 83.4970703125 70.345263671875, 83.65986328125001 70.418359375, 83.70048828124999 70.46640625, 83.73593750000003 70.546484375, 83.57890624999999 70.76591796875, 83.33388671875002 70.988525390625, 83.15126953125002 71.10361328125, 83.26601562500002 71.27587890625, 83.45761718750003 71.467529296875, 83.53105468749999 71.5142578125, 83.55048828125001 71.54365234375, 83.5712890625 71.594384765625, 83.53437500000001 71.683935546875, 83.34042968750003 71.8275390625, 83.20029296875003 71.87470703125, 82.75507812500001 71.90283203125, 82.64541015625002 71.925244140625, 82.31914062499999 72.071826171875, 82.28066406250002 72.105126953125, 82.20927734374999 72.211181640625, 82.18359375 72.237548828125, 82.09365234375002 72.2654296875, 81.79287109375002 72.326611328125, 81.58623046874999 72.351708984375, 81.28271484375 72.358837890625, 81.09814453125 72.38974609375, 80.82705078125002 72.48828125, 80.79775390625002 72.519970703125, 80.71962890625002 72.647900390625, 80.65625 72.71201171875, 80.67539062500003 72.7591796875, 80.77373046874999 72.860791015625, 80.84160156249999 72.949169921875, 80.75742187500003 73.025244140625, 80.638671875 73.049169921875, 80.50966796875002 73.086083984375, 80.45546875000002 73.155224609375, 80.42451171875001 73.23115234375, 80.4189453125 73.2896484375, 80.39804687500003 73.3568359375, 80.45830078124999 73.413720703125, 80.59589843750001 73.4740234375, 80.56191406250002 73.514990234375, 80.58320312500001 73.56845703125, 81.46884765625003 73.6404296875, 81.81699218750003 73.658837890625, 83.54472656249999 73.66650390625, 83.6669921875 73.686474609375, 84.41738281250002 73.722021484375, 84.73789062500003 73.762841796875, 85.07744140624999 73.71953125, 85.20058593750002 73.721533203125, 85.44833984375003 73.734619140625, 85.61142578125003 73.82158203125, 85.97929687499999 73.85693359375, 86.59140625000003 73.894287109375, 86.89296875000002 73.887109375, 87.02949218750001 73.824169921875, 86.36591796875001 73.619775390625, 86.09414062500002 73.5783203125, 85.82705078125002 73.4927734375, 85.79257812500003 73.438330078125, 85.80244140625001 73.3716796875, 85.81816406249999 73.326953125, 86.09814453125 73.272607421875, 86.30791015624999 73.195751953125, 86.51435546875001 73.140478515625, 86.67705078124999 73.106787109375, 86.71503906250001 73.125830078125, 85.97080078125003 73.3470703125, 85.91005859375002 73.3904296875, 85.93896484375 73.456494140625, 86.09238281250003 73.519140625, 86.37626953124999 73.56884765625, 87.1201171875 73.6150390625, 87.29443359375 73.7046875, 87.36953125000002 73.755908203125, 87.57119140625002 73.8107421875, 87.50322265624999 73.832470703125, 87.33750000000003 73.846044921875, 87.20966796875001 73.878662109375, 86.69707031249999 74.1953125, 86.57109374999999 74.24375, 86.17783203125003 74.27939453125, 86.00136718750002 74.316015625, 86.18291015624999 74.423046875, 86.39580078124999 74.45009765625, 86.53847656250002 74.44423828125, 86.66474609375001 74.4142578125, 86.89794921875 74.325341796875, 87.22968750000001 74.3638671875, 87.10615234375001 74.403564453125, 86.89423828125001 74.44970703125, 86.70009765625002 74.5224609375, 86.42568359375002 74.585498046875, 86.11611328125002 74.628564453125, 85.791015625 74.6451171875, 85.88076171875002 74.740234375, 86.05888671874999 74.72822265625, 86.11953125000002 74.757421875, 86.20126953125003 74.8162109375, 86.65146484375003 74.682421875, 86.86289062500003 74.71787109375, 87.04179687499999 74.778857421875, 87.41933593750002 74.94091796875, 87.46757812499999 75.013232421875, 87.28740234374999 75.0525390625, 87.14072265625003 75.072265625, 86.93906250000003 75.068115234375, 86.92167968749999 75.11279296875, 87.00595703125003 75.16982421875, 87.17080078125002 75.191748046875, 87.67138671875 75.12958984375, 88.50371093749999 75.290478515625, 88.73310546875001 75.369189453125, 89.31025390625001 75.4701171875, 89.59511718750002 75.458251953125, 90.18496093750002 75.591064453125, 91.00468749999999 75.649560546875, 91.4794921875 75.649658203125, 91.84541015625001 75.723681640625, 92.40751953124999 75.749658203125, 92.6025390625 75.7791015625, 93.5498046875 75.8541015625, 94.0751953125 75.912890625, 94.15634765625003 75.959228515625, 93.68701171875 75.92158203125, 93.57402343749999 75.956298828125, 93.47548828125002 75.932861328125, 93.40605468749999 75.90126953125, 93.17812500000002 75.958984375, 93.11630859375003 75.94462890625, 93.06865234374999 75.912841796875, 92.98662109374999 75.902685546875, 92.89042968749999 75.9099609375, 92.85859375000001 75.9794921875, 92.97158203125002 76.07509765625, 93.10488281250002 76.025830078125, 93.25927734375 76.098779296875, 93.35957031250001 76.100732421875, 93.6484375 76.054150390625, 93.84287109375003 76.101318359375, 94.10234374999999 76.123583984375, 94.38828125000003 76.102783203125, 94.50673828125002 76.107958984375, 94.57558593750002 76.1517578125, 95.03847656250002 76.113525390625, 95.35927734375002 76.139599609375, 95.57871093750003 76.1373046875, 95.919921875 76.113134765625, 96.07548828124999 76.081982421875, 95.98603515625001 76.00966796875, 95.6533203125 75.8921875, 95.74384765625001 75.872314453125, 95.93476562500001 75.926025390625, 96.50859374999999 76.00556640625, 96.6005859375 75.989892578125, 96.53769531250003 75.921630859375, 96.4970703125 75.8912109375, 96.87919921874999 75.9310546875, 97.20546875000002 76.018701171875, 97.35068359375003 76.0333984375, 97.49921875000001 75.980224609375, 97.6376953125 76.029052734375, 97.66982421875002 76.07802734375, 97.91835937500002 76.088671875, 98.02001953125 76.13369140625, 98.19462890624999 76.16640625, 98.34199218750001 76.18056640625, 98.66201171875002 76.24267578125, 98.77128906249999 76.2240234375, 98.98466796874999 76.207568359375, 99.18730468749999 76.17763671875, 99.56269531250001 76.109326171875, 99.61562500000002 76.08232421875, 99.66318359375003 76.07802734375, 99.77041015625002 76.028759765625, 99.68925781249999 75.95634765625, 99.60234374999999 75.85205078125, 99.44218749999999 75.803173828125, 99.54072265625001 75.798583984375, 99.609375 75.811279296875, 99.73750000000001 75.8806640625, 99.85136718749999 75.9302734375, 99.82539062500001 76.1359375, 99.61679687500003 76.240185546875, 99.46064453125001 76.27509765625, 99.09384765625003 76.384326171875, 98.8056640625 76.4806640625, 98.86943359374999 76.5095703125, 99.57626953125003 76.471435546875, 99.93574218750001 76.489892578125, 100.32236328125003 76.479150390625, 100.84375 76.5251953125, 101.06074218750001 76.47724609375, 101.31074218750001 76.47890625, 101.59775390625003 76.439208984375, 101.68378906250001 76.485498046875, 101.21298828125003 76.535693359375, 101.00263671875001 76.530517578125, 100.92802734374999 76.55673828125, 101.00625000000002 76.615087890625, 101.09931640625001 76.70400390625, 101.00820312500002 76.78134765625, 100.92041015625 76.822509765625, 100.90585937500003 76.90068359375, 100.98994140625001 76.990478515625, 101.18574218750001 77.028564453125, 101.29287109375002 77.1015625, 101.51767578125003 77.198095703125, 102.61015624999999 77.508544921875, 103.13144531250003 77.62646484375, 103.33125000000001 77.641064453125, 103.56074218750001 77.63193359375, 104.01455078125002 77.730419921875, 104.18486328124999 77.73046875, 104.81425781249999 77.652099609375, 104.96523437500002 77.5947265625, 105.30898437500002 77.54921875, 105.71025390624999 77.525244140625, 105.89453125 77.4888671875, 105.9833984375 77.447607421875, 106.0595703125 77.39052734375, 105.73417968749999 77.352001953125, 105.38457031249999 77.237841796875, 104.91191406249999 77.17470703125, 104.32363281250002 77.132666015625, 104.20244140624999 77.101806640625, 105.32021484375002 77.092333984375, 105.64589843750002 77.10068359375, 105.71201171875003 77.00146484375, 105.82216796875002 76.997509765625, 106.14541015625002 77.0453125, 106.33867187499999 77.0478515625, 106.705078125 77.01376953125, 106.78369140625 77.031787109375, 106.94160156250001 77.034375, 107.27890625000003 76.990966796875, 107.42978515625003 76.9265625, 107.19023437499999 76.822021484375, 106.94091796875 76.73046875, 106.63876953125003 76.573388671875, 106.54550781250003 76.586279296875, 106.38466796875002 76.589453125, 106.41357421875 76.512255859375, 106.68320312500003 76.514697265625, 106.82539062500001 76.480078125, 107.15771484375 76.524072265625, 107.62421875000001 76.510107421875, 107.72216796875 76.522314453125, 107.90224609375002 76.569677734375, 107.94990234375001 76.66064453125, 108.02018559045129 76.71271922717884, 108.93985556889174 75.54127699032473, 109.36271814738099 74.12391661852052, 109.35912857499946 74.06915334280045, 109.07499999999999 74.03232421875, 108.19951171874999 73.694091796875, 107.76542968749999 73.625, 107.27109375000003 73.621044921875, 107.1669921875 73.589404296875, 106.79423828124999 73.37666015625, 106.67939453125001 73.3306640625, 106.18867187500001 73.3080078125, 105.67714843750002 72.95927734375, 105.39277343750001 72.841015625, 105.14394531250002 72.77705078125, 105.40273437500002 72.78994140625, 105.70820312500001 72.836669921875, 106.06669921874999 72.949853515625, 106.15957031250002 73.002001953125, 106.20878906249999 73.060546875, 106.31503906250003 73.106396484375, 106.47792968750002 73.139404296875, 107.10878906250002 73.177294921875, 107.36875000000003 73.163134765625, 107.75039062500002 73.17314453125, 108.00126953124999 73.235595703125, 108.15097656250003 73.25791015625, 108.28535156250001 73.265869140625, 108.35146484375002 73.310205078125, 108.57539062500001 73.31904296875, 109.08994140625003 73.37841796875, 109.16562500000003 73.399609375, 109.32063711783829 73.48191952848025, 109.26942593789038 72.70063093213705, 108.77412266756822 71.28319301156148, 107.96051350423659 69.88097908982195, 106.89074990888649 68.50175881415203, 105.61163664783662 67.15220405155912, 104.15894640402259 65.83822040284808, 102.56043425575685 64.56516521516843, 100.83796490157268 63.33799135651331, 99.00903224435592 62.16134124467543, 97.08785917875504 61.03960668830869, 95.08620401943593 59.97696463934297, 84.45007454048141 52.782149101986164, 83.04591108209588 51.610057753788276, 81.54054101446931 50.50560042854186, 70.44066008866449 40.35139253881393, 69.35990432591778 39.15850627041305, 68.17863601318615 38.03940737633699, 66.90765812593511 37.00054132093171, 65.55711477453652 36.04771949862707, 64.1366086883486 35.186140136382676, 62.65530392627107 34.4204019384436, 61.12201354252054 33.754512225800916, 59.54527278661769 33.191891172279874, 57.93339899638622 32.73537356666547, 56.29453975236532 32.387209340354666, 54.636711160874874 32.14906389444243, 52.96782835329295 32.02201904024825, 51.29573044611207 32.006575135352236, 49.628202305715824 32.102654757023934, 47.97299550515323 32.3096080116949, 46.33785084862474 32.626219338970024, 44.730524775657116 33.05071543785347, 43.15882184587776 33.58077372691814, 41.63063535300222 34.213530553099595, 40.15399792828441 34.945588187599675, 38.73714377004563 35.773019491717314, 37.38858386865816 36.69136899791714, 36.11719526179542 37.695649028464125, 34.93232490549316 38.780329361999456, 33.84390810054877 39.93931885637811, 32.86260043950797 41.16593734849591, 32.452800581093314 41.777273530058466, 32.54218750000001 41.806396484375, 32.94667968750002 41.891748046874994, 33.284765625000006 42.00458984375, 33.38134765625 42.017578125, 34.192968750000006 41.963671874999996, 34.75048828125 41.956835937499996, 35.006445312500006 42.063281249999996, 35.154882812500006 42.0275390625, 35.14101562500002 41.989501953125, 35.11406250000002 41.956982421875, 35.1220703125 41.89111328125, 35.20917968750001 41.794384765625, 35.29775390625002 41.728515625, 35.55800781250002 41.634033203125, 35.91982421875002 41.713720703125, 36.0517578125 41.682568359375, 36.17919921875 41.426562499999996, 36.278417968750006 41.3361328125, 36.405371093750006 41.274609375, 36.50966796875002 41.262499999999996, 36.58710937500001 41.32666015625, 36.647070312500006 41.3525390625, 36.77773437500002 41.3634765625, 36.99199218750002 41.275390625, 37.06621093750002 41.184423828125, 37.43095703125002 41.114111328125, 37.765625 41.078906249999996, 37.91005859375002 41.001904296875, 38.38105468750001 40.92451171875, 38.55693359375002 40.9365234375, 38.852148437500006 41.01767578125, 39.426367187500006 41.1064453125, 39.80791015625002 40.98251953125, 39.9111328125 40.966455078124994, 40.00019531250001 40.9771484375, 40.12841796875 40.943017578124994, 40.265234375000006 40.961328124999994, 40.6875 41.107421875, 40.81953125000001 41.190234374999996, 40.95947265625 41.21162109375, 41.083593750000006 41.261181640625, 41.41435546875002 41.423632812499996, 41.701757812500006 41.705419921875, 41.7587890625 41.817138671875, 41.76298828125002 41.970019531249996, 41.66328125000001 42.146874999999994, 41.48876953125 42.659326171874994, 41.41943359375 42.737646484375, 41.12871093750002 42.828125, 41.061621093750006 42.930859375, 40.83662109375001 43.0634765625, 40.524023437500006 43.121044921875, 40.46210937500001 43.145703125, 40.19062500000001 43.312402343749994, 39.873632812500006 43.472802734374994, 39.516699218750006 43.727880859375, 39.32939453125002 43.897265624999996, 38.71728515625 44.2880859375, 38.635839843750006 44.318017578124994, 38.31181640625002 44.374462890625, 38.181250000000006 44.419677734375, 37.85146484375002 44.698828125, 37.70488281250002 44.661376953125, 37.57246093750001 44.670849609375, 37.4951171875 44.695263671875, 37.41132812500001 44.7353515625, 37.35234375000002 44.788378906249996, 37.28408203125002 44.905029296875, 37.20478515625001 44.971972656249996, 36.944433593750006 45.069580078125, 36.65078125000002 45.12646484375, 36.62763671875001 45.151318359375, 36.619140625 45.185498046875, 36.873046875 45.251757812499996, 36.94121093750002 45.289697265624994, 36.81103515625 45.3400390625, 36.76162109375002 45.34833984375, 36.72041015625001 45.371874999999996, 36.79375000000002 45.409716796874996, 36.86591796875001 45.427050781249996, 36.97783203125002 45.383593749999996, 37.103515625 45.302880859374994, 37.21357421875001 45.272314453125, 37.264257812500006 45.310937499999994, 37.64716796875001 45.377197265625, 37.672949218750006 45.429736328124996, 37.671875 45.48837890625, 37.634375000000006 45.486328125, 37.609960937500006 45.49951171875, 37.612402343750006 45.564697265625, 37.66923828125002 45.654052734375, 37.840917968750006 45.799560546875, 37.93310546875 46.001708984375, 38.014257812500006 46.047753906249994, 38.073828125000006 46.01708984375, 38.06972656250002 45.969873046874994, 38.07958984375 45.934814453125, 38.1328125 46.002832031249994, 38.18359375 46.09482421875, 38.31181640625002 46.095361328124994, 38.400390625 46.080029296875, 38.492285156250006 46.09052734375, 38.31523437500002 46.241943359375, 38.077734375000006 46.394335937499996, 37.9775390625 46.382861328124996, 37.91386718750002 46.406494140625, 37.8095703125 46.532080078125, 37.76650390625002 46.636132812499994, 37.86738281250001 46.6337890625, 37.96796875000001 46.618017578125, 38.15947265625002 46.690673828125, 38.22998046875 46.70126953125, 38.34345703125001 46.6783203125, 38.5009765625 46.663671875, 38.48798828125001 46.732177734375, 38.43867187500001 46.8130859375, 38.63076171875002 46.873046875, 38.80107421875002 46.906152343749994, 39.12675781250002 47.0234375, 39.27070312500001 47.044140625, 39.2890625 47.0708984375, 39.29345703125 47.105761718749996, 39.24453125000002 47.199511718749996, 39.19570312500002 47.268847656249996, 39.02373046875002 47.272216796875, 38.928320312500006 47.175683593749994, 38.66816406250001 47.143945312499994, 38.55244140625001 47.150341796875, 38.64433593750002 47.212207031249996, 38.73603515625001 47.23583984375, 38.76191406250001 47.261621093749994, 38.577246093750006 47.239111328125, 38.48476562500002 47.175537109375, 38.178320312500006 47.080224609374994, 37.828710937500006 47.095849609374994, 37.54335937500002 47.074560546875, 37.33984375 46.916894531249994, 37.21855468750002 46.917333984375, 37.04755859375001 46.876220703125, 36.93203125000002 46.825146484375, 36.79482421875002 46.714404296874996, 36.68867187500001 46.764111328125, 36.55878906250001 46.7626953125, 36.43203125000002 46.732568359374994, 36.27949218750001 46.658593749999994, 36.19462890625002 46.6455078125, 36.02490234375 46.666796874999996, 35.8271484375 46.624316406249996, 35.40019531250002 46.381396484374996, 35.25664062500002 46.203906249999996, 35.20439453125002 46.169189453125, 35.13232421875 46.125878906249994, 35.055273437500006 46.10400390625, 35.01455078125002 46.106005859374996, 35.2177734375 46.232177734375, 35.28017578125002 46.2794921875, 35.29091796875002 46.314404296875, 35.2919921875 46.370703125, 35.23037109375002 46.440625, 35.064062500000006 46.267236328124994, 34.96953125000002 46.242089843749994, 34.849609375 46.189892578125, 34.84375 46.073583984375, 34.85732421875002 45.987353515624996, 34.90664062500002 45.878808593749994, 35.02285156250002 45.700976562499996, 35.26015625000002 45.446923828124994, 35.37392578125002 45.35361328125, 35.45751953125 45.316308593749994, 35.55800781250002 45.310888671875, 35.7509765625 45.38935546875, 35.83349609375 45.401611328125, 36.01289062500001 45.3716796875, 36.0771484375 45.424121093749996, 36.170507812500006 45.453076171875, 36.29033203125002 45.45673828125, 36.42705078125002 45.433251953124994, 36.57500000000002 45.3935546875, 36.514257812500006 45.303759765624996, 36.450781250000006 45.232324218749994, 36.39335937500002 45.065380859375, 36.22988281250002 45.0259765625, 36.054785156250006 45.030810546874996, 35.8701171875 45.005322265625, 35.75947265625001 45.070849609374996, 35.67753906250002 45.102001953125, 35.56953125000001 45.1193359375, 35.47255859375002 45.098486328125, 35.35781250000002 44.978417968749994, 35.15478515625 44.896337890625, 35.08769531250002 44.802636718749994, 34.887792968750006 44.823583984375, 34.716894531250006 44.80712890625, 34.46992187500001 44.7216796875, 34.28173828125 44.538427734375, 34.07441406250001 44.423828125, 33.90996093750002 44.387597656249994, 33.75566406250002 44.39892578125, 33.655859375000006 44.433203125, 33.45068359375 44.553662109375, 33.46269531250002 44.596826171874994, 33.491308593750006 44.618603515625, 33.53007812500002 44.680517578125, 33.61220703125002 44.9078125, 33.601171875000006 44.981494140624996, 33.55517578125 45.09765625, 33.39248046875002 45.187841796875, 33.26152343750002 45.170751953125, 33.18691406250002 45.194775390625, 32.91865234375001 45.34814453125, 32.77265625000001 45.358984375, 32.611328125 45.328076171875, 32.551855468750006 45.350390624999996, 32.50800781250001 45.40380859375, 32.82802734375002 45.593017578125, 33.14228515625001 45.74921875, 33.28007812500002 45.765234375, 33.46621093750002 45.837939453124996, 33.66484375000002 45.947070312499996, 33.63671875 46.032861328124994, 33.59414062500002 46.096240234374996, 33.42988281250001 46.0576171875, 33.26347656250002 46.12568359375, 33.202246093750006 46.175732421875, 32.94179687500002 46.123779296875, 32.796875 46.131494140624994, 32.47675781250001 46.08369140625, 32.32988281250002 46.13037109375, 32.035742187500006 46.260986328125, 31.925195312500023 46.287255859374994, 31.83125000000001 46.281689453125, 31.77998046875001 46.324658203125, 31.842871093750006 46.346142578125, 31.915917968750023 46.348681640624996, 31.99169921875 46.364404296874994, 32.01308593750002 46.387158203125, 32.00849609375001 46.429980468749996, 31.855761718750017 46.462451171874996, 31.713671875000017 46.47177734375, 31.623632812500006 46.51025390625, 31.55488281250001 46.554296875, 31.71601562500001 46.554980468749996, 31.8779296875 46.5216796875, 32.131445312500006 46.509375, 32.361328125 46.474951171875, 32.4189453125 46.5177734375, 32.55253906250002 46.5919921875, 32.57802734375002 46.615624999999994, 32.354101562500006 46.564843749999994, 32.12724609375002 46.597216796874996, 32.04433593750002 46.642480468749994, 31.97431640625001 46.708789062499996, 31.944921875000006 46.784375, 31.96406250000001 46.854833984375, 31.939550781250006 46.981982421874996, 31.86474609375 47.095117187499994, 31.838183593750017 47.1572265625, 31.759179687500023 47.212841796875, 31.8369140625 47.08701171875, 31.86591796875001 47.003271484375, 31.912695312500006 46.926123046875, 31.901660156250017 46.721630859375, 31.872851562500017 46.649755859375, 31.779589843750017 46.631640624999996, 31.657031250000017 46.642431640625, 31.532128906250023 46.66474609375, 31.563378906250023 46.777294921875, 31.496875000000017 46.73837890625, 31.402929687500006 46.628808593749994, 31.3203125 46.6125, 31.136816406250006 46.624462890625, 30.796289062500023 46.552001953125, 30.772851562500023 46.473046874999994, 30.7216796875 46.3662109375, 30.672265625000023 46.304003906249996, 30.65673828125 46.266503906249994, 30.511523437500017 46.105371093749994, 30.42318453512532 46.03322713175325, 30.254885816262615 46.59188507604334, 30.004233980625305 48.03228081273358, 29.94753940558036 49.48464017548566, 30.0195533695963 59.89225465310504, 30.12255859375 59.873583984375, 30.156835937500006 59.904296875, 30.172656250000017 59.95712890625, 30.020395047334286 60.01389574773222, 30.02572531681563 60.78423786931569, 25.3439021485986 68.34214785819375, 24.259624145946805 69.73823731474664, 23.839533844211356 70.4594609217708, 23.89716796875001 70.478759765625)), ((107.26953125 77.289013671875, 107.30085465083108 77.30764351712735, 107.39639451630867 77.24248461898499, 107.30224609375 77.24150390625, 107.26953125 77.289013671875)), ((103.6728515625 79.15, 103.73918229849951 79.14962024387788, 105.31611273826839 78.51089268135935, 105.31259765625003 78.49990234375, 104.83261718750003 78.352734375, 104.74179687500003 78.33974609375, 104.51943359375002 78.34921875, 104.29746093750003 78.33505859375, 103.71933593750003 78.258251953125, 103.00312500000001 78.255859375, 102.79667968749999 78.187890625, 102.67314453124999 78.201708984375, 102.6171875 78.224609375, 102.18046874999999 78.205322265625, 101.2041015625 78.191943359375, 101.03994140625002 78.14296875, 100.54121093750001 78.047509765625, 100.08222656250001 77.975, 99.84501953124999 77.9568359375, 99.50029296874999 77.97607421875, 99.39169921875003 78.00068359375, 99.287109375 78.0380859375, 99.43867187500001 78.083935546875, 99.54560546875001 78.178564453125, 99.67792968750001 78.23349609375, 100.01894531250002 78.338916015625, 100.12353515625 78.470458984375, 100.25722656250002 78.573828125, 100.2626953125 78.631494140625, 100.28398437499999 78.67919921875, 100.41640625000002 78.753173828125, 100.515625 78.78779296875, 100.61962890625 78.797412109375, 100.87558593750003 78.78359375, 100.95576171875001 78.7884765625, 100.89794921875 78.812451171875, 100.85624999999999 78.89775390625, 100.86455078124999 78.925830078125, 100.9013671875 78.980078125, 101.03085937500003 79.023291015625, 101.06816406249999 79.096240234375, 101.05224609375 79.1232421875, 101.14882812500002 79.156884765625, 101.19609374999999 79.204443359375, 101.31044921875002 79.2326171875, 101.54306640625003 79.254443359375, 101.55527343750003 79.312646484375, 101.59062499999999 79.350439453125, 101.76132812500003 79.37197265625, 101.82421875 79.37021484375, 101.912109375 79.31162109375, 102.00527343750002 79.263671875, 102.12851562500003 79.252490234375, 102.25126953124999 79.2560546875, 102.17724609375 79.31259765625, 102.1806640625 79.373388671875, 102.22509765625 79.412939453125, 102.28242187500001 79.430078125, 102.40488281250003 79.433203125, 102.78984374999999 79.392138671875, 103.04160156250003 79.33154296875, 103.09794921874999 79.29912109375, 103.05244140625001 79.28251953125, 102.93964843750001 79.27119140625, 102.884765625 79.253955078125, 102.78730468750001 79.176416015625, 102.74580078125001 79.1060546875, 102.44785156250003 78.87666015625, 102.41230468750001 78.83544921875, 102.58730468750002 78.8712890625, 102.74765625000003 78.949560546875, 102.84482421875003 79.01435546875, 102.95039062500001 79.05576171875, 103.07568359375 79.056494140625, 103.19912109375002 79.0712890625, 103.43339843749999 79.126123046875, 103.6728515625 79.15)), ((100.14150390625002 79.68369140625, 100.30029296875 79.670263671875, 100.13593750000001 79.614208984375, 99.91542968750002 79.601611328125, 99.95576171875001 79.69033203125, 100.068359375 79.701025390625, 100.14150390625002 79.68369140625)), ((98.06455078125003 79.90107421875, 98.27324218749999 79.87412109375, 98.35312500000003 79.884326171875, 98.4990234375 79.953125, 98.47187500000001 80.009130859375, 98.53183593750003 80.043603515625, 98.59648437499999 80.052197265625, 98.86591796875001 80.04541015625, 99.294921875 80.016357421875, 99.37070312500003 79.986376953125, 99.47304687500002 79.970166015625, 99.5361328125 79.94130859375, 99.7265625 79.919921875, 99.818359375 79.898193359375, 99.94658203124999 79.848974609375, 100.06123046875001 79.777099609375, 99.91582031249999 79.738330078125, 99.83925781250002 79.6689453125, 99.80546874999999 79.653076171875, 99.78164062500002 79.628271484375, 99.77109375000003 79.567724609375, 99.74882812499999 79.515185546875, 99.72119140625 79.491845703125, 99.70625000000001 79.4634765625, 99.72158203125002 79.385107421875, 99.6806640625 79.32333984375, 99.53730468750001 79.2765625, 99.38779296875003 79.274755859375, 99.16708984375003 79.306298828125, 99.10439453125002 79.30537109375, 99.04179687499999 79.293017578125, 99.3173828125 79.227197265625, 99.51728515625001 79.13017578125, 99.81464843750001 79.095849609375, 99.89960937500001 79.006396484375, 99.92929687500003 78.96142578125, 99.54082031249999 78.852734375, 99.43955078125003 78.834228515625, 98.81953125000001 78.81826171875, 98.4111328125 78.78779296875, 98.05419921875 78.82099609375, 97.90517578125002 78.810205078125, 97.68857421875003 78.82734375, 97.55546874999999 78.8265625, 97.24814453125003 78.868017578125, 96.93291015624999 78.933935546875, 96.80781250000001 78.9849609375, 96.42998046874999 79.00302734375, 96.34736328125001 79.015869140625, 95.79648437500003 79.001416015625, 95.70283203125001 79.01201171875, 95.53105468749999 79.098095703125, 95.43691406250002 79.09931640625, 95.13320312500002 79.049609375, 95.02041015625002 79.052685546875, 94.791015625 79.08662109375, 94.65234375 79.127490234375, 94.63164062499999 79.140869140625, 94.61972656250003 79.1923828125, 94.48212890625001 79.218603515625, 94.31376953124999 79.30751953125, 94.21875 79.40234375, 93.75859374999999 79.451416015625, 93.47871093750001 79.462744140625, 93.27226562499999 79.4583984375, 93.07080078125 79.4953125, 93.40468750000002 79.631591796875, 93.84726562500003 79.70166015625, 94.03818359375003 79.756005859375, 94.25712890624999 79.829736328125, 94.34726562500003 79.941943359375, 94.71943359375001 80.01123046875, 94.81503906250003 80.034814453125, 94.94677734375 80.0892578125, 94.9873046875 80.096826171875, 95.28134765625003 80.030517578125, 95.33798828125003 80.042138671875, 95.39072265625003 80.072802734375, 95.49755859375 80.105615234375, 95.85781250000002 80.110009765625, 96.16250000000002 80.096826171875, 96.27734375 80.11005859375, 96.41660156250003 80.104345703125, 97.12050781250002 80.15302734375, 97.58681640625002 80.16826171875, 97.67451171875001 80.158251953125, 97.90361328124999 80.09501953125, 98.01777343750001 80.0228515625, 97.90673828125 80.003759765625, 97.80791015624999 79.956298828125, 97.75996093750001 79.895849609375, 97.626953125 79.850439453125, 97.59130859375 79.774951171875, 97.65166015624999 79.76064453125, 97.72451171875002 79.781396484375, 97.87070312500003 79.85263671875, 98.06455078125003 79.90107421875)), ((97.22138671875001 80.65244140625, 97.11308593749999 80.6140625, 97.025390625 80.535546875, 97.11503906249999 80.49658203125, 97.25019531250001 80.36298828125, 97.28681640625001 80.342529296875, 97.4169921875 80.32314453125, 97.29843750000003 80.27275390625, 97.17519531250002 80.241015625, 95.85576171874999 80.176953125, 94.96132812500002 80.150390625, 94.66123046875003 80.122802734375, 94.56503906250003 80.12607421875, 94.32841796874999 80.076025390625, 93.87236328124999 80.010107421875, 93.65468750000002 80.009619140625, 93.00234375000002 80.102099609375, 92.20156250000002 80.179296875, 92.09218750000002 80.22333984375, 91.8916015625 80.249267578125, 91.63740234375001 80.269921875, 91.52382812500002 80.358544921875, 91.68779296874999 80.418505859375, 91.89667968750001 80.4775390625, 92.24667968750003 80.49912109375, 92.57792968749999 80.533251953125, 92.82675781250003 80.6185546875, 92.98105468750003 80.702978515625, 93.26249999999999 80.791259765625, 92.77294921875 80.76865234375, 92.59257812499999 80.780859375, 92.61015624999999 80.810009765625, 92.71035156250002 80.87216796875, 92.7646484375 80.89306640625, 92.93867187500001 80.925830078125, 93.06513671875001 80.9884765625, 93.35869140624999 81.031689453125, 93.63671875 81.038134765625, 93.88886718750001 81.0583984375, 94.14013671875 81.089453125, 94.37548828125 81.107373046875, 94.61162109374999 81.1146484375, 94.837890625 81.139404296875, 95.0288699369042 81.18108695317284, 97.86866200833137 80.75718732970067, 97.8564453125 80.698095703125, 97.74716796875003 80.698681640625, 97.66542968750002 80.678076171875, 97.22138671875001 80.65244140625)), ((97.58837890625 76.599365234375, 97.53525390625003 76.584423828125, 97.43037109375001 76.59072265625, 97.34169921875002 76.628857421875, 97.31035156249999 76.689599609375, 97.38164062499999 76.706689453125, 97.58837890625 76.599365234375)), ((96.97421875000003 76.2365234375, 96.7978515625 76.188427734375, 96.75449218750003 76.195751953125, 96.73935546875003 76.20693359375, 96.740234375 76.257861328125, 96.83291015625002 76.324169921875, 96.83525390624999 76.34482421875, 96.8779296875 76.355224609375, 96.990234375 76.343408203125, 97.04531250000002 76.315380859375, 97.05302734374999 76.302587890625, 96.97421875000003 76.2365234375)), ((95.3798828125 76.2890625, 95.59443359375001 76.249609375, 95.78623046875003 76.293896484375, 96.15097656250003 76.271875, 96.27070312500001 76.30537109375, 96.61396484375001 76.263818359375, 96.58964843749999 76.221240234375, 96.48671875000002 76.233740234375, 96.35078125000001 76.212158203125, 96.35341796875002 76.177490234375, 96.30058593749999 76.121728515625, 96.10878906250002 76.15546875, 95.84453124999999 76.16025390625, 95.67861328125002 76.19365234375, 95.31113281250003 76.21474609375, 95.32207031249999 76.26162109375, 95.3798828125 76.2890625)), ((96.56191406250002 77.154052734375, 96.56132812499999 77.12958984375, 96.20986328125002 76.992138671875, 96.09140625000003 77.0025390625, 95.85468750000001 76.974951171875, 95.76582031250001 76.990625, 95.68085937500001 77.021337890625, 95.36406249999999 77.0115234375, 95.27031249999999 77.01884765625, 95.42070312499999 77.056494140625, 95.85410156250003 77.09755859375, 96.52841796875003 77.205517578125, 96.56191406250002 77.154052734375)), ((93.48154296875003 79.94111328125, 93.80312500000002 79.904541015625, 93.603515625 79.816748046875, 93.38203125000001 79.78388671875, 93.15507812499999 79.73759765625, 92.92626953125 79.7044921875, 92.44062500000001 79.67548828125, 92.15371093750002 79.68466796875, 91.68359375 79.790576171875, 91.37626953124999 79.835498046875, 91.12607421875003 79.904931640625, 91.0703125 79.981494140625, 91.22929687499999 80.030712890625, 91.42597656250001 80.04921875, 92.17343750000003 80.045458984375, 92.5927734375 79.996533203125, 93.48154296875003 79.94111328125)), ((89.90117187499999 81.170703125, 90.06992187500003 81.213720703125, 91.10898437500003 81.19912109375, 91.47783203124999 81.183935546875, 91.56718749999999 81.1412109375, 91.22285156250001 81.063818359375, 89.97578125000001 81.113134765625, 89.91943359375 81.14873046875, 89.90117187499999 81.170703125)), ((89.17929687500003 77.209912109375, 89.14169921875003 77.226806640625, 89.20048828124999 77.27197265625, 89.28154296874999 77.30146484375, 89.6162109375 77.31103515625, 89.67958984375002 77.280322265625, 89.66582031249999 77.2544921875, 89.51425781250003 77.188818359375, 89.29951171875001 77.183984375, 89.17929687500003 77.209912109375)), ((86.60546875 74.992822265625, 86.73710937499999 74.96298828125, 87.00058593750003 74.991943359375, 87.05214843750002 74.982568359375, 87.12431640624999 74.939892578125, 87.01171875 74.8619140625, 86.92714843750002 74.83076171875, 86.69199218750003 74.848291015625, 86.39052734375002 74.85087890625, 86.25859374999999 74.893505859375, 86.33066406250003 74.93896484375, 86.50449218750003 74.965966796875, 86.60546875 74.992822265625)), ((84.67988281250001 74.512353515625, 84.87285156249999 74.51552734375, 84.75898437500001 74.459423828125, 84.71044921875 74.3998046875, 84.42890625000001 74.430322265625, 84.38945312499999 74.454443359375, 84.54033203124999 74.4904296875, 84.67988281250001 74.512353515625)), ((83.49580078125001 74.0484375, 83.44999999999999 74.05166015625, 83.41064453125 74.03955078125, 83.15898437499999 74.075341796875, 82.81777343750002 74.0916015625, 82.90292968750003 74.12890625, 83.14980468750002 74.151611328125, 83.51347656249999 74.12236328125, 83.61835937500001 74.089453125, 83.54902343750001 74.07177734375, 83.49580078125001 74.0484375)), ((82.47812500000003 74.07578125, 82.38154296875001 74.09921875, 82.32939453124999 74.131103515625, 82.38242187500003 74.149267578125, 82.52558593750001 74.16142578125, 82.61103515625001 74.14853515625, 82.68896484375 74.11123046875, 82.7099609375 74.090869140625, 82.61279296875 74.0564453125, 82.47812500000003 74.07578125)), ((81.50058593750003 75.367919921875, 81.71210937500001 75.451416015625, 81.84218750000002 75.40703125, 81.92656249999999 75.4099609375, 81.90976562500003 75.460009765625, 81.91279296875001 75.497705078125, 82.02187500000002 75.5134765625, 82.16562500000003 75.515625, 82.17236328125 75.419384765625, 82.20878906249999 75.386962890625, 82.22158203125002 75.350537109375, 82.17929687500003 75.33896484375, 82.05009765624999 75.340966796875, 81.978515625 75.247119140625, 81.90507812499999 75.26279296875, 81.86054687500001 75.31650390625, 81.69765625000002 75.280517578125, 81.65478515625 75.288916015625, 81.57929687500001 75.33095703125, 81.53212890625002 75.33955078125, 81.50058593750003 75.367919921875)), ((80.02666015624999 80.84814453125, 79.09853515625002 80.812060546875, 78.97763671875003 80.8482421875, 79.10986328125 80.923583984375, 79.21738281250003 80.9603515625, 79.806640625 80.975390625, 80.27958984374999 80.9498046875, 80.42792968750001 80.927685546875, 80.34482421875003 80.867919921875, 80.02666015624999 80.84814453125)), ((79.4306640625 72.710693359375, 78.88056640625001 72.751611328125, 78.69023437499999 72.80341796875, 78.63320312500002 72.850732421875, 78.65683593750003 72.89228515625, 79.16425781250001 73.0943359375, 79.35654296875003 73.038623046875, 79.41250000000002 72.98310546875, 79.54130859374999 72.91865234375, 79.53789062499999 72.7693359375, 79.50146484375 72.721923828125, 79.4306640625 72.710693359375)), ((78.36513671875002 72.482421875, 78.15449218750001 72.4169921875, 78.00722656250002 72.39248046875, 77.78085937500003 72.308544921875, 77.63251953125001 72.291259765625, 77.14560546875003 72.281884765625, 76.90595703125001 72.29765625, 76.87109375 72.317041015625, 76.90312499999999 72.365576171875, 77.14951171875003 72.439208984375, 77.26044921875001 72.4861328125, 77.37783203125002 72.565283203125, 77.57871093750003 72.630859375, 77.74853515625 72.631201171875, 78.27910156249999 72.55322265625, 78.35292968750002 72.504296875, 78.36513671875002 72.482421875)), ((76.07187500000003 79.625634765625, 76.05156249999999 79.6447265625, 76.1484375 79.664453125, 76.24892578125002 79.65107421875, 76.37255859375 79.615234375, 76.46738281250003 79.6431640625, 77.36015624999999 79.5568359375, 77.54931640625 79.5244140625, 77.58896484375003 79.501904296875, 76.81015625000003 79.489501953125, 76.64951171875003 79.493408203125, 76.63652343749999 79.54443359375, 76.45761718750003 79.545458984375, 76.15371093750002 79.578759765625, 76.07187500000003 79.625634765625)), ((76.75605468750001 73.44580078125, 76.65937500000001 73.439501953125, 76.23447265625003 73.476220703125, 76.08310546875003 73.523486328125, 76.13955078125002 73.554296875, 76.25068359375001 73.5552734375, 76.75605468750001 73.44580078125)), ((75.375 73.477392578125, 75.56972656250002 73.540625, 75.93017578125 73.5736328125, 76.03945312500002 73.559912109375, 76.05156249999999 73.549267578125, 75.9009765625 73.481494140625, 75.8271484375 73.459130859375, 75.50371093750002 73.456640625, 75.3443359375 73.432275390625, 75.375 73.477392578125)), ((74.9615234375 73.0625, 74.74257812500002 73.03271484375, 74.64726562500002 72.96904296875, 74.66015625 72.929296875, 74.69716796875002 72.90771484375, 74.66054687500002 72.8734375, 74.63837890625001 72.86376953125, 74.58808593750001 72.88115234375, 74.43476562500001 72.907666015625, 74.1806640625 72.975341796875, 74.1001953125 73.021533203125, 74.14238281250002 73.074365234375, 74.19853515625002 73.10908203125, 74.4087890625 73.13046875, 74.72529296875001 73.108154296875, 74.9615234375 73.0625)), ((70.94023437500002 73.514404296875, 71.1412109375 73.477978515625, 71.23164062500001 73.44775390625, 71.351171875 73.372216796875, 71.58955078125001 73.283154296875, 71.63046875 73.2248046875, 71.62617187500001 73.173974609375, 71.35566406250001 73.162451171875, 70.88671875 73.11962890625, 70.67392578125 73.09501953125, 70.38037109375 73.048095703125, 70.29833984375 73.044482421875, 70.11865234375 73.056298828125, 70.04072265625001 73.037158203125, 69.92011718750001 73.084521484375, 69.93037109375001 73.126611328125, 69.98564453125002 73.16923828125, 70.01875000000001 73.22431640625, 69.99589843750002 73.359375, 70.14960937500001 73.4447265625, 70.35000000000002 73.47763671875, 70.94023437500002 73.514404296875)), ((70.11005859375001 66.569091796875, 70.0591796875 66.517578125, 70.02070312500001 66.502197265625, 69.8447265625 66.48974609375, 69.6513671875 66.56533203125, 69.4693359375 66.715966796875, 69.50273437500002 66.75107421875, 69.61640625000001 66.739013671875, 69.800390625 66.736474609375, 69.917578125 66.711669921875, 70.07666015625 66.6958984375, 70.0576171875 66.627197265625, 70.0572265625 66.599462890625, 70.11005859375001 66.569091796875)), ((63.65947265625002 75.66875, 63.31669921875002 75.603076171875, 63.045996093750006 75.575732421875, 62.06611328125001 75.427734375, 61.6162109375 75.31962890625, 61.48652343750001 75.31083984375, 61.35595703125 75.31484375, 61.24882812500002 75.281005859375, 61.14726562500002 75.22255859375, 60.935644531250006 75.163671875, 60.829199218750006 75.11083984375, 60.71923828125 75.068603515625, 60.655371093750006 75.055029296875, 60.4755859375 75.054736328125, 60.27685546875 75.007568359375, 60.24111328125002 74.970751953125, 60.45488281250002 74.946142578125, 60.50136718750002 74.904638671875, 60.43916015625001 74.875341796875, 60.30078125 74.83701171875, 60.22246093750002 74.79658203125, 60.080078125 74.755859375, 59.98232421875002 74.74462890625, 59.74726562500001 74.7458984375, 59.73466796875002 74.695458984375, 59.771484375 74.664453125, 59.75273437500002 74.63701171875, 59.67402343750001 74.61015625, 59.59599609375002 74.613720703125, 59.24013671875002 74.69296875, 59.18203125000002 74.665771484375, 59.15703125000002 74.61083984375, 59.146093750000006 74.551904296875, 59.10097656250002 74.50751953125, 59.04042968750002 74.485546875, 58.92822265625 74.4626953125, 58.53466796875 74.49892578125, 58.50214843750001 74.464208984375, 58.56201171875 74.421826171875, 58.64570312500001 74.32802734375, 58.6650390625 74.2892578125, 58.61787109375001 74.227392578125, 58.44140625 74.128857421875, 57.76738281250002 74.013818359375, 57.778417968750006 73.97392578125, 57.85341796875002 73.8978515625, 57.87226562500001 73.850439453125, 57.84492187500001 73.805078125, 57.755957031250006 73.769189453125, 57.65742187500001 73.7681640625, 57.60371093750001 73.77548828125, 57.44853515625002 73.825634765625, 57.313085937500006 73.838037109375, 57.29091796875002 73.81455078125, 57.46425781250002 73.746044921875, 57.542578125000006 73.658203125, 57.45976562500002 73.610302734375, 57.134375000000006 73.50439453125, 56.9638671875 73.366552734375, 56.63417968750002 73.304296875, 56.43037109375001 73.297216796875, 56.22832031250002 73.314111328125, 56.03457031250002 73.3458984375, 55.54921875000002 73.3568359375, 55.28017578125002 73.392041015625, 55.0068359375 73.453857421875, 54.768652343750006 73.4494140625, 54.56582031250002 73.418505859375, 54.299902343750006 73.3509765625, 54.13154296875001 73.481005859375, 54.20458984375 73.542041015625, 53.83867187500002 73.697119140625, 53.76289062500001 73.766162109375, 53.85136718750002 73.800537109375, 53.963476562500006 73.822314453125, 54.17402343750001 73.8857421875, 54.386328125000006 73.93564453125, 54.642675781250006 73.9595703125, 54.7333984375 74.033984375, 54.83125000000001 74.095751953125, 54.92031250000002 74.1291015625, 55.02285156250002 74.18662109375, 55.340917968750006 74.41962890625, 55.41640625000002 74.4361328125, 56.07832031250001 74.481298828125, 56.13710937500002 74.49609375, 55.94746093750001 74.5421875, 55.75175781250002 74.5412109375, 55.66152343750002 74.556103515625, 55.6103515625 74.59052734375, 55.58222656250001 74.627685546875, 55.65966796875 74.656298828125, 55.913671875000006 74.79609375, 56.217871093750006 74.897509765625, 56.49873046875001 74.957080078125, 56.42851562500002 74.97294921875, 56.34003906250001 75.0134765625, 55.998046875 75.003369140625, 55.86318359375002 75.058740234375, 55.82119140625002 75.090625, 55.81005859375 75.12490234375, 55.92070312500002 75.168359375, 56.03554687500002 75.19423828125, 56.162207031250006 75.186572265625, 56.288671875000006 75.164306640625, 56.38906250000002 75.13818359375, 56.48525390625002 75.09609375, 56.5703125 75.09775390625, 56.87626953125002 75.244384765625, 56.82929687500001 75.277734375, 56.80947265625002 75.32841796875, 56.84443359375001 75.351416015625, 57.087500000000006 75.383837890625, 57.3017578125 75.3732421875, 57.60683593750002 75.341259765625, 57.63154296875001 75.3564453125, 57.70820312500001 75.4544921875, 57.78339843750001 75.506689453125, 58.09365234375002 75.592529296875, 58.07255859375002 75.618994140625, 58.05830078125001 75.6630859375, 58.41835937500002 75.719775390625, 58.65273437500002 75.776806640625, 58.88125000000002 75.85478515625, 58.994726562500006 75.871728515625, 59.110449218750006 75.87373046875, 59.34658203125002 75.90703125, 59.78193359375001 75.945849609375, 60.0361328125 75.983837890625, 60.1181640625 76.066552734375, 60.279296875 76.096240234375, 60.60615234375001 76.108642578125, 60.730566406250006 76.104052734375, 60.80117187500002 76.068798828125, 60.94218750000002 76.0712890625, 60.99775390625001 76.0892578125, 61.05390625000001 76.119873046875, 61.03691406250002 76.16904296875, 61.03437500000001 76.232958984375, 61.20166015625 76.28203125, 61.569433593750006 76.298486328125, 61.787109375 76.291015625, 62.2373046875 76.2416015625, 62.47109375000002 76.23046875, 62.78203125000002 76.24521484375, 62.97148437500002 76.236669921875, 63.52617187500002 76.309521484375, 64.4634765625 76.378173828125, 64.7076171875 76.426025390625, 64.95000000000002 76.484326171875, 65.19716796875002 76.499658203125, 65.52841796875 76.567822265625, 65.63691406250001 76.578662109375, 65.75517578125002 76.579296875, 65.862890625 76.613330078125, 65.95888671875002 76.687939453125, 66.06298828125 76.74609375, 66.34521484375 76.821044921875, 66.82880859375001 76.923828125, 67.263671875 76.96376953125, 67.53496093750002 77.007763671875, 67.65185546875 77.011572265625, 68.01728515625001 76.990625, 68.48574218750002 76.93369140625, 68.69912109375002 76.870654296875, 68.87333984375002 76.789599609375, 68.91171875 76.760546875, 68.94169921875002 76.707666015625, 68.89052734375002 76.659716796875, 68.8580078125 76.610498046875, 68.89980468750002 76.57294921875, 68.55859375 76.4494140625, 68.16542968750002 76.28486328125, 67.76533203125001 76.23759765625, 67.126953125 76.108154296875, 66.8931640625 76.072265625, 66.65742187500001 76.047021484375, 66.28242187500001 75.98369140625, 65.619140625 75.904638671875, 65.20156250000002 75.839453125, 64.74453125000002 75.788232421875, 64.26259765625002 75.719677734375, 63.779296875 75.672607421875, 63.65947265625002 75.66875)), ((67.21611328125002 69.575390625, 67.32890625000002 69.572119140625, 67.34492187500001 69.529833984375, 67.26396484375002 69.442529296875, 67.09785156250001 69.44716796875, 67.02587890625 69.483203125, 67.21611328125002 69.575390625)), ((66.56855468750001 70.50146484375, 66.51582031250001 70.514892578125, 66.44863281250002 70.56103515625, 66.40761718750002 70.615771484375, 66.39482421875002 70.727294921875, 66.44023437500002 70.77265625, 66.462890625 70.7693359375, 66.45771484375001 70.698779296875, 66.56093750000002 70.541748046875, 66.56855468750001 70.50146484375)), ((64.16591796875002 81.0357421875, 64.21044921875 81.10634765625, 64.255859375 81.14443359375, 64.31015625 81.1751953125, 64.57539062500001 81.198486328125, 64.80205078125002 81.197265625, 65.17197265625 81.14404296875, 65.30976562500001 81.096435546875, 65.38203125000001 81.05673828125, 65.36005859375001 81.008203125, 65.3720703125 80.968017578125, 65.43740234375002 80.930712890625, 64.99746093750002 80.818896484375, 64.54833984375 80.755419921875, 63.37382812500002 80.70009765625, 63.187597656250006 80.697607421875, 63.00214843750001 80.712841796875, 62.52031250000002 80.821875, 62.59257812500002 80.85302734375, 62.8193359375 80.893798828125, 63.115820312500006 80.966796875, 63.85595703125 80.98115234375, 64.095703125 80.99833984375, 64.16591796875002 81.0357421875)), ((63.650976562500006 81.609326171875, 63.52851562500001 81.59658203125, 62.88496093750001 81.60888671875, 62.57304687500002 81.633056640625, 62.515234375000006 81.659130859375, 62.1064453125 81.679345703125, 62.28398437500002 81.70654296875, 62.794921875 81.7189453125, 63.709570312500006 81.6873046875, 63.76738281250002 81.66416015625, 63.78242187500001 81.6498046875, 63.650976562500006 81.609326171875)), ((59.90019531250002 80.44609375, 59.64980468750002 80.43125, 59.34638671875001 80.505029296875, 59.30439453125001 80.521533203125, 59.288183593750006 80.57265625, 59.306250000000006 80.6177734375, 59.38652343750002 80.712548828125, 59.4951171875 80.76650390625, 59.549414062500006 80.78359375, 59.59228515625 80.81650390625, 59.7158203125 80.836376953125, 60.09453125000002 80.848583984375, 60.234960937500006 80.837744140625, 60.27802734375001 80.80146484375, 60.481542968750006 80.804248046875, 61.31318359375001 80.862646484375, 61.59746093750002 80.892919921875, 61.8505859375 80.8859375, 62.10292968750002 80.8666015625, 62.22773437500001 80.794384765625, 62.19179687500002 80.730224609375, 62.11455078125002 80.68369140625, 62.075781250000006 80.616943359375, 61.769140625000006 80.601025390625, 61.681250000000006 80.586328125, 61.59746093750002 80.5349609375, 61.28515625 80.504736328125, 61.05126953125 80.418603515625, 60.722265625000006 80.43466796875, 60.2783203125 80.49443359375, 59.90019531250002 80.44609375)), ((60.32109375000002 80.955517578125, 60.058203125000006 80.984619140625, 60.07832031250001 80.999169921875, 60.147558593750006 81.016650390625, 60.58662109375001 81.0876953125, 61.45742187500002 81.103955078125, 61.5673828125 81.05029296875, 61.47197265625002 81.01103515625, 61.14082031250001 80.950341796875, 60.826757812500006 80.9296875, 60.32109375000002 80.955517578125)), ((59.58125000000001 69.790869140625, 59.50263671875001 69.8662109375, 59.38154296875001 69.8904296875, 59.26835937500002 69.8984375, 59.14423828125001 69.921923828125, 59.08251953125 69.910791015625, 59.004003906250006 69.88330078125, 58.952734375000006 69.8927734375, 58.68007812500002 70.051025390625, 58.63417968750002 70.088037109375, 58.605566406250006 70.12919921875, 58.56806640625001 70.1556640625, 58.47304687500002 70.266845703125, 58.51992187500002 70.318310546875, 58.615332031250006 70.350830078125, 58.67802734375002 70.3595703125, 58.79423828125002 70.432958984375, 59.00527343750002 70.465185546875, 59.04804687500001 70.460498046875, 59.08828125000002 70.437109375, 59.30986328125002 70.361669921875, 59.42597656250001 70.3109375, 59.52910156250002 70.248974609375, 59.636328125000006 70.197021484375, 59.95585937500002 70.108349609375, 60.17226562500002 70.0228515625, 60.392578125 69.96240234375, 60.45048828125002 69.93486328125, 60.48066406250001 69.885498046875, 60.47724609375001 69.793701171875, 60.44023437500002 69.725927734375, 60.3271484375 69.715283203125, 60.215917968750006 69.6876953125, 60.02617187500002 69.717041015625, 59.919531250000006 69.69697265625, 59.81279296875002 69.695654296875, 59.724609375 69.706201171875, 59.578222656250006 69.738623046875, 59.58125000000001 69.790869140625)), ((59.68886718750002 79.955810546875, 59.330664062500006 79.923046875, 59.20263671875 79.932958984375, 59.10039062500002 79.96416015625, 58.91923828125002 79.984619140625, 58.94609375000002 80.042333984375, 59.544531250000006 80.11884765625, 59.80166015625002 80.082666015625, 59.91103515625002 79.994287109375, 59.68886718750002 79.955810546875)), ((59.3564453125 81.758984375, 57.96484375 81.695654296875, 57.92060546875001 81.710498046875, 57.909277343750006 81.721923828125, 57.94511718750002 81.7478515625, 57.984960937500006 81.797021484375, 58.13457031250002 81.827978515625, 59.261816406250006 81.85419921875, 59.40849609375002 81.825439453125, 59.35683593750002 81.78095703125, 59.3564453125 81.758984375)), ((58.71904296875002 81.313525390625, 58.61015625000002 81.337255859375, 58.63447265625001 81.3603515625, 58.88056640625001 81.391845703125, 59.07500000000002 81.397705078125, 59.280859375000006 81.36611328125, 59.374609375000006 81.325048828125, 59.313085937500006 81.305224609375, 59.09697265625002 81.29228515625, 58.71904296875002 81.313525390625)), ((58.48046875 80.46474609375, 58.9716796875 80.415869140625, 59.11591796875001 80.388427734375, 59.255468750000006 80.343212890625, 58.39794921875 80.31875, 58.28388671875001 80.297802734375, 58.285742187500006 80.24814453125, 58.255468750000006 80.201806640625, 58.163183593750006 80.196533203125, 57.95625000000001 80.1232421875, 57.80009765625002 80.104052734375, 57.39228515625001 80.13916015625, 57.33232421875002 80.15810546875, 57.28144531250001 80.193896484375, 57.21406250000001 80.328271484375, 57.21171875000002 80.36845703125, 57.18623046875001 80.396240234375, 57.08339843750002 80.44521484375, 57.01113281250002 80.468310546875, 57.07500000000002 80.4939453125, 57.52197265625 80.475390625, 58.48046875 80.46474609375)), ((57.2109375 81.01708984375, 57.410253906250006 81.04677734375, 57.65625 81.03154296875, 58.04951171875001 81.11845703125, 58.10234375000002 81.1142578125, 58.18994140625 81.094580078125, 58.50761718750002 81.061767578125, 58.62236328125002 81.041650390625, 58.76152343750002 80.990966796875, 58.81533203125002 80.93359375, 58.90253906250001 80.89765625, 58.93056640625002 80.831689453125, 58.859960937500006 80.77939453125, 58.64189453125002 80.76796875, 58.28564453125 80.764892578125, 57.93789062500002 80.793359375, 57.74980468750002 80.8890625, 57.40517578125002 80.91513671875, 57.2109375 81.01708984375)), ((57.45097656250002 81.135546875, 56.821875000000006 81.237939453125, 56.66923828125002 81.198291015625, 56.51250000000002 81.175244140625, 56.36396484375001 81.17861328125, 56.191992187500006 81.223974609375, 55.71669921875002 81.1884765625, 55.57265625000002 81.228076171875, 55.46601562500001 81.311181640625, 55.78193359375001 81.329443359375, 56.156835937500006 81.303076171875, 56.40468750000002 81.38701171875, 56.71875 81.423388671875, 56.97304687500002 81.510546875, 57.09150390625001 81.5412109375, 57.36503906250002 81.53525390625, 57.71660156250002 81.5646484375, 57.81025390625001 81.546044921875, 57.86269531250002 81.5064453125, 58.0166015625 81.4837890625, 58.43603515625 81.46416015625, 58.56386718750002 81.418408203125, 58.37187500000002 81.386962890625, 57.85869140625002 81.36806640625, 57.91191406250002 81.303271484375, 58.01533203125001 81.254833984375, 57.91289062500002 81.197509765625, 57.76972656250001 81.1697265625, 57.45097656250002 81.135546875)), ((55.540625000000006 80.7033203125, 55.1171875 80.751904296875, 54.66816406250001 80.738671875, 54.62333984375002 80.765234375, 54.532812500000006 80.7830078125, 54.376074218750006 80.786962890625, 54.06660156250001 80.813623046875, 54.04541015625 80.87197265625, 54.24052734375002 80.90185546875, 54.367285156250006 80.90380859375, 54.41679687500002 80.9865234375, 54.63398437500001 81.11318359375, 54.71894531250001 81.115966796875, 55.470703125 81.019873046875, 56.17011718750001 81.029150390625, 56.472265625000006 80.9982421875, 56.90966796875 80.912890625, 57.56777343750002 80.8197265625, 57.69414062500002 80.79228515625, 57.58037109375002 80.75546875, 56.81474609375002 80.663623046875, 56.315527343750006 80.632861328125, 55.883398437500006 80.62841796875, 55.712500000000006 80.6373046875, 55.540625000000006 80.7033203125)), ((56.08378906250002 72.789404296875, 55.81972656250002 72.789501953125, 55.72343750000002 72.76640625, 55.71845703125001 72.721533203125, 55.70097656250002 72.671728515625, 55.61640625000001 72.599072265625, 55.44130859375002 72.575390625, 55.4033203125 72.549072265625, 55.41689453125002 72.501318359375, 55.35595703125 72.465087890625, 55.35957031250001 72.40869140625, 55.39042968750002 72.37783203125, 55.39912109375001 72.313623046875, 55.51806640625 72.220654296875, 55.49492187500002 72.18232421875, 55.4033203125 72.106884765625, 55.375 72.014892578125, 55.2978515625 71.9353515625, 55.47109375000002 71.86923828125, 55.54667968750002 71.783349609375, 55.61367187500002 71.689892578125, 55.8193359375 71.507568359375, 56.04316406250001 71.34560546875, 56.45439453125002 71.107373046875, 56.89482421875002 70.927001953125, 57.06562500000001 70.876025390625, 57.48359375000001 70.79228515625, 57.55644531250002 70.7658203125, 57.62539062500002 70.72880859375, 57.44716796875002 70.66103515625, 57.263671875 70.63603515625, 57.24697265625002 70.605126953125, 57.14589843750002 70.589111328125, 56.64882812500002 70.646533203125, 56.621679687500006 70.65537109375, 56.56865234375002 70.6974609375, 56.51005859375002 70.72880859375, 56.3857421875 70.734130859375, 56.26005859375002 70.71474609375, 56.33476562500002 70.676708984375, 56.41718750000001 70.66494140625, 56.56132812500002 70.5935546875, 56.49970703125001 70.56640625, 56.4345703125 70.56298828125, 56.14248046875002 70.657861328125, 56.11474609375 70.646142578125, 56.08710937500001 70.618359375, 55.94160156250001 70.649267578125, 55.9072265625 70.626318359375, 55.796875 70.615576171875, 55.70673828125001 70.64189453125, 55.70644531250002 70.675244140625, 55.68730468750002 70.6921875, 55.236914062500006 70.666015625, 55.05166015625002 70.666748046875, 54.86708984375002 70.678125, 54.645117187500006 70.741845703125, 54.60820312500002 70.713232421875, 54.601171875000006 70.680078125, 54.51738281250002 70.693310546875, 54.332617187500006 70.744677734375, 53.72236328125001 70.814453125, 53.38359375000002 70.87353515625, 53.4677734375 70.9005859375, 53.61357421875002 70.9146484375, 53.61562500000002 70.950830078125, 53.59257812500002 71.00068359375, 53.58779296875002 71.052294921875, 53.670507812500006 71.0869140625, 53.857031250000006 71.07041015625, 53.83427734375002 71.126708984375, 53.92226562500002 71.13759765625, 54.09394531250001 71.105224609375, 54.15566406250002 71.12548828125, 53.88613281250002 71.1962890625, 53.5908203125 71.2966796875, 53.622167968750006 71.332763671875, 53.515234375000006 71.342529296875, 53.40996093750002 71.34013671875, 53.31904296875001 71.399169921875, 53.33251953125 71.47724609375, 53.41162109375 71.530126953125, 53.363867187500006 71.541650390625, 52.90898437500002 71.49501953125, 52.6787109375 71.5056640625, 52.41884765625002 71.536865234375, 52.17998046875002 71.490234375, 51.93789062500002 71.47470703125, 51.812597656250006 71.49130859375, 51.69160156250001 71.525146484375, 51.590429687500006 71.571142578125, 51.511328125000006 71.648095703125, 51.43867187500001 71.776806640625, 51.42861328125002 71.825537109375, 51.44355468750001 71.934375, 51.48222656250002 71.97978515625, 51.58251953125 72.07119140625, 51.65312500000002 72.099365234375, 51.80546875000002 72.142138671875, 51.88544921875001 72.15322265625, 52.06865234375002 72.13115234375, 52.252050781250006 72.129736328125, 52.33232421875002 72.153955078125, 52.40673828125 72.196728515625, 52.4619140625 72.25234375, 52.58613281250001 72.284033203125, 52.6220703125 72.3009765625, 52.70576171875001 72.390966796875, 52.7138671875 72.436962890625, 52.74873046875001 72.482958984375, 52.86367187500002 72.549853515625, 52.8232421875 72.591259765625, 52.83906250000001 72.619287109375, 52.916601562500006 72.668896484375, 52.68310546875 72.68232421875, 52.60498046875 72.704052734375, 52.52851562500001 72.737353515625, 52.55058593750002 72.7685546875, 52.57929687500001 72.791357421875, 52.81220703125001 72.875244140625, 52.913183593750006 72.899951171875, 53.02421875000002 72.91357421875, 53.253515625000006 72.903759765625, 53.36982421875001 72.916748046875, 53.24726562500001 72.97314453125, 53.23710937500002 73.011181640625, 53.18896484375 73.10400390625, 53.19794921875001 73.14755859375, 53.25117187500001 73.182958984375, 53.35761718750001 73.224560546875, 53.51220703125 73.23837890625, 53.63369140625002 73.26025390625, 53.75322265625002 73.29326171875, 53.86562500000002 73.298974609375, 54.09101562500001 73.27646484375, 54.20234375000001 73.28134765625, 54.80390625000001 73.387646484375, 54.94062500000001 73.383251953125, 55.12138671875002 73.3568359375, 55.31982421875 73.30830078125, 55.78730468750001 73.268603515625, 56.1376953125 73.25615234375, 56.35048828125002 73.225537109375, 56.42958984375002 73.201171875, 56.3974609375 73.13916015625, 56.33466796875001 73.113671875, 56.18896484375 73.0330078125, 56.1669921875 72.983203125, 56.19287109375 72.90498046875, 56.170507812500006 72.848095703125, 56.121679687500006 72.806591796875, 56.08378906250002 72.789404296875)), ((56.0244140625 80.34130859375, 56.65507812500002 80.330322265625, 56.70722656250001 80.36328125, 56.94453125000001 80.366162109375, 57.078710937500006 80.350927734375, 57.122656250000006 80.3169921875, 57.11894531250002 80.1939453125, 57.07275390625 80.139404296875, 57.080175781250006 80.094677734375, 56.986914062500006 80.071484375, 56.20058593750002 80.07646484375, 55.811621093750006 80.087158203125, 55.72402343750002 80.104736328125, 55.94228515625002 80.16328125, 56.01220703125 80.20390625, 55.989843750000006 80.320068359375, 56.0244140625 80.34130859375)), ((55.09160156250002 80.295556640625, 55.24003906250002 80.325390625, 55.35322265625001 80.31767578125, 55.43476562500001 80.30224609375, 55.47968750000001 80.273828125, 55.19511718750002 80.226806640625, 55.048437500000006 80.228369140625, 54.97968750000001 80.2564453125, 55.09160156250002 80.295556640625)), ((54.41533203125002 80.472802734375, 54.27587890625 80.421337890625, 53.81191406250002 80.476220703125, 53.85000000000002 80.503857421875, 53.90019531250002 80.5154296875, 53.90156250000001 80.54248046875, 53.85888671875 80.563037109375, 53.87724609375002 80.6052734375, 54.1767578125 80.574365234375, 54.20537109375002 80.561767578125, 54.40712890625002 80.54013671875, 54.43730468750002 80.498681640625, 54.41533203125002 80.472802734375)), ((53.185644531250006 80.412646484375, 53.329199218750006 80.402392578125, 53.34589843750001 80.36630859375, 53.48613281250002 80.323388671875, 53.851660156250006 80.268359375, 53.777929687500006 80.2283203125, 53.652929687500006 80.22255859375, 53.52138671875002 80.185205078125, 52.85634765625002 80.1732421875, 52.63593750000001 80.178857421875, 52.55048828125001 80.20185546875, 52.34355468750002 80.213232421875, 52.21337890625 80.263720703125, 52.27021484375001 80.276318359375, 52.57666015625 80.296923828125, 52.68056640625002 80.318505859375, 52.71601562500001 80.34755859375, 52.85390625000002 80.402392578125, 53.185644531250006 80.412646484375)), ((52.738378906250006 71.1806640625, 52.54658203125001 71.250439453125, 52.42548828125001 71.2392578125, 52.28945312500002 71.270361328125, 52.249609375000006 71.284912109375, 52.239843750000006 71.325048828125, 52.29658203125001 71.3568359375, 52.51259765625002 71.38505859375, 52.61738281250001 71.383349609375, 52.72968750000001 71.355126953125, 52.720312500000006 71.389794921875, 52.73222656250002 71.4037109375, 52.77675781250002 71.3998046875, 52.9033203125 71.364990234375, 53.07402343750002 71.237939453125, 53.14140625000002 71.24189453125, 53.19257812500001 71.215283203125, 53.205175781250006 71.159716796875, 53.07148437500001 71.0650390625, 53.04814453125002 71.03095703125, 53.10576171875002 70.999267578125, 53.12099609375002 70.98203125, 53.02265625000001 70.968701171875, 53.004492187500006 71.01162109375, 52.94960937500002 71.05361328125, 52.83535156250002 71.08583984375, 52.78896484375002 71.11494140625, 52.738378906250006 71.1806640625)), ((53.13847656250002 71.243408203125, 53.14570312500001 71.2421875, 53.14140625000002 71.24189453125, 53.13847656250002 71.243408203125)), ((49.74980468750002 80.4720703125, 49.79414062500001 80.425341796875, 49.5859375 80.3765625, 48.896093750000006 80.369189453125, 48.81103515625 80.3537109375, 48.67705078125002 80.300048828125, 48.68896484375 80.290283203125, 48.921972656250006 80.276806640625, 48.959570312500006 80.265673828125, 48.990820312500006 80.2423828125, 49.0107421875 80.207421875, 48.9775390625 80.16259765625, 48.89189453125002 80.155322265625, 48.79736328125 80.1611328125, 48.58173828125001 80.195361328125, 48.55458984375002 80.18330078125, 48.53261718750002 80.158251953125, 48.466796875 80.110107421875, 48.38623046875 80.09580078125, 48.16718750000001 80.132763671875, 48.09589843750001 80.122314453125, 48.02578125000002 80.099462890625, 47.93994140625 80.088623046875, 47.7373046875 80.081689453125, 47.632421875000006 80.111962890625, 47.72314453125 80.1513671875, 47.9775390625 80.212548828125, 47.89296875000002 80.2392578125, 47.64238281250002 80.2453125, 47.4443359375 80.230126953125, 47.34306640625002 80.188525390625, 47.248632812500006 80.180224609375, 46.99101562500002 80.182763671875, 46.84589843750001 80.23720703125, 46.73818359375002 80.257666015625, 46.64443359375002 80.300341796875, 47.402929687500006 80.444775390625, 47.65605468750002 80.500537109375, 47.89580078125002 80.529052734375, 48.20820312500001 80.543896484375, 48.30615234375 80.561572265625, 48.40263671875002 80.568798828125, 48.46474609375002 80.558056640625, 48.625097656250006 80.50830078125, 49.08779296875002 80.515771484375, 49.18525390625001 80.558642578125, 49.19267578125002 80.656005859375, 49.1474609375 80.712109375, 49.24433593750001 80.82138671875, 49.5078125 80.86533203125, 50.12431640625002 80.923876953125, 50.27812500000002 80.92724609375, 50.43144531250002 80.910888671875, 50.80107421875002 80.91416015625, 50.91767578125001 80.8904296875, 51.45478515625001 80.744677734375, 51.59101562500001 80.740771484375, 51.70361328125 80.687646484375, 51.14619140625001 80.603955078125, 50.96083984375002 80.540478515625, 50.27968750000002 80.52734375, 49.84599609375002 80.49765625, 49.74980468750002 80.4720703125)), ((51.32695312500002 79.972314453125, 51.435156250000006 79.93193359375, 51.431250000000006 79.9205078125, 51.076269531250006 79.931982421875, 50.4541015625 79.9244140625, 50.091406250000006 79.98056640625, 50.47265625 80.03544921875, 50.67578125 80.04853515625, 50.93632812500002 80.09423828125, 51.25439453125 80.0486328125, 51.237890625000006 80.0103515625, 51.242773437500006 79.991259765625, 51.32695312500002 79.972314453125)), ((50.87861328125001 81.15087890625, 50.94619140625002 81.108154296875, 50.78876953125001 81.071826171875, 50.75371093750002 81.047412109375, 50.61601562500002 81.041259765625, 50.518164062500006 81.045556640625, 50.41191406250002 81.084375, 50.37744140625 81.102734375, 50.36845703125002 81.122509765625, 50.464941406250006 81.126220703125, 50.521582031250006 81.158203125, 50.591796875 81.16943359375, 50.715917968750006 81.170654296875, 50.87861328125001 81.15087890625)), ((49.55605468750002 80.158935546875, 49.88369140625002 80.230224609375, 50.2509765625 80.219482421875, 50.30996093750002 80.18564453125, 50.31914062500002 80.17236328125, 50.072265625 80.10947265625, 50.0517578125 80.07431640625, 49.97089843750001 80.0607421875, 49.58828125000002 80.1361328125, 49.55605468750002 80.158935546875)), ((48.439062500000006 68.8048828125, 48.31591796875 68.9423828125, 48.29443359375 68.984228515625, 48.27880859375 69.04033203125, 48.2802734375 69.096630859375, 48.319921875000006 69.26923828125, 48.41386718750002 69.345654296875, 48.63134765625 69.43603515625, 48.84492187500001 69.4947265625, 48.95332031250001 69.50927734375, 49.225195312500006 69.51123046875, 49.99628906250001 69.309423828125, 50.16728515625002 69.257080078125, 50.265234375000006 69.185595703125, 50.28300781250002 69.0888671875, 50.22060546875002 69.048779296875, 50.16445312500002 69.037548828125, 50.14091796875002 69.09814453125, 50.09394531250001 69.125537109375, 49.92080078125002 69.053271484375, 49.83984375 68.973779296875, 49.62626953125002 68.859716796875, 49.18046875000002 68.77841796875, 48.91035156250001 68.74306640625, 48.6669921875 68.733154296875, 48.439062500000006 68.8048828125)), ((47.60009765625 80.741943359375, 47.512304687500006 80.687939453125, 47.414160156250006 80.67451171875, 47.30390625000001 80.606201171875, 47.1982421875 80.61494140625, 47.14492187500002 80.609033203125, 47.01103515625002 80.562109375, 46.67753906250002 80.561328125, 46.62392578125002 80.540673828125, 46.513671875 80.475537109375, 46.37812500000001 80.456787109375, 46.14140625000002 80.446728515625, 46.05986328125002 80.4837890625, 46.02363281250001 80.540869140625, 45.96904296875002 80.569482421875, 45.64082031250001 80.536962890625, 45.389257812500006 80.560302734375, 45.14921875000002 80.59873046875, 44.90498046875001 80.611279296875, 45.12451171875 80.65224609375, 46.32744140625002 80.73515625, 46.79912109375002 80.755224609375, 47.020605468750006 80.814404296875, 47.35234375000002 80.8529296875, 47.441992187500006 80.853662109375, 47.899511718750006 80.8126953125, 48.243261718750006 80.823486328125, 48.44570312500002 80.806005859375, 48.54736328125 80.779052734375, 48.6865234375 80.7177734375, 48.68359375 80.633251953125, 48.62548828125 80.629296875, 48.04433593750002 80.6681640625, 47.77734375 80.75625, 47.70527343750001 80.765185546875, 47.60009765625 80.741943359375)), ((42.46855468750002 66.785546875, 42.547460937500006 66.7955078125, 42.631445312500006 66.7822265625, 42.69072265625002 66.735302734375, 42.71367187500002 66.701708984375, 42.67558593750002 66.6880859375, 42.47734375000002 66.73505859375, 42.460058593750006 66.770361328125, 42.46855468750002 66.785546875)), ((35.60869140625002 65.15712890625, 35.729101562500006 65.19755859375, 35.81611328125001 65.182080078125, 35.84843750000002 65.14267578125, 35.8583984375 65.0779296875, 35.82734375000001 65.036474609375, 35.84228515625 65.00146484375, 35.77871093750002 64.97666015625, 35.68007812500002 65.0576171875, 35.62138671875002 65.0587890625, 35.55859375 65.093603515625, 35.528906250000006 65.15107421875, 35.58574218750002 65.16708984375, 35.60869140625002 65.15712890625)), ((31.83766075515205 80.13337896451505, 33.0986328125 80.2287109375, 33.38398437500001 80.242333984375, 33.62929687500002 80.217431640625, 33.556640625 80.19814453125, 32.525976562500006 80.119140625, 31.639746943950225 80.08391411560238, 31.83766075515205 80.13337896451505)), ((31.7001953125 46.2140625, 31.563867187500023 46.257763671875, 31.528710937500023 46.306591796875, 31.5087890625 46.37314453125, 31.584863281250023 46.303173828125, 31.638476562500017 46.27255859375, 32.01220703125 46.203906249999996, 32.15009765625001 46.154687499999994, 32.009375000000006 46.167822265625, 31.7001953125 46.2140625)), ((29.785937500000017 69.829052734375, 29.835839843750023 69.90556640625, 29.913964843750023 69.90244140625, 29.992968750000017 69.8732421875, 30.05517578125 69.83837890625, 29.956152343750006 69.79677734375, 29.766210937500006 69.767529296875, 29.744238281250006 69.7916015625, 29.785937500000017 69.829052734375)), ((28.41474609375001 78.96142578125, 28.84521484375 78.970849609375, 29.04707031250001 78.912060546875, 29.34541015625001 78.90576171875, 29.645117187500006 78.921630859375, 29.696679687500023 78.904736328125, 29.310546875 78.852099609375, 28.881152343750017 78.880078125, 28.494531250000023 78.88720703125, 28.037890625000017 78.8287109375, 27.889062500000023 78.8521484375, 28.120996093750023 78.908447265625, 28.3740234375 78.92705078125, 28.41474609375001 78.96142578125)), ((25.315234375000017 71.052978515625, 25.423437500000006 71.097412109375, 25.586328125000023 71.14208984375, 25.853515625 71.103857421875, 25.94501953125001 71.104638671875, 26.07763671875 71.033154296875, 26.146875000000023 71.039501953125, 26.1337890625 70.99580078125, 25.99970703125001 70.97509765625, 25.791308593750017 70.9625, 25.760156250000023 70.95380859375, 25.58203125 70.960791015625, 25.482031250000006 71.019580078125, 25.31494140625 71.034130859375, 25.315234375000017 71.052978515625)), ((23.8271484375 70.527490234375, 23.793883996177357 70.5378339475778, 23.68916015625001 70.722802734375, 23.778417968750006 70.74736328125, 23.836523437500006 70.72939453125, 23.85205078125 70.71435546875, 23.956445312500023 70.699609375, 24.07832031250001 70.6505859375, 24.017578125 70.5673828125, 23.8271484375 70.527490234375)))