MULTIPOLYGON (((79.69316406249999 11.312548828124989, 79.79902343750001 11.338671874999989, 79.83525390624999 11.268847656249989, 79.8486328125 11.196874999999991, 79.85019531250003 10.768847656249989, 79.83818359374999 10.322558593749989, 79.75693359375003 10.304345703124994, 79.66738281250002 10.299707031249994, 79.53164062500002 10.329638671874989, 79.39052734375002 10.305957031249989, 79.31455078125003 10.256689453124991, 79.25361328125001 10.1748046875, 79.2578125 10.035205078124989, 79.23166378297914 10, 76.26705621378312 10, 76.24873046875001 10.017968749999994, 76.22275390625003 10.024267578124991, 76.19560546874999 10.086132812499997, 76.19267578124999 10.163769531249997, 76.20146484374999 10.200634765624997, 76.12333984374999 10.327001953124991, 76.09609375000002 10.402246093749994, 75.92255859375001 10.784082031249994, 75.84462890625002 11.057568359374997, 75.72382812500001 11.361767578124997, 75.64609375 11.468408203124994, 75.52451171875 11.703125, 75.42265625000002 11.812207031249997, 75.31464843750001 11.958447265624997, 75.19667968750002 12.057519531249994, 74.94550781250001 12.564550781249991, 74.86826171875 12.844580078124991, 74.80292968750001 12.976855468749989, 74.7705078125 13.077343749999997, 74.68232421875001 13.506933593749991, 74.6708984375 13.667626953124994, 74.60849609375 13.849658203125003, 74.49853515625 14.046337890624997, 74.46669921875002 14.168847656249994, 74.46699218750001 14.216503906249997, 74.39716796875001 14.407421874999997, 74.38222656250002 14.494726562499991, 74.28037109375 14.649511718749991, 74.22304687500002 14.708886718749994, 74.08876953125002 14.902197265624991, 74.040625 14.949365234374994, 73.94921875 15.074755859375003, 73.88427734375 15.306445312500003, 73.80078125 15.39697265625, 73.93193359375002 15.39697265625, 73.85195312500002 15.482470703125003, 73.81386718750002 15.53857421875, 73.77177734375002 15.573046875000003, 73.83281250000002 15.659374999999997, 73.73281250000002 15.656933593749997, 73.67988281250001 15.708886718749994, 73.60771484375002 15.87109375, 73.47607421875 16.054248046875003, 73.4537109375 16.152099609375, 73.33759765625001 16.459863281249994, 73.23916015625002 17.198535156250003, 73.1490234375 17.52744140624999, 73.15605468750002 17.62192382812499, 73.04716796875002 17.90673828125, 72.99394531250002 18.097705078125003, 72.97207031250002 18.25927734375, 72.94316406250002 18.365624999999994, 72.91718750000001 18.576123046874997, 72.87548828125 18.642822265625, 72.87089843750002 18.683056640624997, 72.89873046875002 18.778955078124994, 72.97685546875002 18.927197265624997, 73.00556640625001 19.02109374999999, 72.97207031250002 19.1533203125, 72.90068359375002 19.01450195312499, 72.83466796875001 18.9755859375, 72.80302734375002 19.079296874999997, 72.802734375 19.21875, 72.79453125 19.252099609374994, 72.81162109375 19.29892578124999, 72.98720703125002 19.27744140624999, 72.78789062500002 19.362988281249997, 72.76396484375002 19.41318359374999, 72.7564453125 19.45053710937499, 72.7994140625 19.519824218750003, 72.7265625 19.578271484374994, 72.69746093750001 19.757128906250003, 72.66777343750002 19.830957031249994, 72.708984375 20.078027343749994, 72.88115234375002 20.563183593749997, 72.89375000000001 20.672753906249994, 72.87890625 20.828515624999994, 72.84052734375001 20.95249023437499, 72.81386718750002 21.1171875, 72.7515625 21.129150390625, 72.6923828125 21.177636718749994, 72.62382812500002 21.371972656249994, 72.6865234375 21.435742187499997, 72.73476562500002 21.47080078124999, 72.66835937500002 21.45590820312499, 72.61328125 21.461816406249994, 72.810546875 21.619921875000003, 73.0224609375 21.699609374999994, 73.11250000000001 21.750439453124997, 72.9791015625 21.70468749999999, 72.83974609375002 21.687255859375, 72.54306640625 21.696582031250003, 72.59248046875001 21.877587890624994, 72.64404296875 21.93798828125, 72.7001953125 21.971923828125, 72.61748046875002 21.961718750000003, 72.52226562500002 21.976220703124994, 72.55302734375002 22.159960937500003, 72.6279296875 22.199609374999994, 72.70878906250002 22.207177734374994, 72.8091796875 22.233300781249994, 72.70195312500002 22.263623046874997, 72.59013671875002 22.278125000000003, 72.45595703125002 22.248095703125003, 72.3326171875 22.270214843749997, 72.18281250000001 22.269726562499997, 72.24257812500002 22.245166015625003, 72.30644531250002 22.189208984375, 72.2744140625 22.089746093749994, 72.24433593750001 22.027636718750003, 72.16171875 21.984814453124997, 72.09443359375001 21.919970703125003, 72.07558593750002 21.862988281249997, 72.03720703125 21.823046875000003, 72.1708984375 21.774316406249994, 72.21035156250002 21.728222656249997, 72.25664062500002 21.66123046874999, 72.25400390625 21.531005859375, 72.07656250000002 21.224072265624997, 72.015234375 21.155712890624997, 71.57109375000002 20.97055664062499, 71.396484375 20.869775390624994, 71.02460937500001 20.73886718749999, 70.87968750000002 20.714501953124994, 70.7193359375 20.740429687499997, 70.48505859375001 20.84018554687499, 70.12734375000002 21.094677734374997, 70.03437500000001 21.17880859374999, 69.74843750000002 21.50571289062499, 69.5419921875 21.67856445312499, 69.38544921875001 21.839550781249997, 69.19169921875002 21.991503906250003, 69.0087890625 22.19677734375, 68.96992187500001 22.290283203125, 68.98349609375 22.385400390624994, 69.05166015625002 22.437304687500003, 69.13134765625 22.416259765625, 69.19423828125002 22.336083984374994, 69.2388671875 22.300195312499994, 69.27656250000001 22.28549804687499, 69.54921875000002 22.408398437499997, 69.65517578125002 22.403515624999997, 69.7275390625 22.46518554687499, 69.81904296875001 22.45175781249999, 70.005859375 22.54770507812499, 70.08417968750001 22.553515625000003, 70.17724609375 22.57275390625, 70.327734375 22.81577148437499, 70.4404296875 22.97031249999999, 70.50782346595221 23, 80 23, 80 12.25521409123248, 79.98173828124999 12.235449218749991, 79.85849609375003 11.98876953125, 79.77138671875002 11.690234374999989, 79.75410156250001 11.575292968749991, 79.79335937500002 11.446679687499994, 79.74892578125002 11.37060546875, 79.69316406249999 11.312548828124989)), ((70 42, 78.27586206896552 42.41379310344828, 78 42, 75.6 38, 65 38, 65 42.833333333333336, 70 42)), ((72.773046875 11.196093749999989, 72.7818359375 11.243310546874994, 72.79267578125001 11.262744140624989, 72.78789062500002 11.215917968749991, 72.773046875 11.196093749999989)), ((70.19169921875002 22.96567382812499, 69.84980468750001 22.8564453125, 69.73964843750002 22.775195312500003, 69.6646484375 22.759082031250003, 69.2359375 22.848535156249994, 68.92673582706152 23, 70.38122558593753 23, 70.339453125 22.939746093750003, 70.25117187500001 22.970898437499997, 70.19169921875002 22.96567382812499)), ((60.51054687500002 25.437060546875003, 60.40019531250002 25.311572265625003, 60.02470703125002 25.38413085937499, 59.897070312500006 25.36181640625, 59.818359375 25.40087890625, 59.61601562500002 25.403271484374997, 59.4560546875 25.481494140625003, 59.22724609375001 25.427734375, 59.04609375000001 25.417285156250003, 58.7978515625 25.554589843749994, 58.530859375000006 25.592431640624994, 58.31425781250002 25.580859375000003, 58.20292968750002 25.591601562500003, 58.02236328125002 25.640820312499997, 57.936621093750006 25.691650390625, 57.79609375000001 25.653027343749997, 57.732519531250006 25.724902343750003, 57.334570312500006 25.791552734375003, 57.26093750000001 25.918847656249994, 57.20556640625 26.03720703125, 57.20136718750001 26.158837890624994, 57.10429687500002 26.371435546875, 57.07197265625001 26.680078124999994, 57.03603515625002 26.800683593749994, 56.98222656250002 26.905468749999997, 56.91044921875002 26.994580078124997, 56.81289062500002 27.089990234374994, 56.728125000000006 27.127685546875, 56.35615234375001 27.200244140624996, 56.28437500000001 27.190624999999997, 56.11806640625002 27.143115234374996, 55.94111328125001 27.03759765625, 55.65029296875002 26.9775390625, 55.59160156250002 26.93212890625, 55.5185546875 26.829931640625, 55.42402343750001 26.770556640624996, 55.29414062500001 26.785937499999996, 55.15458984375002 26.725390624999996, 54.89580078125002 26.556689453124996, 55 26.624615547612013, 55 27.9, 51.533964177438705 27.9, 51.58906250000001 27.864208984374997, 51.5185546875 27.910009765625, 51.278906250000006 28.13134765625, 51.27607421875001 28.21884765625, 51.12841796875 28.43515625, 51.093847656250006 28.512109374999994, 51.06201171875 28.726123046874996, 51.02119140625001 28.782080078125, 50.86699218750002 28.870166015624996, 50.84296875000001 28.92783203125, 50.87578125000002 29.00439453125, 50.87578125000002 29.062695312499997, 50.795507812500006 29.117431640625, 50.67519531250002 29.14658203125, 50.646093750000006 29.212207031249996, 50.66796875 29.33984375, 50.64960937500001 29.420068359374994, 50.543554687500006 29.547998046874994, 50.38691406250001 29.679052734375, 50.23017578125001 29.872900390625, 50.1689453125 29.921240234375, 50.07158203125002 30.198535156249996, 49.98310546875001 30.209374999999994, 49.55488281250001 30.028955078124994, 49.42998046875002 30.13046875, 49.054296875000006 30.306933593749996, 49.02812500000002 30.333447265624997, 49.001953125 30.373925781249994, 49.04902343750001 30.397265624999996, 49.09619140625 30.406787109374996, 49.19033203125002 30.375390624999994, 49.24726562500001 30.412499999999994, 49.22451171875002 30.472314453124994, 49.13037109375 30.509423828124994, 49.001953125 30.506542968749997, 49.037109375 30.450488281249996, 48.91679687500002 30.397265624999996, 48.891210937500006 30.32763671875, 48.90869140625 30.241455078125, 48.91914062500001 30.120898437499996, 48.8701171875 30.062402343749994, 48.83242187500002 30.035498046875, 48.6708984375 30.0283203125, 48.59550781250002 29.975048828124997, 48.454199218750006 29.9384765625, 48.354589843750006 29.956738281249997, 48.141699218750006 30.040917968749994, 48.07275390625 30.043212890625, 47.982519531250006 30.011328125, 47.9736328125 29.9458984375, 48.00566406250002 29.835791015625, 48.13613281250002 29.618115234374997, 48.14345703125002 29.572460937499997, 48.089453125000006 29.5791015625, 48.04833984375 29.597509765625, 47.96962890625002 29.61669921875, 47.72529296875001 29.416943359374997, 47.72265625 29.393017578124997, 47.845312500000006 29.36572265625, 47.93535156250002 29.366601562499994, 47.998144531250006 29.385546874999996, 48.05146484375001 29.355371093749994, 48.08632812500002 29.27548828125, 48.10039062500002 29.210742187499996, 48.18378906250001 28.979394531249994, 48.2529296875 28.901269531249994, 48.33925781250002 28.76328125, 48.3896484375 28.631591796875, 48.49853515625 28.448876953124994, 48.523046875000006 28.355029296874996, 48.62636718750002 28.132568359375, 48.77373046875002 27.95908203125, 48.80898437500002 27.895898437499994, 35.289479225794686 27.9, 35.18046875000002 28.034863281249997, 35.07832031250001 28.08701171875, 34.82753906250002 28.108593749999997, 34.72207031250002 28.130664062499996, 34.625 28.064501953124996, 34.6162109375 28.148339843749994, 34.68330078125001 28.264111328124997, 34.779882812500006 28.50732421875, 34.79912109375002 28.720507812499996, 34.98222656250002 29.48447265625, 34.97343750000002 29.555029296875, 34.904296875 29.477343749999996, 34.84853515625002 29.43212890625, 34.736425781250006 29.27060546875, 34.6171875 28.75791015625, 34.44648437500001 28.357324218749994, 34.42714843750002 28.106494140624996, 34.39970703125002 28.016015624999994, 34.31855468750001 27.888964843749996, 34.325603276926415 27.9, 33.952493710423184 27.9, 34.04511718750001 27.828857421875, 33.76025390625 28.047656249999996, 33.59414062500002 28.255566406249997, 33.416113281250006 28.389843749999997, 33.24775390625001 28.567724609375, 33.20195312500002 28.695703124999994, 33.203710937500006 28.777783203124997, 33.13017578125002 28.978271484375, 33.075781250000006 29.073046874999996, 32.87060546875 29.28623046875, 32.81171875000001 29.4, 32.766699218750006 29.449999999999996, 32.72148437500002 29.521777343749996, 32.64716796875001 29.7984375, 32.599971701476505 29.900158471731572, 32.36308964570395 31.226697984057864, 32.532812500000006 31.100732421874994, 32.60332031250002 31.068749999999994, 32.6845703125 31.074023437499996, 32.8544921875 31.117724609374996, 32.90156250000001 31.1109375, 33.1298828125 31.168164062499997, 33.1943359375 31.084521484374996, 33.3779296875 31.13095703125, 33.66650390625 31.130419921874996, 33.90253906250001 31.180957031249996, 34.17626953125 31.303906249999997, 34.387304687500006 31.483789062499994, 34.483984375000006 31.59228515625, 34.67841796875001 31.895703124999997, 34.803808593750006 32.196337890624996, 34.921875 32.614062499999996, 35.005859375 32.826611328125, 35.07705078125002 32.967187499999994, 35.10859375000001 33.08369140625, 35.20351562500002 33.258984375, 35.25136718750002 33.392626953124996, 35.21820152653455 33.3, 55 33.3, 55 34, 61.2 34, 61.5 31, 61.01701148186933 25.204137782431953, 60.66386718750002 25.2822265625, 60.61513671875002 25.329833984375, 60.587500000000006 25.413525390624997, 60.51054687500002 25.437060546875003)), ((55.09814453125 25.04160156249999, 55.30351562500002 25.23681640625, 55.32167968750002 25.2998046875, 55.43339843750002 25.394482421874997, 55.52285156250002 25.49814453124999, 55.94121093750002 25.793994140625003, 56.02519531250002 25.916015625, 56.07460937500002 26.052783203124996, 56.16445312500002 26.20703125, 56.197265625 26.229199218749997, 56.22841796875002 26.219775390624996, 56.30556640625002 26.235205078125, 56.34648437500002 26.313623046874994, 56.37871093750002 26.356347656249994, 56.4130859375 26.351171875, 56.429785156250006 26.327197265624996, 56.41640625000002 26.108740234375, 56.373632812500006 25.804589843749994, 56.32929687500001 25.751953125, 56.307226562500006 25.70932617187499, 56.2978515625 25.650683593750003, 56.36347656250001 25.569384765625003, 56.37285156250002 25.018310546875, 56.489843750000006 24.716357421875003, 56.640625 24.47031249999999, 56.77412109375001 24.33457031249999, 56.91250000000002 24.150195312500003, 57.123046875 23.980712890625, 57.219824218750006 23.922753906249994, 57.611328125 23.803662109374997, 57.82509765625002 23.75913085937499, 58.12041015625002 23.716552734375, 58.32451171875002 23.623828125000003, 58.393164062500006 23.6181640625, 58.5 23.645654296874994, 58.57802734375002 23.643457031249994, 58.773046875000006 23.51718749999999, 58.83037109375002 23.3974609375, 58.91152343750002 23.334179687499997, 58.9833984375 23.23471679687499, 59.029882812500006 23.130566406249997, 59.19472656250002 22.971874999999997, 59.31093750000002 22.793359374999994, 59.42939453125001 22.660839843749997, 59.53515625 22.578515624999994, 59.69560546875002 22.546142578125, 59.8232421875 22.508984374999997, 59.837500000000006 22.420556640624994, 59.82441406250001 22.30517578125, 59.80000000000001 22.219921874999997, 59.68085937500001 22.05380859374999, 59.65253906250001 21.951367187499997, 59.517578125 21.78232421874999, 59.37148437500002 21.498828125000003, 59.30449218750002 21.435351562500003, 59.06875000000002 21.2890625, 58.89570312500001 21.11279296875, 58.6904296875 20.80712890625, 58.5341796875 20.50390625, 58.474218750000006 20.406884765624994, 58.348730468750006 20.386914062499997, 58.26601562500002 20.395458984374997, 58.208984375 20.423974609374994, 58.23164062500001 20.5068359375, 58.24501953125002 20.59921874999999, 58.16943359375 20.589501953124994, 58.10292968750002 20.570361328125003, 57.94716796875002 20.34360351562499, 57.86181640625 20.244140625, 57.84365234375002 20.117724609375003, 57.80214843750002 19.95458984375, 57.7412109375 19.804492187500003, 57.71416015625002 19.678417968749997, 57.71513671875002 19.60693359375, 57.760839843750006 19.43222656249999, 57.76396484375002 19.253320312499994, 57.811621093750006 19.01708984375, 57.73847656250001 18.977343750000003, 57.67578125 18.95786132812499, 57.42792968750001 18.943798828124997, 57.17656250000002 18.902587890625, 56.95722656250001 18.827832031249997, 56.82597656250002 18.75351562499999, 56.65507812500002 18.587353515624997, 56.55078125 18.165966796874997, 56.38349609375001 17.987988281249997, 56.27031250000002 17.95078124999999, 55.997656250000006 17.935205078124994, 55.613867187500006 17.88608398437499, 55.479101562500006 17.84326171875, 55.25537109375 17.585644531249997, 55.23818359375002 17.50473632812499, 55.28144531250001 17.446240234374997, 55.29560546875001 17.381591796875, 55.27519531250002 17.32089843749999, 55.17373046875002 17.157617187499994, 55.06416015625001 17.03891601562499, 55 17.02261337652438, 55 24.97703566325909, 54.74677734375001 24.810449218749994, 55.09814453125 25.04160156249999)), ((58.72207031250002 20.21875, 58.65908203125002 20.20361328125, 58.64091796875002 20.210693359375, 58.641210937500006 20.337353515624997, 58.78798828125002 20.49658203125, 58.884375000000006 20.680566406249994, 58.950781250000006 20.516162109375003, 58.83515625000001 20.42392578124999, 58.77226562500002 20.266845703125, 58.72207031250002 20.21875)), ((55.74746093750002 26.930957031249996, 55.75761718750002 26.947656249999994, 55.90712890625002 26.909814453124994, 56.07412109375002 26.983349609374997, 56.213964843750006 27.003271484375, 56.279394531250006 26.952099609374997, 56.18798828125 26.921142578125, 56.09492187500001 26.801171874999994, 55.95429687500001 26.701123046874997, 55.894140625000006 26.732275390625, 55.84765625 26.730810546875, 55.74726562500001 26.69248046875, 55.67460937500002 26.685839843749996, 55.54316406250001 26.617529296875, 55.42373046875002 26.58310546875, 55.3115234375 26.592626953125, 55.295019531250006 26.639208984374996, 55.296484375000006 26.657568359375, 55.34697265625002 26.64794921875, 55.53173828125 26.710009765624996, 55.76259765625002 26.811962890624997, 55.78457031250002 26.857177734375, 55.74746093750002 26.930957031249996)), ((26.94384765625 38.062890624999994, 26.87861328125001 38.05478515625, 26.807421875000017 38.138330078124994, 26.68281250000001 38.19833984375, 26.62109375 38.1763671875, 26.582421875000023 38.149267578125, 26.524707031250017 38.162255859374994, 26.42792968750001 38.21435546875, 26.332910156250023 38.242480468749996, 26.29072265625001 38.277197265625, 26.343652343750023 38.370068359375, 26.416406250000023 38.36787109375, 26.4296875 38.440625, 26.37226562500001 38.561914062499994, 26.377832031250023 38.624169921874994, 26.441308593750023 38.6412109375, 26.513574218750023 38.6294921875, 26.586523437500006 38.557031249999994, 26.6103515625 38.4869140625, 26.595019531250017 38.418603515624994, 26.64130859375001 38.352441406249994, 26.674218750000023 38.335742187499996, 26.696386718750006 38.40537109375, 26.727343750000017 38.418603515624994, 26.769921875000023 38.38818359375, 26.861425781250006 38.372949218749994, 27.0986328125 38.41572265625, 27.14423828125001 38.451953124999996, 26.97041015625001 38.4478515625, 26.906835937500006 38.481738281249996, 26.837792968750023 38.557568359375, 26.795312500000023 38.626416015625, 26.763671875 38.709619140624994, 26.790136718750006 38.736083984375, 26.9091796875 38.775781249999994, 27.013671875 38.886865234374994, 26.970117187500023 38.91904296875, 26.920312500000023 38.934228515624994, 26.8662109375 38.92294921875, 26.81494140625 38.960986328124996, 26.80830078125001 39.013916015625, 26.84931640625001 39.05673828125, 26.853613281250006 39.115624999999994, 26.68183593750001 39.292236328125, 26.710742187500017 39.339648437499996, 26.813281250000017 39.41904296875, 26.910937500000017 39.517333984375, 26.899218750000017 39.549658203125, 26.827050781250023 39.562890624999994, 26.48408203125001 39.520703125, 26.35078125000001 39.48408203125, 26.113085937500017 39.4673828125, 26.095996093750017 39.520800781249996, 26.101367187500017 39.5689453125, 26.154687500000023 39.656640624999994, 26.149804687500023 39.872851562499996, 26.18134765625001 39.990087890625, 26.313378906250023 40.025, 26.386898751986255 40.103173000529665, 27.363849113140628 40.3636930968375, 27.4755859375 40.319921875, 27.72802734375 40.32880859375, 27.848535156250023 40.381738281249994, 27.74937637721911 40.466500367258426, 27.902399467045157 40.50730652454537, 27.989550781250017 40.489453125, 27.99482421875001 40.466601562499996, 27.96435546875 40.435302734375, 27.92890625000001 40.380419921874996, 27.96259765625001 40.369873046875, 28.2890625 40.40302734375, 28.630273437500023 40.37646484375, 28.738867187500006 40.390869140625, 29.007128906250017 40.38974609375, 29.05517578125 40.424169921875, 28.974023437500023 40.4673828125, 28.894628906250006 40.482421875, 28.787890625000017 40.534033203125, 28.9580078125 40.63056640625, 29.507617187500017 40.708398437499994, 29.84492187500001 40.738085937499996, 29.849218750000006 40.760107421875, 29.36474609375 40.80927734375, 29.262729822095856 40.84624044868887, 30.729210794365695 41.10434109980836, 30.81005859375 41.084863281249994, 31.2548828125 41.1076171875, 31.3466796875 41.15791015625, 31.389726114957927 41.22059179623259, 35.13266470825614 41.87934898865308, 35.20917968750001 41.794384765625, 35.29775390625002 41.728515625, 35.55800781250002 41.634033203125, 35.91982421875002 41.713720703125, 36.0517578125 41.682568359375, 36.17919921875 41.426562499999996, 36.278417968750006 41.3361328125, 36.405371093750006 41.274609375, 36.50966796875002 41.262499999999996, 36.58710937500001 41.32666015625, 36.647070312500006 41.3525390625, 36.77773437500002 41.3634765625, 36.99199218750002 41.275390625, 37.06621093750002 41.184423828125, 37.43095703125002 41.114111328125, 37.765625 41.078906249999996, 37.91005859375002 41.001904296875, 38.38105468750001 40.92451171875, 38.55693359375002 40.9365234375, 38.852148437500006 41.01767578125, 39.426367187500006 41.1064453125, 39.80791015625002 40.98251953125, 39.9111328125 40.966455078124994, 40.00019531250001 40.9771484375, 40.12841796875 40.943017578124994, 40.265234375000006 40.961328124999994, 40.6875 41.107421875, 40.81953125000001 41.190234374999996, 40.95947265625 41.21162109375, 41.083593750000006 41.261181640625, 41.41435546875002 41.423632812499996, 41.701757812500006 41.705419921875, 41.7587890625 41.817138671875, 41.76298828125002 41.970019531249996, 41.66328125000001 42.146874999999994, 41.48876953125 42.659326171874994, 41.41943359375 42.737646484375, 41.12871093750002 42.828125, 41.06631510398905 42.923671458302074, 41.5 43, 48 41.5, 52 47, 56 45, 54 45, 54 38, 27.12157325034119 38, 27.15869140625 37.986865234374996, 26.94384765625 38.062890624999994)), ((48.1796875 29.61142578125, 48.142578125 29.665283203125, 48.08144531250002 29.79892578125, 48.11474609375 29.848779296874994, 48.1201171875 29.886328125, 48.13886718750001 29.89658203125, 48.15859375000002 29.9595703125, 48.18476562500001 29.978857421875, 48.22773437500001 29.936328124999996, 48.348242187500006 29.782666015624997, 48.34023437500002 29.694726562499994, 48.275390625 29.624316406249996, 48.21826171875 29.601953124999994, 48.1796875 29.61142578125)), ((32.82949218750002 28.702880859375, 32.856542968750006 28.630615234375, 32.89824218750002 28.565234374999996, 33.02285156250002 28.442285156249994, 33.2021484375 28.208300781249996, 33.37226562500001 28.050585937499996, 33.49492187500002 27.974462890625, 33.545802468210184 27.9, 32.6 27.9, 32.6 29.31843017578132, 32.63808593750002 29.182177734374996, 32.6318359375 28.992236328124996, 32.65888671875001 28.927734375, 32.78447265625002 28.78662109375, 32.82949218750002 28.702880859375)), ((25.90625 39.138964843749996, 25.85546875 39.178662109375, 25.844140625000023 39.200048828125, 25.909570312500023 39.287548828125, 26.026464843750006 39.284619140625, 26.08837890625 39.304296875, 26.164843750000017 39.331982421875, 26.165429687500023 39.37353515625, 26.347753906250006 39.3830078125, 26.41015625 39.329443359375, 26.39277343750001 39.2701171875, 26.531054687500017 39.171777343749994, 26.578222656250006 39.109521484374994, 26.595605468750023 39.048828125, 26.583984375 39.0314453125, 26.531542968750017 39.064355468749994, 26.488671875000023 39.0748046875, 26.50312500000001 39.0314453125, 26.547167968750017 38.994140625, 26.46875 38.972802734374994, 26.39013671875 38.973925781249996, 26.16083984375001 39.02587890625, 26.10791015625 39.0810546875, 26.2451171875 39.164111328124996, 26.27314453125001 39.197558593749996, 26.17597656250001 39.194287109375, 26.072363281250006 39.095605468749994, 25.90625 39.138964843749996)), ((25.99853515625 38.161523437499994, 25.891894531250017 38.243310546874994, 25.874316406250017 38.26962890625, 25.95263671875 38.302636718749994, 25.99140625000001 38.353515625, 25.9599609375 38.416015625, 25.85126953125001 38.5083984375, 25.846093750000023 38.574023437499996, 26.012500000000017 38.601708984374994, 26.110449218750006 38.54462890625, 26.16035156250001 38.54072265625, 26.141210937500006 38.486181640625, 26.14960937500001 38.46845703125, 26.157031250000017 38.3029296875, 26.110742187500023 38.279638671875, 26.094042968750017 38.218066406249996, 25.99853515625 38.161523437499994)), ((25.285742187500006 39.956298828125, 25.348046875000023 39.984765624999994, 25.3607180059524 40, 25.441399215047408 40, 25.43769531250001 39.983300781249994, 25.39990234375 39.949560546875, 25.3720703125 39.89130859375, 25.357031250000006 39.80810546875, 25.298730468750023 39.806103515625, 25.26337890625001 39.82294921875, 25.251757812500017 39.854394531249994, 25.249414062500023 39.894140625, 25.22382812500001 39.892578125, 25.203222656250006 39.849414062499996, 25.185156250000006 39.829931640625, 25.12646484375 39.825830078124994, 25.06220703125001 39.852392578125, 25.065234375000017 39.90986328125, 25.052343750000006 39.976367187499996, 25.058007812500023 39.999658203124994, 25.239868989189873 40, 25.285742187500006 39.956298828125)))