MULTIPOLYGON (((119.71378341857543 26.249285476259196, 119.56708984375001 26.127343749999994, 119.46308593750001 26.0546875, 119.36972656250003 26.054052734375, 119.31308593750003 26.062548828124996, 119.23212890625001 26.104394531249994, 119.13945312499999 26.121777343749997, 119.26376953125003 25.974804687499997, 119.33203125 25.94873046875, 119.41777343749999 25.954345703125, 119.50087890625002 26.009179687499994, 119.61875000000003 26.003564453124994, 119.64824218749999 25.918701171875, 119.61689453125001 25.822900390624994, 119.55283203125003 25.698681640624997, 119.53945312500002 25.591259765624997, 119.619140625 25.437451171874997, 119.62246093750002 25.391162109375003, 119.5927734375 25.36801757812499, 119.49921875000001 25.408642578124997, 119.42177734375002 25.459619140624994, 119.34375 25.4462890625, 119.26308593750002 25.468017578125, 119.18007812500002 25.44980468749999, 119.14628906249999 25.414306640625, 119.16933593750002 25.355712890625, 119.24355468750002 25.307031249999994, 119.28554687500002 25.232226562500003, 119.23554687500001 25.205957031249994, 119.02460937500001 25.223437500000003, 118.9775390625 25.209277343750003, 118.91445312500002 25.12680664062499, 118.95566406250003 25.004785156249994, 118.90908203125002 24.928906249999997, 118.82207031249999 24.9111328125, 118.70751953125 24.849804687499997, 118.63691406250001 24.83554687499999, 118.64023437500003 24.80908203125, 118.69179687500002 24.78232421874999, 118.71914062500002 24.746142578125003, 118.65703124999999 24.62143554687499, 118.56035156249999 24.580371093750003, 118.41201171875002 24.600732421874994, 118.29531250000002 24.57275390625, 118.19453125000001 24.62583007812499, 118.08710937500001 24.627001953125003, 118.01386718750001 24.55991210937499, 118.00595703125003 24.481982421875003, 117.84267578125002 24.474316406249997, 117.84824218750003 24.43247070312499, 117.87900390625003 24.395898437499994, 118.02421874999999 24.379638671875, 118.05058593749999 24.3271484375, 118.05605468750002 24.24609375, 117.90410156249999 24.1064453125, 117.83945312500003 24.01230468749999, 117.74169921875 24.014794921874994, 117.66787109375002 23.939257812500003, 117.62822265624999 23.836718750000003, 117.57919921875003 23.856982421875003, 117.46640625000003 23.840576171875, 117.43310546875 23.791699218749997, 117.45957031250003 23.771484375, 117.46220703124999 23.736230468749994, 117.4169921875 23.620996093749994, 117.36767578125 23.588623046875, 117.3466796875 23.6357421875, 117.33076171875001 23.708789062500003, 117.29082031249999 23.71435546875, 117.22500000000002 23.647021484375003, 117.14814453125001 23.598779296874994, 117.08251953125 23.578759765624994, 117.03281250000003 23.623437499999994, 116.91064453125 23.646679687499997, 116.86093750000003 23.453076171874997, 116.75957031249999 23.382519531249997, 116.71210937500001 23.360498046874994, 116.62939453125 23.35385742187499, 116.68232421875001 23.327392578125, 116.69882812500003 23.277783203124997, 116.66914062500001 23.228173828124994, 116.58642578125 23.21826171875, 116.53828125000001 23.1796875, 116.51982421874999 23.006591796875, 116.470703125 22.94589843749999, 116.34550781249999 22.941064453124994, 116.25185546875002 22.981347656249994, 116.22207031250002 22.94956054687499, 116.20634765624999 22.918652343749997, 116.15742187500001 22.887451171875, 116.06259765625003 22.879101562499997, 115.85214843750003 22.801562500000003, 115.64042968749999 22.853417968749994, 115.56113281250003 22.82470703125, 115.53466796875 22.765185546875003, 115.49833984374999 22.71884765624999, 115.38251953125001 22.71884765624999, 115.28994140625002 22.77597656249999, 115.19580078125 22.817285156249994, 115.09150390625001 22.781689453124997, 115.01210937500002 22.708935546874997, 114.91445312500002 22.684619140625003, 114.89638671875002 22.63950195312499, 114.85380859374999 22.61679687499999, 114.75039062500002 22.62631835937499, 114.71113281250001 22.738720703124997, 114.65166015624999 22.755273437499994, 114.5927734375 22.698437499999997, 114.57197265625001 22.654052734375, 114.54443359375 22.62060546875, 114.55419921875 22.52890624999999, 114.49619140625003 22.527050781249997, 114.42011718750001 22.583251953125, 114.34062499999999 22.593212890624997, 114.26601562500002 22.540966796874997, 114.29111328125003 22.499462890624997, 114.28457031250002 22.45761718749999, 114.3251953125 22.437402343749994, 114.33525390624999 22.396240234375, 114.29052734375 22.373779296875, 114.28789062499999 22.32529296874999, 114.26796875000002 22.295556640624994, 114.13906250000002 22.348437500000003, 114.03281250000003 22.375878906249994, 113.93730468749999 22.364990234375, 113.90253906250001 22.39609374999999, 113.896484375 22.428173828124997, 114.00673828125002 22.484033203124994, 114.01542968749999 22.511914062499997, 113.93115234375 22.531054687500003, 113.82832031250001 22.607226562500003, 113.75449218750003 22.733642578125, 113.6611328125 22.801660156249994, 113.61962890625 22.86142578124999, 113.60341796875002 22.968896484374994, 113.58632812500002 23.02001953125, 113.59218750000002 23.076953125000003, 113.62050781250002 23.127490234375003, 113.51972656250001 23.102099609375003, 113.4453125 23.055078124999994, 113.46035156250002 22.99570312499999, 113.44189453125 22.940576171874994, 113.3310546875 22.912011718749994, 113.34482421875003 22.86459960937499, 113.43203125000002 22.78940429687499, 113.44980468750003 22.726123046875003, 113.48476562500002 22.6923828125, 113.55302734374999 22.594042968750003, 113.55146484375001 22.40415039062499, 113.5888671875 22.350488281249994, 113.54814453124999 22.222607421874997, 113.36738281250001 22.164843750000003, 113.32773437500003 22.145410156249994, 113.26640624999999 22.088769531249994, 113.14902343750003 22.075000000000003, 113.08876953125002 22.207958984374997, 113.00820312500002 22.119335937499997, 112.98378906250002 21.938232421875, 112.95390624999999 21.90732421874999, 112.90380859375 21.88144531249999, 112.80859375 21.944628906250003, 112.66074218750003 21.85947265624999, 112.63408203124999 21.819873046875003, 112.58632812500002 21.77685546875, 112.49472656250003 21.818310546874997, 112.42128906250002 21.880615234375, 112.439453125 21.92734374999999, 112.42929687500003 21.95810546874999, 112.39609375000003 21.981347656249994, 112.35966796874999 21.97802734375, 112.37744140625 21.91748046875, 112.38974609375003 21.801220703124997, 112.3564453125 21.767578125, 112.30498046874999 21.74169921875, 112.193359375 21.763134765624997, 112.1171875 21.80649414062499, 112.02519531249999 21.843017578125, 111.94394531250003 21.849658203125003, 111.92646484375001 21.776269531249994, 111.87343750000002 21.71713867187499, 111.82460937500002 21.709765625000003, 111.77597656250003 21.71923828125, 111.7119140625 21.655224609374997, 111.681640625 21.60849609374999, 111.60273437500001 21.55908203125, 111.39238281249999 21.535107421874997, 111.31914062499999 21.486132812500003, 111.22060546875002 21.493896484375, 111.14423828125001 21.482226562500003, 111.1005859375 21.48471679687499, 111.06113281250003 21.510986328125, 111.01689453124999 21.51171875, 110.99677734375001 21.43027343749999, 110.87802734375003 21.395947265624997, 110.77109375000003 21.386523437500003, 110.65214843749999 21.279101562500003, 110.56718749999999 21.214062499999997, 110.50429687500002 21.207421874999994, 110.4580078125 21.23056640624999, 110.4345703125 21.326904296875, 110.41093749999999 21.338134765625, 110.3974609375 21.247705078124994, 110.37460937500003 21.17236328125, 110.33115234375003 21.13134765625, 110.19355468750001 21.037646484375003, 110.15400390625001 20.944628906250003, 110.18037109375001 20.858593749999997, 110.36542968750001 20.837597656249997, 110.38847656249999 20.79052734375, 110.37050781250002 20.75205078124999, 110.326171875 20.719921874999997, 110.31308593750003 20.671679687500003, 110.51152343749999 20.518261718749997, 110.517578125 20.460009765625003, 110.48691406250003 20.42685546874999, 110.44951171874999 20.355419921874997, 110.3447265625 20.294824218749994, 110.12314453125003 20.263720703125003, 109.9384765625 20.295117187499997, 109.88251953125001 20.364062500000003, 109.88583984375003 20.413134765625003, 109.931640625 20.398876953124997, 109.98388671875 20.403271484374997, 109.96835937500003 20.448144531249994, 109.94638671875003 20.474365234375, 109.86103515625001 20.514306640624994, 109.7919921875 20.621875000000003, 109.80527343750003 20.711474609375003, 109.76738281249999 20.780712890624997, 109.72626953125001 20.838769531249994, 109.68476562500001 20.87363281249999, 109.66259765625 20.916894531249994, 109.70449218750002 21.052734375, 109.68125000000003 21.131640625000003, 109.76015625000002 21.22836914062499, 109.77958984374999 21.337451171875003, 109.92109375000001 21.37646484375, 109.93076171875003 21.48056640624999, 109.82958984375 21.483593749999997, 109.75937500000003 21.56005859375, 109.74335937500001 21.527978515624994, 109.68691406250002 21.524609374999997, 109.59433593750003 21.67197265624999, 109.56640625 21.690576171874994, 109.521484375 21.693408203125003, 109.54404296875003 21.53793945312499, 109.435546875 21.4794921875, 109.3466796875 21.45395507812499, 109.22041015625001 21.443408203125003, 109.14863281250001 21.425537109375, 109.08154296875 21.44028320312499, 109.09814453125 21.487353515625003, 109.13349609375001 21.543603515624994, 109.10175781250001 21.590478515624994, 109.03056640624999 21.626513671875003, 108.92177734375002 21.624414062499994, 108.84638671875001 21.634472656249997, 108.77167968750001 21.63046874999999, 108.67451171875001 21.724658203125003, 108.61582031250003 21.770458984374997, 108.58935546875 21.815966796875003, 108.61582031250003 21.868896484375, 108.59375 21.901025390624994, 108.47988281250002 21.90463867187499, 108.49257812500002 21.739404296874994, 108.52568359374999 21.67138671875, 108.50214843750001 21.633447265624994, 108.4443359375 21.607324218749994, 108.3828125 21.67919921875, 108.35458984375003 21.696923828124994, 108.32480468750003 21.693505859374994, 108.30214843750002 21.62192382812499, 108.24628906250001 21.558398437500003, 108.14560546875003 21.565185546875, 108.0673828125 21.52597656249999, 107.92578125 21.498925781249994, 107.80908203125 21.497119140625003, 107.70722656250001 21.40585937499999, 107.63671875 21.368066406249994, 107.52695312500003 21.336230468750003, 107.40996093749999 21.284814453124994, 107.37617187500001 21.194140625000003, 107.37333984374999 21.128466796875003, 107.35429687499999 21.05517578125, 107.16474609375001 20.94873046875, 107.11171875000002 20.95957031249999, 107.0751953125 20.999267578125, 107.01923828125001 20.9912109375, 106.9814453125 20.971386718749997, 106.93642578125002 20.974072265624997, 106.88623046875 20.950000000000003, 106.82060546874999 20.95751953125, 106.76025390625 20.991113281249994, 106.72519531250003 20.999902343749994, 106.68339843749999 21.000292968750003, 106.67548828125001 20.960498046875003, 106.7373046875 20.80615234375, 106.75341796875 20.735058593749997, 106.55078125 20.526562499999997, 106.57285156250003 20.39218749999999, 106.51796875000002 20.288867187500003, 106.3955078125 20.20590820312499, 106.16572265625001 19.99204101562499, 106.06220703125001 19.987353515625003, 105.98408203125001 19.93906249999999, 105.81396484375 19.587451171875003, 105.81210937500003 19.466992187499997, 105.78535156250001 19.378857421874997, 105.79111328125003 19.294189453125, 105.71640625000003 19.12778320312499, 105.63906250000002 19.057177734375003, 105.62177734375001 18.96630859375, 105.80820312500003 18.64584960937499, 105.83925781250002 18.574169921874997, 105.88828125000003 18.502490234375003, 106.06562500000001 18.316357421874997, 106.14453125 18.259423828124994, 106.23955078124999 18.220703125, 106.41191406249999 18.053173828124997, 106.4990234375 17.946435546874994, 106.45937500000002 17.873681640624994, 106.47890625000002 17.71958007812499, 106.35585937500002 17.765039062499994, 106.37050781250002 17.746875000000003, 106.51679687500001 17.662792968749997, 106.73574218750002 17.3671875, 106.92617187500002 17.221386718749997, 107.11992187499999 17.05551757812499, 107.18037109375001 16.89794921875, 107.35507812500003 16.793750000000003, 107.54931640625 16.642578125, 107.54082031249999 16.608642578125, 107.72412109375 16.487841796875003, 107.80312500000002 16.403076171875, 107.83378906249999 16.322460937499997, 107.88203125000001 16.309619140625003, 107.93632812499999 16.329394531250003, 107.99072265625 16.337109374999997, 108.02939453125003 16.331103515625003, 108.08798828125003 16.242724609375003, 108.16972656249999 16.16367187499999, 108.208984375 16.091064453125, 108.24082031250003 16.100781249999997, 108.26738281249999 16.089794921874997, 108.28603515625002 15.989062500000003, 108.39531249999999 15.872460937499994, 108.44746093750001 15.7626953125, 108.57783203125001 15.584716796875, 108.67421875000002 15.483593749999997, 108.74277343750003 15.426611328124991, 108.8212890625 15.3779296875, 108.89824218749999 15.180517578124991, 108.93994140625 15.00146484375, 109.0224609375 14.802832031249991, 109.08486328125002 14.716162109374991, 109.08701171875003 14.552587890624991, 109.13730468750003 14.384130859374991, 109.19140625 14.270458984374997, 109.20732421874999 14.154296875, 109.30332031250003 13.8564453125, 109.2880859375 13.765039062499994, 109.2470703125 13.854736328125, 109.25205078125003 13.590527343749997, 109.2880859375 13.450781249999991, 109.27187500000002 13.279345703125003, 109.3095703125 13.219189453124997, 109.37675781249999 13.025488281249991, 109.42392578125003 12.955957031249994, 109.42001953125003 12.719042968749989, 109.44492187500003 12.599609375, 109.38144531250003 12.670751953124991, 109.33554687500003 12.751904296874997, 109.27402343750003 12.709033203124989, 109.21894531250001 12.645800781249989, 109.3046875 12.391162109374989, 109.20683593749999 12.415380859374991, 109.21572265625002 12.072900390624994, 109.25625000000002 11.992871093749997, 109.25917968750002 11.954541015624997, 109.24726562500001 11.90869140625, 109.22021484375 11.958837890624991, 109.21455078125001 12.010449218749997, 109.19912109375002 11.9990234375, 109.19990234375001 11.972460937499989, 109.16728515624999 11.912011718749994, 109.15751953124999 11.837109374999997, 109.19267578124999 11.7734375, 109.19863281250002 11.724853515625, 109.17324218750002 11.664746093749997, 109.13251953125001 11.60107421875, 109.03964843750003 11.592675781249994, 108.98671875000002 11.336376953124997, 108.82080078125 11.3154296875, 108.70029296875003 11.199267578124989, 108.55126953125 11.155957031249997, 108.41855468750003 11.040722656249997, 108.27167968750001 10.934277343749997, 108.17617187500002 10.920166015625, 108.09492187500001 10.897265624999989, 108.00136718750002 10.720361328124994, 107.84511718750002 10.700097656249994, 107.564453125 10.555468749999989, 107.47031250000003 10.48583984375, 107.38447265625001 10.458642578124994, 107.26152343749999 10.398388671874997, 107.19414062499999 10.471582031249994, 107.08779296875002 10.498339843749989, 107.03574218750003 10.556298828124994, 107.02070312500001 10.630957031249991, 107.00664062499999 10.660546874999994, 106.98369140624999 10.618310546874994, 106.96611328124999 10.440722656249989, 106.94746093750001 10.400341796874997, 106.90205078125001 10.3828125, 106.81269531250001 10.433300781249997, 106.72734374999999 10.53564453125, 106.60585937500002 10.464941406249991, 106.64306640625 10.456249999999997, 106.69843750000001 10.462060546874994, 106.7412109375 10.444384765624989, 106.77753906250001 10.376123046874994, 106.77626953125002 10.338964843749991, 106.75742187500003 10.295800781249994, 106.6435546875 10.288916015624991, 106.49169921875 10.304101562499994, 106.46406250000001 10.298291015624997, 106.60244140625002 10.231738281249989, 106.72900390625 10.193310546874997, 106.78525390625003 10.151171874999989, 106.78525390625003 10.116455078125, 106.71416015624999 10.060205078124994, 106.6591796875 9.991406249999997, 106.65683593750003 9.901074218749997, 106.59560546875002 9.85986328125, 106.55732421875001 9.868066406249994, 106.44912109375002 9.939648437499997, 106.13642578125001 10.2216796875, 106.18359375 10.14208984375, 106.50742187500003 9.821240234374997, 106.56435546875002 9.715624999999989, 106.57246093750001 9.64111328125, 106.48408203125001 9.559423828124991, 106.37802734375003 9.556103515624997, 106.20400390625002 9.675439453124994, 105.92568359375002 9.961718749999989, 105.83095703125002 10.000732421875, 106.11250000000001 9.673583984375, 106.15859375000002 9.594140624999994, 106.20615234375003 9.502343749999994, 106.19257812500001 9.447802734374989, 106.16835937500002 9.396728515625, 105.5009765625 9.093212890624997, 105.4013671875 8.96240234375, 105.322265625 8.801123046874991, 105.19121093749999 8.711328124999994, 105.11435546875003 8.629199218749989, 104.89189453124999 8.583251953125, 104.77041015625002 8.59765625, 104.89628906249999 8.746630859374989, 104.81855468750001 8.801855468749991, 104.81464843750001 9.185498046874997, 104.84521484375 9.606152343749997, 104.90322265625002 9.816259765624991, 104.98710937499999 9.86865234375, 105.09257812499999 9.900976562499991, 105.09492187500001 9.945263671874997, 105.08447265625 9.995703124999991, 105.02783203125 10.067431640624989, 104.9658203125 10.1005859375, 104.87324218750001 10.114794921874989, 104.80195312500001 10.202734374999991, 104.74765625000003 10.199121093749994, 104.66347656250002 10.169921875, 104.61269531250002 10.207666015624994, 104.59404296874999 10.266894531249989, 104.51611328125 10.339990234374994, 104.26240234375001 10.541259765625, 103.93710937500003 10.586621093749997, 103.90175781250002 10.643945312499994, 103.87050781250002 10.655126953124991, 103.84052734375001 10.58056640625, 103.66191406249999 10.508935546874994, 103.58710937500001 10.552197265624997, 103.5322265625 10.604638671874994, 103.54042968750002 10.668701171875, 103.59208984374999 10.721044921874991, 103.68085937500001 10.758593749999989, 103.72187500000001 10.89013671875, 103.654296875 11.058691406249991, 103.59501953124999 11.107763671874991, 103.53242187500001 11.146679687499997, 103.46669921875002 11.083984375, 103.41132812500001 10.976757812499997, 103.35361328125003 10.921582031249997, 103.27216796875001 10.909277343749991, 103.15283203125 10.913720703124994, 103.1064453125 11.073779296874989, 103.09111328124999 11.211083984374994, 103.107421875 11.367773437499991, 103.12548828125 11.460644531249997, 103.01054687499999 11.588671874999989, 103.00419921874999 11.710595703124994, 102.94863281250002 11.773486328124989, 102.93232421875001 11.74169921875, 102.93388671874999 11.706689453124994, 102.91230468750001 11.703857421875, 102.88369140625002 11.772753906249989, 102.79160156250003 11.888623046874997, 102.76298828124999 12.012451171875, 102.65488281250003 12.148828124999994, 102.59414062500002 12.203027343749994, 102.57480468750003 12.157812499999991, 102.54023437500001 12.109228515624991, 102.43408203125 12.179248046874989, 102.34316406250002 12.252587890624994, 102.25908203124999 12.394335937499989, 102.22958984375003 12.331640624999991, 102.13417968750002 12.443017578124994, 102.03437500000001 12.531884765624994, 101.94453125000001 12.563671874999997, 101.88906250000002 12.59326171875, 101.83574218749999 12.640380859375, 101.7236328125 12.689355468749994, 101.44492187500003 12.618945312499989, 101.09023437500002 12.673632812499989, 100.95371093750003 12.621240234374994, 100.89775390624999 12.65380859375, 100.86328125 12.714501953124994, 100.89638671875002 12.818164062499989, 100.90390625000003 13.034912109375, 100.94609374999999 13.187255859375, 100.92626953125 13.303027343750003, 100.94697265625001 13.357568359374994, 100.96269531249999 13.431982421874991, 100.90654296874999 13.46240234375, 100.65605468749999 13.521289062500003, 100.60292968750002 13.568164062500003, 100.53642578124999 13.514453125000003, 100.23564453124999 13.484472656249991, 100.12236328124999 13.439550781249991, 100.01748046875002 13.353173828124994, 99.99052734374999 13.243457031250003, 100.05107421874999 13.171240234374991, 100.08994140625003 13.045654296875, 99.98203125000003 12.771484375, 99.96396484375003 12.690039062499991, 100.00566406249999 12.354736328125, 99.98906249999999 12.170800781249994, 99.93027343750003 12.047460937499991, 99.83710937500001 11.936621093749991, 99.79873046875002 11.748779296875, 99.72548828125002 11.661767578124994, 99.62734375000002 11.462890625, 99.56132812499999 11.215185546874991, 99.51435546875001 11.1005859375, 99.48691406250003 10.889550781249994, 99.28476562500003 10.569140624999989, 99.2373046875 10.388134765624997, 99.1650390625 10.31982421875, 99.19033203125002 10.265869140625, 99.19462890624999 10.175439453124994, 99.16933593750002 9.934179687499991, 99.16074218750003 9.734033203124994, 99.19130859375002 9.627148437499997, 99.28828125000001 9.414599609374989, 99.26503906250002 9.352978515624997, 99.25390625 9.265234374999991, 99.33544921875 9.225439453124991, 99.39384765624999 9.213720703124991, 99.72382812500001 9.314208984375, 99.83554687500003 9.288378906249989, 99.90468750000002 9.112890624999991, 99.96064453125001 8.671240234374991, 99.98955078124999 8.589208984374991, 100.12929687500002 8.428076171874991, 100.15410156249999 8.442968749999991, 100.16347656250002 8.508398437499991, 100.22871093750001 8.424707031249994, 100.27939453125003 8.268505859374997, 100.45351562500002 7.442285156249994, 100.51689707002893 7.302229574972985, 100.43388626265204 7.315844902576499, 100.41074218750003 7.464306640624997, 100.38037109375 7.54150390625, 100.34296875000001 7.552880859374994, 100.28378906250003 7.551513671875, 100.27998046875001 7.5843261718749915, 100.32431640625003 7.644189453124994, 100.3173828125 7.715966796874994, 100.25664062499999 7.77490234375, 100.158203125 7.7281249999999915, 100.16074218750003 7.599267578124994, 100.20488281249999 7.500537109374989, 100.33174917369809 7.332597298686363, 99.31969887578735 7.498592508138132, 99.30039062500003 7.561328124999989, 99.263671875 7.619042968749994, 99.18339843749999 7.718066406249989, 99.07763671875 7.718066406249989, 99.04267578125001 7.765625, 99.05107421874999 7.887841796874994, 98.97392578124999 7.962792968749994, 98.87246093750002 8.02392578125, 98.78867187500003 8.059814453125, 98.70351562500002 8.256738281249994, 98.57919921875003 8.344287109374989, 98.49980468749999 8.317822265624997, 98.47402343750002 8.246923828124991, 98.42099609375003 8.17822265625, 98.36074218750002 8.186962890624997, 98.30546874999999 8.226220703124994, 98.23818359375002 8.423095703125, 98.22695312500002 8.543652343749997, 98.24179687500003 8.767871093749989, 98.32597656249999 8.968945312499997, 98.37138671874999 9.29052734375, 98.44316406249999 9.492822265624994, 98.49296874999999 9.561425781249994, 98.56191406250002 9.837499999999991, 98.70253906250002 10.190380859374997, 98.65800781249999 10.179052734374991, 98.56259765625003 10.034960937499989, 98.52128906249999 10.107226562499989, 98.49687499999999 10.182519531249994, 98.52304687500003 10.353124999999991, 98.46494140625003 10.675830078124989, 98.5009765625 10.718945312499997, 98.53564453125 10.740673828124997, 98.59882812500001 10.864404296874994, 98.67558593749999 10.986914062499991, 98.6826171875 11.133105468749989, 98.74472656250003 11.240380859374994, 98.73007812500003 11.329980468749994, 98.73330078125002 11.435253906249997, 98.74638671874999 11.521289062499989, 98.74140625000001 11.591699218749994, 98.79072265625001 11.665087890624989, 98.8759765625 11.7197265625, 98.84023437500002 11.7392578125, 98.80478515625003 11.779248046874997, 98.69365234374999 11.718359374999991, 98.63632812500003 11.738378906249991, 98.62490234375002 11.801464843749997, 98.64492187500002 11.910302734374994, 98.689453125 11.956738281249997, 98.68632812499999 12.047119140625, 98.66386718749999 12.126708984375, 98.6962890625 12.225244140624994, 98.63056640625001 12.225488281249994, 98.60029296875001 12.245312499999997, 98.619140625 12.299999999999997, 98.6787109375 12.348486328124991, 98.62441406250002 12.440722656249989, 98.66464843750003 12.539941406249994, 98.66318359375003 12.662402343749989, 98.63564453125002 12.7705078125, 98.63710937500002 12.848242187499991, 98.59511718750002 12.986035156249997, 98.57597656249999 13.161914062499989, 98.48710937499999 13.293066406249991, 98.42128906250002 13.483789062499994, 98.24541015624999 13.733496093749991, 98.24843750000002 13.840380859375003, 98.23896484375001 13.934472656249994, 98.20039062500001 13.980175781249997, 98.14951171875003 13.647607421874994, 98.11064453124999 13.712890625, 98.09824218750003 13.898339843749994, 98.07265625000002 13.986474609374994, 98.10019531250003 14.161523437499994, 97.99843750000002 14.335302734374991, 97.9765625 14.461474609375003, 97.90976562500003 14.652685546874991, 97.92929687500003 14.695556640625, 98.01875000000001 14.652587890625, 97.9365234375 14.763916015625, 97.869140625 14.738720703124997, 97.81230468749999 14.858935546875003, 97.7998046875 15.184912109374991, 97.74375000000003 15.306787109374994, 97.77421874999999 15.430957031250003, 97.71035156250002 15.875537109375003, 97.58427734374999 16.019580078125003, 97.640625 16.253857421874997, 97.63369140625002 16.457666015624994, 97.66464843750003 16.520458984374997, 97.72597656250002 16.568554687499997, 97.61962890625 16.53720703124999, 97.50507812500001 16.525292968749994, 97.37587890625002 16.52294921875, 97.3310546875 16.671777343749994, 97.26748046875002 16.743115234374997, 97.21171874999999 16.892578125, 97.17832031250003 17.06201171875, 97.2001953125 17.095410156249997, 97.10019531250003 17.16455078125, 97.07451171874999 17.206933593749994, 96.97011718750002 17.317333984374997, 96.85146484375002 17.401025390624994, 96.87773437499999 17.342187499999994, 96.90976562500003 17.304833984374994, 96.85087890624999 17.202929687500003, 96.90859375000002 17.030957031249997, 96.85800781250003 16.921191406250003, 96.81064453125003 16.778369140625003, 96.76542968749999 16.710351562499994, 96.62246093750002 16.563916015624997, 96.50664062499999 16.514355468749997, 96.43115234375 16.504931640625003, 96.36435546875003 16.5205078125, 96.2822265625 16.595996093750003, 96.26210937500002 16.659130859374997, 96.24892578125002 16.765332031249997, 96.22031250000003 16.780566406250003, 96.18906250000003 16.768310546875, 96.23769531250002 16.631249999999994, 96.23671875000002 16.567431640625003, 96.32431640625003 16.44443359374999, 96.29306640625003 16.410058593749994, 96.13505859374999 16.342529296875, 96.08095703125002 16.35336914062499, 96.04287109375002 16.33994140624999, 96.03212890625002 16.284619140624997, 96.01230468750003 16.253710937500003, 95.76328125000003 16.16904296874999, 95.71142578125 16.073388671874994, 95.67949218749999 15.976757812499997, 95.5556640625 15.837841796874997, 95.38955078125002 15.722753906249991, 95.34843749999999 15.729296875000003, 95.30146484375001 15.756152343750003, 95.30781250000001 15.880419921875003, 95.36474609375 15.985449218749991, 95.34677734375003 16.097607421874997, 95.3330078125 16.033251953125003, 95.22587890624999 15.876806640624991, 95.17695312500001 15.82568359375, 95.07832031250001 15.839160156250003, 94.94257812500001 15.818261718749994, 94.89121093750003 15.979101562499991, 94.89218750000003 16.03818359374999, 94.88222656250002 16.087939453125003, 94.89785156250002 16.140820312499997, 94.89316406250003 16.182812499999997, 94.86015624999999 16.102441406249994, 94.84775390625003 16.032861328124994, 94.79814453124999 15.971093749999994, 94.66152343750002 15.904394531249991, 94.6513671875 16.064843749999994, 94.68076171875003 16.13330078125, 94.67656249999999 16.24204101562499, 94.71992187500001 16.398730468750003, 94.70332031250001 16.511914062499997, 94.67900390624999 16.425585937500003, 94.66523437500001 16.336132812499997, 94.6376953125 16.30908203125, 94.58750000000003 16.288818359375, 94.49570312500003 16.18613281249999, 94.44160156250001 16.094384765624994, 94.29902343750001 16.007617187500003, 94.22382812500001 16.01645507812499, 94.21425781250002 16.126611328124994, 94.27128906249999 16.517285156249997, 94.32734375000001 16.572167968749994, 94.35341796875002 16.639941406250003, 94.40000000000003 16.8681640625, 94.45244140624999 16.954492187499994, 94.47314453125 17.135449218749997, 94.564453125 17.308544921874997, 94.58896484375003 17.5693359375, 94.56005859375 17.698974609375, 94.49433593750001 17.824609374999994, 94.43076171875003 18.20166015625, 94.26582031250001 18.507226562499994, 94.25214843750001 18.609179687500003, 94.17070312499999 18.732421875, 94.24570312500003 18.741162109374997, 94.09130859375 18.84921874999999, 94.07001953125001 18.89340820312499, 94.03896484375002 19.146191406249997, 94.044921875 19.287402343750003, 94.0224609375 19.268798828125, 94.00156250000003 19.181787109374994, 93.94101562500003 19.14609374999999, 93.96806640624999 18.995068359374997, 93.96132812500002 18.958398437499994, 93.92919921875 18.899658203125, 93.80009765624999 18.960595703124994, 93.70546875000002 19.026904296875003, 93.59814453125 19.1884765625, 93.49306640625002 19.36948242187499, 93.53056640624999 19.39755859374999, 93.57861328125 19.401171875000003, 93.72802734375 19.266503906249994, 93.82490234375001 19.238476562499997, 93.88613281250002 19.271923828124997, 93.96201171875003 19.329345703125, 93.99814453125003 19.440869140624997, 93.96074218749999 19.481689453125, 93.88789062500001 19.50390625, 93.83955078125001 19.534130859374997, 93.76992187500002 19.609570312499997, 93.73955078124999 19.697265625, 93.66874999999999 19.731982421875003, 93.61171875000002 19.776074218749997, 93.65986328125001 19.854150390624994, 93.70703125 19.912158203125003, 93.58183593749999 19.909570312499994, 93.43906250000003 20.009423828124994, 93.40957031250002 20.038330078125, 93.3623046875 20.058300781249997, 93.25 20.070117187500003, 93.15664062500002 20.040771484375, 93.19902343749999 19.898339843749994, 93.19062500000001 19.851220703124994, 93.12949218750003 19.85800781249999, 93.001953125 20.074853515624994, 93.04033203124999 20.129785156249994, 93.09550781249999 20.181347656249997, 93.068359375 20.188671874999997, 93.01513671875 20.185253906249997, 93.06679687500002 20.377636718749997, 93.03535156250001 20.406152343749994, 93.01875000000001 20.34604492187499, 92.99072265625 20.287988281249994, 92.88212890624999 20.152148437500003, 92.82832031250001 20.17758789062499, 92.79121093750001 20.21142578125, 92.84355468749999 20.282617187499994, 92.87167968750003 20.3017578125, 92.89111328125 20.34033203125, 92.85068359375003 20.414843750000003, 92.78691406249999 20.469042968750003, 92.73564453124999 20.562695312499997, 92.708984375 20.56396484375, 92.73261718750001 20.453369140625, 92.72285156250001 20.295605468749997, 92.60800781250003 20.469873046874994, 92.37832031250002 20.717578125000003, 92.32412109375002 20.79184570312499, 92.30781250000001 20.790429687499994, 92.19462890624999 20.984277343749994, 92.05605468750002 21.1748046875, 92.01093750000001 21.516259765624994, 92.00800781250001 21.684765624999997, 91.91318359375003 21.883056640625, 91.85000000000002 22.157373046874994, 91.82480468750003 22.228662109374994, 91.86337890625003 22.350488281249994, 91.84541015625001 22.34311523437499, 91.79707031250001 22.29746093749999, 91.73408203125001 22.406689453124997, 91.69296875000003 22.504785156249994, 91.52968750000002 22.707666015624994, 91.48212890625001 22.797412109375003, 91.48007812500003 22.884814453125003, 91.40957031250002 22.797021484374994, 91.31376953124999 22.735156250000003, 91.21621093750002 22.642236328124994, 91.1513671875 22.614062500000003, 90.94560546874999 22.59702148437499, 90.82675781250003 22.721386718749997, 90.65625 23.02548828124999, 90.63359374999999 23.09423828125, 90.65605468749999 23.27304687499999, 90.61562500000002 23.442333984374997, 90.61611328125002 23.531640624999994, 90.60400390625 23.591357421875003, 90.57343750000001 23.578125, 90.56162109375003 23.537109375, 90.56806640625001 23.474267578124994, 90.5556640625 23.421533203124994, 90.40800781249999 23.431884765625, 90.26914062500003 23.455859375000003, 90.39150390625002 23.366943359375, 90.52275390624999 23.346142578124997, 90.59091796875003 23.266406250000003, 90.59921875000003 23.204150390625003, 90.59511718750002 23.133935546874994, 90.52773437500002 23.0849609375, 90.46601562500001 23.053906249999997, 90.4775390625 22.986767578124997, 90.55224609375 22.90488281249999, 90.46162109375001 22.881787109374997, 90.43691406250002 22.828173828125003, 90.43505859375 22.751904296874997, 90.48066406250001 22.68466796874999, 90.49843750000002 22.634814453125003, 90.48740234375003 22.58872070312499, 90.53173828125 22.539306640625, 90.59550781249999 22.435839843750003, 90.61611328125002 22.36215820312499, 90.58945312500003 22.258447265624994, 90.55283203125003 22.218164062499994, 90.494140625 22.178906249999997, 90.35576171874999 22.048242187499994, 90.28818359375003 21.8994140625, 90.23056640625003 21.829785156249997, 90.15878906250003 21.816845703124997, 90.13076171875002 21.847412109375, 90.07119140625002 21.887255859375003, 90.07001953125001 21.959912109374997, 90.087890625 22.017480468749994, 90.20957031250003 22.15659179687499, 90.14345703125002 22.137890624999997, 89.95419921875003 22.022851562499994, 89.91806640625003 22.116162109374997, 89.89404296875 22.202587890624997, 89.89384765624999 22.308398437500003, 89.98515624999999 22.46640624999999, 89.8818359375 22.387597656249994, 89.85322265625001 22.288964843749994, 89.86582031250003 22.173046874999997, 89.8525390625 22.09091796874999, 89.81191406250002 21.98349609374999, 89.7568359375 21.91904296874999, 89.66777343749999 21.877685546875, 89.62812500000001 21.814160156249997, 89.56855468750001 21.76743164062499, 89.56660156250001 21.860595703125, 89.54746093750003 21.983691406250003, 89.48320312499999 22.275537109374994, 89.46933593750003 22.212939453125003, 89.50253906250003 22.031884765624994, 89.50058593750003 21.914355468750003, 89.45195312499999 21.821093750000003, 89.35371093750001 21.721093749999994, 89.27861328124999 21.706982421874997, 89.23427734375002 21.722363281249997, 89.16708984375003 21.78427734374999, 89.09394531250001 21.872753906249997, 89.08164062500003 22.014941406250003, 89.05146484375001 22.093164062499994, 89.02792968750003 21.937207031249997, 88.94931640625003 21.937939453124997, 89.01962890625003 21.833642578124994, 89.0419921875 21.758691406249994, 89.05166015625002 21.654101562500003, 88.96708984374999 21.641357421875, 88.90742187500001 21.653076171875, 88.85751953125003 21.744677734375003, 88.83437500000002 21.661376953125, 88.74501953125002 21.584374999999994, 88.71298828125003 21.621972656249994, 88.69472656250002 21.662402343750003, 88.69121093749999 21.73349609374999, 88.740234375 22.005419921875003, 88.73027343749999 22.036083984374997, 88.70830078124999 22.05615234375, 88.65957031250002 22.066943359375003, 88.6416015625 22.121972656249994, 88.56679687500002 21.83212890624999, 88.59980468750001 21.713769531249994, 88.58466796875001 21.659716796875003, 88.44599609375001 21.6142578125, 88.30546874999999 21.723339843749997, 88.28750000000002 21.758203124999994, 88.27919921875002 21.69687499999999, 88.25371093749999 21.622314453125, 88.1220703125 21.635791015625003, 88.05683593750001 21.694140625000003, 88.09941406249999 21.79355468749999, 88.18105468750002 22.032910156249997, 88.1962890625 22.139550781249994, 88.08710937500001 22.217724609374997, 87.99443359374999 22.265673828125003, 87.94140625 22.374316406250003, 87.96162109375001 22.255029296874994, 88.0107421875 22.212646484375, 88.0830078125 22.18271484374999, 88.15927734375003 22.121728515624994, 88.10410156250003 22.04736328125, 88.05078125 22.00107421874999, 87.94843750000001 21.825439453125, 87.82373046875 21.727343750000003, 87.67822265625 21.653515624999997, 87.20068359375 21.544873046874997, 87.10068359375003 21.500781250000003, 86.9541015625 21.36533203124999, 86.85957031250001 21.236718749999994, 86.84228515625 21.106347656249994, 86.89580078124999 20.965576171875, 86.93935546875002 20.745068359374997, 86.97548828125002 20.700146484374997, 86.92451171875001 20.619775390624994, 86.8359375 20.534326171874994, 86.76249999999999 20.419140624999997, 86.76923828125001 20.355908203124997, 86.75039062500002 20.313232421875, 86.49873046875001 20.171630859375, 86.44580078125 20.088916015625003, 86.37656250000003 20.006738281249994, 86.29365234375001 20.053759765625003, 86.24521484375003 20.053027343750003, 86.31191406250002 19.98779296875, 86.30292968750001 19.94467773437499, 86.27949218750001 19.91943359375, 86.21621093750002 19.895800781250003, 85.85292968750002 19.791748046875, 85.57499999999999 19.692919921875003, 85.49687499999999 19.696923828124994, 85.51113281250002 19.72690429687499, 85.55976562500001 19.753466796875003, 85.55507812500002 19.866894531249997, 85.50410156250001 19.8876953125, 85.4599609375 19.895898437499994, 85.24863281250003 19.75766601562499, 85.16279296875001 19.620898437500003, 85.18076171875003 19.594873046874994, 85.228515625 19.601318359375, 85.37089843749999 19.678906249999997, 85.43691406250002 19.656884765624994, 85.44160156250001 19.62656249999999, 85.2255859375 19.508349609375003, 84.87871785514776 19.216138398860636, 83.11789811417248 22.33694428824115, 82.40676054954042 23.63777240402837, 81.8193549922244 24.991157568157593, 81.36336047072837 26.386297534414236, 81.04628936082243 27.811889634313996, 80.8754602402764 29.256134235405934, 80.85792722096765 30.70673385145123, 81.00035315279874 32.150892445129095, 81.30881377186438 33.575321032234505, 81.7885207932573 34.9662574007245, 82.44345499832893 36.3095094708112, 83.2759066089252 37.59053328771266, 84.28593076330073 38.79455743416337, 85.47074141869561 39.90676517480776, 86.82408720167628 40.9125431716301, 88.33567550145123 41.79780043993915, 89.99073187607537 42.54935296539832, 91.76979358079414 43.155358396607035, 93.64883057001396 43.605772855432605, 95.5997583441943 43.89279073074585, 97.59135396541294 44.01122166278458, 99.59051771321212 43.95875985352439, 101.56375490795241 43.736110822867005, 103.4787055179631 43.346958606198065, 105.30553867215171 42.797778319719, 107.01805870226472 42.09751969916589, 108.59442889768638 41.25720180747439, 110.01749001438782 40.28946493685643, 111.27471337103411 39.20812293324753, 112.35787014815796 38.02775011087768, 113.26251551969482 36.76332492882808, 113.98738233784775 35.429940713703786, 114.53376194199471 34.04258395635028, 114.6526016296907 33.6761146802366, 115.23465247152365 33.24470505606523, 116.40084177335534 32.170109565151165, 117.41448263258295 30.998658049693475, 118.27050420555132 29.744608089090246, 118.96641112249726 28.422388342166542, 119.50185283022087 27.046396096640336, 119.71378341857543 26.249285476259196)), ((120.15538374658517 22.958479266162076, 120.12158203125 23.037011718749994, 120.08339843750002 23.093701171874997, 120.07246093750001 23.14975585937499, 120.13627015308191 23.37019019864399, 120.15538374658517 22.958479266162076)), ((120.12539062500002 23.526611328125, 120.12732492248931 23.56287239772501, 120.13084586530144 23.4870305290492, 120.12539062500002 23.526611328125)), ((119.80908203125 25.5078125, 119.83242187500002 25.47958984374999, 119.82089843750003 25.456982421874997, 119.74667968750003 25.410693359375003, 119.70029296875003 25.43271484374999, 119.69941406250001 25.49472656249999, 119.72304687500002 25.550585937500003, 119.69599609375001 25.590869140625003, 119.72255859375002 25.638818359374994, 119.77792968750003 25.65317382812499, 119.79746093750003 25.623242187499997, 119.82871093750003 25.607373046874997, 119.83837890625 25.591064453125, 119.83867187499999 25.55966796874999, 119.80908203125 25.5078125)), ((118.33935546875 24.469140624999994, 118.40742187500001 24.522119140624994, 118.451171875 24.45556640625, 118.43271484375003 24.414355468750003, 118.29511718750001 24.436328125000003, 118.28730468750001 24.476611328125003, 118.33935546875 24.469140624999994)), ((118.07675781250003 24.501416015624997, 118.10380859374999 24.55234374999999, 118.17070312499999 24.518505859374997, 118.18300781250002 24.496289062499997, 118.14951171875003 24.43613281249999, 118.09052734375001 24.44614257812499, 118.08876953125002 24.48886718749999, 118.07675781250003 24.501416015624997)), ((114.24687499999999 22.263574218749994, 114.23203125000003 22.21054687499999, 114.20722656250001 22.19516601562499, 114.13876953125003 22.268359375000003, 114.13447265625001 22.292236328125, 114.18740234375002 22.296630859375, 114.24687499999999 22.263574218749994)), ((113.88154296875001 22.2802734375, 114.0439453125 22.333398437499994, 114.00332031250002 22.277539062499997, 113.99775390625001 22.210498046875003, 113.87734375000002 22.21044921875, 113.8515625 22.220458984375, 113.8388671875 22.24169921875, 113.88154296875001 22.2802734375)), ((113.42607421874999 22.858593749999997, 113.40439453125003 22.90283203125, 113.46494140625003 22.904541015625, 113.5205078125 22.85205078125, 113.55527343750003 22.80419921875, 113.56367187500001 22.75791015624999, 113.48564453124999 22.828320312499997, 113.46337890625 22.83237304687499, 113.42607421874999 22.858593749999997)), ((112.77109375000003 21.581835937500003, 112.74199218749999 21.618066406249994, 112.73349609375003 21.669921875, 112.71269531249999 21.697949218749997, 112.76054687499999 21.73325195312499, 112.78203124999999 21.772265625000003, 112.83906250000001 21.76450195312499, 112.86259765624999 21.752636718749997, 112.80068359375002 21.694873046875003, 112.79023437500001 21.601855468750003, 112.77109375000003 21.581835937500003)), ((112.54560546875001 21.61850585937499, 112.52500000000003 21.623046875, 112.55898437500002 21.674755859374997, 112.64765625000001 21.710253906250003, 112.64375000000001 21.6396484375, 112.54560546875001 21.61850585937499)), ((110.51933593749999 18.97021484375, 110.47763671875003 18.81259765624999, 110.45126953125003 18.747949218749994, 110.39951171875003 18.69833984374999, 110.33369140625001 18.673291015624997, 110.29082031249999 18.66953124999999, 110.25175781249999 18.65576171875, 110.15625 18.56982421875, 110.04853515625001 18.50522460937499, 110.06640625 18.475634765625003, 110.0673828125 18.447558593750003, 110.02021484375001 18.416259765625, 109.96767578125002 18.422070312499997, 109.81562500000001 18.396679687499997, 109.759765625 18.348291015624994, 109.70273437500003 18.25913085937499, 109.68105468750002 18.247119140625003, 109.58955078125001 18.226318359375, 109.51933593749999 18.21826171875, 109.40009765625001 18.28110351562499, 109.34091796875003 18.299609375000003, 109.18320312500003 18.325146484374997, 109.02988281250003 18.36777343749999, 108.92226562500002 18.41611328124999, 108.70156250000002 18.53525390624999, 108.67607421874999 18.750244140625, 108.63808593750002 18.86630859374999, 108.65000000000003 19.265039062499994, 108.66552734375 19.304101562499994, 108.69355468750001 19.338281249999994, 108.791015625 19.418164062499997, 108.90283203125 19.481347656249994, 109.06289062500002 19.613574218750003, 109.17910156250002 19.674121093750003, 109.27666015624999 19.761132812499994, 109.21953124999999 19.757470703124994, 109.17744140625001 19.768457031249994, 109.21894531250001 19.842822265625003, 109.26347656249999 19.88266601562499, 109.31484375000002 19.90439453124999, 109.41816406250001 19.888818359374994, 109.513671875 19.904248046874997, 109.58427734374999 19.97031249999999, 109.6513671875 19.984375, 109.90625 19.96274414062499, 110.0830078125 19.992919921875, 110.17158203125001 20.0537109375, 110.21337890625 20.056054687499994, 110.34394531250001 20.038818359375, 110.39228515625001 19.9755859375, 110.3935546875 20.059228515624994, 110.41757812500003 20.054736328125003, 110.58818359374999 19.976367187500003, 110.58876953125002 20.072460937499997, 110.59833984375001 20.097607421874997, 110.65175781250002 20.137744140625003, 110.67851562499999 20.13706054687499, 110.74453125000002 20.059472656249994, 110.80908203125 20.014404296875, 110.88876953125003 19.991943359375, 110.93828124999999 19.947558593750003, 110.970703125 19.88330078125, 111.013671875 19.655468749999997, 110.91269531250003 19.586083984374994, 110.822265625 19.557910156250003, 110.64091796874999 19.291210937499997, 110.60312500000003 19.20703125, 110.57216796875002 19.171875, 110.5625 19.135156249999994, 110.56601562500003 19.098535156249994, 110.51933593749999 18.97021484375)), ((110.42236328125 21.05859375, 110.52158203125003 21.08310546874999, 110.53955078125 21.039013671874997, 110.53886718749999 21.018457031249994, 110.50390625 20.967724609374997, 110.421875 21.006884765625003, 110.33994140625003 20.997753906249997, 110.28095703125001 21.001171874999997, 110.2646484375 21.025195312500003, 110.30986328124999 21.074755859375003, 110.38515625000002 21.093164062499994, 110.42236328125 21.05859375)), ((107.60273437500001 21.216796875, 107.45869140625001 21.09165039062499, 107.40351562500001 21.093652343749994, 107.45253906250002 21.235302734374997, 107.47626953125001 21.268945312499994, 107.56269531250001 21.220410156249997, 107.60273437500001 21.216796875)), ((107.51894531250002 21.012841796874994, 107.55126953125 21.03403320312499, 107.55107421874999 20.981201171875, 107.52128906249999 20.92661132812499, 107.46552734375001 20.900537109374994, 107.39921874999999 20.903466796874994, 107.47861328125003 20.952343749999997, 107.51894531250002 21.012841796874994)), ((107.16767578125001 10.397167968749997, 107.08378906249999 10.336572265624994, 107.07792968749999 10.387499999999989, 107.15087890625 10.420312499999994, 107.17656249999999 10.446191406249994, 107.19492187500003 10.445703124999994, 107.16767578125001 10.397167968749997)), ((107.04374999999999 20.836816406249994, 107.064453125 20.817285156249994, 107.06396484375 20.799755859374997, 107.04228515624999 20.761035156250003, 107.03134765625003 20.747021484374997, 106.99003906249999 20.743066406249994, 106.91064453125 20.82421875, 106.95341796874999 20.86704101562499, 107.04374999999999 20.836816406249994)), ((106.86562500000002 20.815722656250003, 106.85410156250003 20.79638671875, 106.80312500000002 20.84375, 106.76943359375002 20.864208984374997, 106.79531250000002 20.927929687499997, 106.85507812500003 20.85825195312499, 106.86562500000002 20.815722656250003)), ((106.65253906250001 8.701123046874997, 106.61748046874999 8.682812499999997, 106.58925781250002 8.680517578124991, 106.56796875000003 8.700927734375, 106.65859375000002 8.766357421875, 106.64951171875003 8.722998046874991, 106.65253906250001 8.701123046874997)), ((104.02773437500002 10.428369140624994, 104.06396484375 10.390820312499997, 104.0830078125 10.341113281249989, 104.07578125000003 10.224853515625, 104.03681640625001 10.110742187499994, 104.04833984375 10.06103515625, 104.01845703125002 10.029199218749994, 103.9521484375 10.242919921875, 103.86796874999999 10.335400390624997, 103.84951171875002 10.37109375, 103.8984375 10.368505859374991, 103.98583984375 10.426953124999997, 104.02773437500002 10.428369140624994)), ((103.22343749999999 10.781982421875, 103.31777343750002 10.718505859375, 103.28125 10.6796875, 103.22294921874999 10.759570312499989, 103.22343749999999 10.781982421875)), ((103.00751953125001 11.38330078125, 103.03681640625001 11.389941406249989, 103.04511718750001 11.285058593749994, 103.02734375 11.275488281249991, 103.01054687499999 11.275781249999994, 102.99335937500001 11.290429687499994, 102.99501953125002 11.348095703124997, 103.00751953125001 11.38330078125)), ((102.58994140625003 11.572167968749994, 102.53281250000003 11.614941406249997, 102.54648437500003 11.667773437499989, 102.56894531250003 11.691699218749989, 102.6064453125 11.676513671875, 102.58994140625003 11.572167968749994)), ((102.37812500000001 11.982958984374989, 102.35996093750003 11.974414062499989, 102.30195312500001 11.980810546874991, 102.27333984375002 12.119335937499997, 102.27744140625003 12.15185546875, 102.31884765625 12.141650390624989, 102.37812500000001 12.072851562499991, 102.4267578125 11.988720703124997, 102.42998046874999 11.964746093749994, 102.37812500000001 11.982958984374989)), ((99.96240234375 9.421630859375, 99.93125000000003 9.47607421875, 99.93955078125003 9.559960937499994, 99.95361328125 9.581005859374997, 100.04296875 9.576855468749997, 100.07070312500002 9.586035156249991, 100.07529296875003 9.529443359374994, 100.0537109375 9.46142578125, 99.96240234375 9.421630859375)), ((100.04345703125 9.791650390624994, 100.07304687499999 9.749121093749991, 100.07412109375002 9.696679687499994, 100.064453125 9.679980468749989, 100.02568359374999 9.711718749999989, 99.998046875 9.747607421874989, 99.9833984375 9.793554687499991, 100.04345703125 9.791650390624994)), ((99.04511718750001 7.636523437499989, 99.07841796874999 7.591845703124989, 99.09040793992614 7.536200517347011, 99.03769531250003 7.548486328124994, 99.0380859375 7.625732421875, 99.04511718750001 7.636523437499989)), ((98.52529296875002 12.005175781249989, 98.60957031250001 11.956640624999991, 98.57646484374999 11.925097656249989, 98.47431640625001 11.8994140625, 98.45449218750002 12.061279296875, 98.46621093750002 12.084277343749989, 98.52529296875002 12.005175781249989)), ((98.59199218750001 7.9339355468749915, 98.57998046875002 7.917041015624989, 98.52939453125003 8.108544921874994, 98.60429687499999 8.057324218749997, 98.59199218750001 7.9339355468749915)), ((98.39687500000002 11.683544921874997, 98.39951171875003 11.71484375, 98.37646484375 11.79150390625, 98.52353515625003 11.804931640625, 98.55380859375003 11.744873046875, 98.52841796875003 11.538671874999991, 98.46484375 11.567187499999989, 98.43476562500001 11.567089843749997, 98.39687500000002 11.683544921874997)), ((98.51894531250002 10.959374999999994, 98.47744140625002 10.979736328125, 98.52656250000001 11.086962890624989, 98.54169921875001 10.961523437499991, 98.51894531250002 10.959374999999994)), ((98.43642578125002 12.570507812499997, 98.46826171875 12.571337890624989, 98.45947265625 12.473730468749991, 98.380859375 12.353662109374994, 98.33447265625 12.336181640625, 98.31386718750002 12.335986328124989, 98.33144531250002 12.511425781249997, 98.30253906249999 12.611572265625, 98.31210937500003 12.678173828124997, 98.396484375 12.647119140624994, 98.41396484375002 12.597949218749989, 98.43642578125002 12.570507812499997)), ((98.3984375 7.828417968749989, 98.357421875 7.8294433593749915, 98.31562500000001 7.7823242187499915, 98.29628906250002 7.776074218749997, 98.26230468750003 7.926074218749989, 98.30136718750003 8.13623046875, 98.32207031249999 8.166308593749989, 98.35097656250002 8.110644531249989, 98.43496093750002 8.085644531249997, 98.39882812500002 7.964550781249997, 98.40908203125002 7.902050781249997, 98.3984375 7.828417968749989)), ((98.25458984375001 13.188574218749991, 98.26533203125001 13.202246093749991, 98.29863281249999 13.151660156249989, 98.3154296875 13.099072265624997, 98.30917968750003 12.934716796874994, 98.25927734375 13.014013671874991, 98.25078124999999 13.104394531249994, 98.25458984375001 13.188574218749991)), ((98.30751953125002 9.051464843749997, 98.25078124999999 9.040820312499989, 98.25839843750003 9.095410156249997, 98.27363281250001 9.1298828125, 98.30117187500002 9.139111328124997, 98.3125 9.080371093749989, 98.30751953125002 9.051464843749997)), ((98.2216796875 11.478222656249997, 98.21621093750002 11.455761718749997, 98.18730468749999 11.472412109375, 98.20107421875002 11.567187499999989, 98.23906249999999 11.644726562499997, 98.27812499999999 11.758398437499991, 98.29960937499999 11.783007812499989, 98.30751953125002 11.722900390625, 98.28378906250003 11.594091796874991, 98.26328125000003 11.523632812499997, 98.2216796875 11.478222656249997)), ((98.29345703125 10.779687499999994, 98.271484375 10.739892578124994, 98.25175781249999 10.744433593749989, 98.21816406250002 10.837744140624991, 98.15537109375003 10.89794921875, 98.08046875000002 10.886621093749994, 98.142578125 10.963134765625, 98.16728515624999 10.980322265624991, 98.20976562499999 10.952734374999991, 98.29345703125 10.779687499999994)), ((98.14023437500003 9.974658203124989, 98.220703125 10.045214843749989, 98.29169921875001 10.051318359374989, 98.28339843750001 10.007617187499989, 98.23124999999999 9.953955078124991, 98.1826171875 9.933447265624991, 98.13437500000003 9.875390624999994, 98.11806640625002 9.877880859374997, 98.14023437500003 9.974658203124989)), ((98.1201171875 12.191308593749994, 98.13671875 12.150439453124989, 98.12509765625003 12.144873046874991, 98.07539062500001 12.164453124999994, 98.03730468750001 12.232470703124989, 98.05732421875001 12.280078124999989, 98.07138671875003 12.291796874999989, 98.12246093750002 12.278710937499994, 98.12841796875 12.26123046875, 98.11845703124999 12.223388671875, 98.1201171875 12.191308593749994)), ((98.07548828124999 11.6923828125, 98.08359375000003 11.636816406249991, 98.02109375000003 11.695898437499991, 98.01035156250003 11.860253906249994, 98.0595703125 11.756689453124991, 98.08076171875001 11.733203124999989, 98.07548828124999 11.6923828125)), ((97.93867187500001 12.346093749999994, 97.990234375 12.393798828125, 98.04511718750001 12.387011718749989, 98.05986328124999 12.397851562499994, 98.06611328125001 12.389794921874994, 98.06035156249999 12.353515625, 98.00234375000002 12.279003906249997, 97.95175781250003 12.322314453124989, 97.93867187500001 12.346093749999994)), ((97.48037109375002 16.305712890625003, 97.46914062500002 16.46103515624999, 97.51640624999999 16.496875000000003, 97.5419921875 16.505078124999997, 97.57900390625002 16.486035156249997, 97.599609375 16.42954101562499, 97.58935546875 16.397363281249994, 97.57499999999999 16.253222656250003, 97.53720703125003 16.240136718749994, 97.48037109375002 16.305712890625003)), ((94.83818359374999 15.89208984375, 94.80488281250001 15.8193359375, 94.78437500000001 15.793847656249994, 94.73349609375003 15.823046875000003, 94.82802734375002 15.933007812499994, 94.83818359374999 15.89208984375)), ((94.54599609375003 16.15283203125, 94.60126953125001 16.205517578124997, 94.61865234375 16.141308593749997, 94.56611328125001 16.019287109375, 94.47675781250001 15.945947265624994, 94.41191406249999 15.848388671875, 94.38789062500001 15.994140625, 94.49375000000003 16.075341796874994, 94.54599609375003 16.15283203125)), ((93.64404296875 19.495068359374997, 93.68837890625002 19.54443359375, 93.71484375 19.558251953124994, 93.82949218750002 19.475292968749997, 93.87470703125001 19.48105468749999, 93.94570312500002 19.428613281249994, 93.94746093750001 19.408154296874997, 93.93398437500002 19.365429687499997, 93.90195312500003 19.33203125, 93.81523437499999 19.29868164062499, 93.755859375 19.32568359375, 93.73232421875002 19.416308593750003, 93.66220703125003 19.458935546874997, 93.64404296875 19.495068359374997)), ((93.48750000000001 18.86752929687499, 93.61826171875003 18.888818359374994, 93.74472656250003 18.865527343750003, 93.74550781250002 18.808056640624997, 93.71835937500003 18.715722656249994, 93.67402343750001 18.675683593749994, 93.56992187500003 18.759570312500003, 93.48750000000001 18.86752929687499)), ((93.51328125000003 19.754785156249994, 93.44462890624999 19.806445312500003, 93.41953125000003 19.877587890624994, 93.41289062499999 19.950341796874994, 93.49179687500003 19.892578125, 93.51328125000003 19.754785156249994)), ((92.69472656250002 12.214697265624991, 92.76923828125001 12.215576171875, 92.78828125000001 12.225781249999997, 92.77763671874999 12.302539062499989, 92.73408203125001 12.3359375, 92.71894531250001 12.357324218749994, 92.720703125 12.541259765625, 92.73203125000003 12.615624999999994, 92.75917968750002 12.669091796874994, 92.74003906249999 12.779638671874991, 92.75312500000001 12.820898437499991, 92.80703125000002 12.87890625, 92.83085937499999 13.002636718749997, 92.80898437500002 13.039599609374989, 92.86015624999999 13.230566406249991, 92.85732421875002 13.358105468749997, 92.92460937499999 13.48583984375, 93.02939453125003 13.543847656249994, 93.06230468749999 13.545458984375003, 93.06669921874999 13.436474609374997, 93.07666015625 13.400683593750003, 93.01601562500002 13.336181640625, 93.07382812500003 13.252099609374994, 93.06611328125001 13.221582031249994, 93.04296875 13.154882812499991, 93.00468749999999 13.08935546875, 92.95136718750001 13.0625, 92.90996093749999 12.975195312499991, 92.88623046875 12.942285156249994, 92.96503906250001 12.850488281249994, 92.990234375 12.538525390624997, 92.9326171875 12.453076171874997, 92.86367187500002 12.43603515625, 92.87949218750003 12.227929687499994, 92.8671875 12.181445312499989, 92.798828125 12.079248046874994, 92.78623046875003 12.03466796875, 92.74765625000003 11.992773437499991, 92.76396484374999 11.9404296875, 92.79677734375002 11.917529296874989, 92.79755859375001 11.874658203124994, 92.76699218750002 11.7646484375, 92.7646484375 11.63916015625, 92.72275390625003 11.536083984374997, 92.70078125000003 11.512548828124991, 92.66835937500002 11.538720703124994, 92.57558593750002 11.718212890624997, 92.55966796875003 11.833447265624997, 92.53388671875001 11.873388671874991, 92.56650390625003 11.930517578124991, 92.60751953125003 11.949511718749989, 92.6318359375 12.013867187499997, 92.640625 12.112207031249994, 92.67646484375001 12.1923828125, 92.69472656250002 12.214697265624991)), ((93.06210937500003 11.8994140625, 92.98173828124999 11.95947265625, 92.95537109374999 12.00244140625, 92.99580078125001 12.031787109374989, 93.01738281249999 12.036816406249997, 93.06210937500003 11.8994140625)), ((93.01015625000002 19.92392578124999, 93.02324218749999 19.828857421875, 92.97519531250003 19.86801757812499, 92.91269531250003 19.999804687500003, 92.91464843750003 20.086474609375003, 92.95957031250003 20.046191406250003, 93.01015625000002 19.92392578124999)), ((92.71757812499999 12.864892578124994, 92.68574218750001 12.799951171874994, 92.6796875 12.939257812499989, 92.69443359375003 12.956787109375, 92.71064453125001 12.961572265624994, 92.73085937500002 12.948535156249989, 92.71757812499999 12.864892578124994)), ((92.69003906250003 11.463427734374989, 92.69316406249999 11.381152343749989, 92.64453125 11.361328125, 92.595703125 11.386425781249997, 92.63388671875003 11.4267578125, 92.64023437500003 11.509130859374991, 92.69003906250003 11.463427734374989)), ((92.36953125000002 10.547412109374989, 92.37714843750001 10.650585937499997, 92.35283203124999 10.751123046874994, 92.37070312500003 10.793505859374989, 92.44785156250003 10.865527343749989, 92.51035156250003 10.8974609375, 92.55400390624999 10.7998046875, 92.57431640625003 10.704248046874994, 92.50283203125002 10.554882812499997, 92.47265625 10.520751953125, 92.36953125000002 10.547412109374989)), ((91.87324218750001 21.574414062499997, 91.85703125000003 21.708789062500003, 91.90771484375 21.722949218750003, 91.93398437500002 21.72216796875, 91.9619140625 21.609765624999994, 91.94921875 21.508056640625, 91.88886718750001 21.503320312499994, 91.85947265625003 21.532958984375, 91.87324218750001 21.574414062499997)), ((91.861328125 21.926660156249994, 91.88251953125001 21.88364257812499, 91.87382812499999 21.83212890624999, 91.83759765625001 21.750244140625, 91.81972656250002 21.809814453125, 91.83515625000001 21.88535156249999, 91.85068359375003 21.927050781250003, 91.861328125 21.926660156249994)), ((91.41132812500001 22.47568359374999, 91.43886718750002 22.598828124999997, 91.4560546875 22.616503906250003, 91.48398437500003 22.576562499999994, 91.52304687500003 22.49072265625, 91.55673828125003 22.382226562499994, 91.51044921875001 22.352783203125, 91.46689453125003 22.37841796875, 91.41132812500001 22.47568359374999)), ((91.04472656249999 22.105175781249997, 91.07949218750002 22.519726562499997, 91.15830078125003 22.365429687499997, 91.17822265625 22.283007812500003, 91.15078125000002 22.175195312499994, 91.04472656249999 22.105175781249997)), ((90.67226562500002 22.813183593749997, 90.69921875 22.713525390624994, 90.73691406250003 22.638720703125003, 90.8681640625 22.48486328125, 90.86582031250003 22.390576171874997, 90.82988281249999 22.159960937500003, 90.77763671874999 22.089306640624997, 90.60361328125003 22.05419921875, 90.51503906250002 22.065136718749997, 90.68046874999999 22.32749023437499, 90.67490234375003 22.444970703124994, 90.64921874999999 22.540673828124994, 90.56494140625 22.617626953124997, 90.56035156249999 22.672558593749997, 90.52255859375003 22.747509765624997, 90.5029296875 22.835351562499994, 90.59648437499999 22.863525390625, 90.67226562500002 22.813183593749997)), ((90.57988281249999 23.035449218750003, 90.64179687500001 22.96298828124999, 90.65957031250002 22.92001953124999, 90.60390625000002 22.945556640625, 90.56230468749999 22.97543945312499, 90.53632812500001 23.014892578125, 90.57988281249999 23.035449218750003)))